address,business_id,categories,city,name,postal_code,stars,state
"4260 W Craig Rd, Ste 150-A",nTq2Oej2WsSiOBNNEtR6lg,"Auto Insurance, Insurance, Health Insurance Offices, Funeral Services & Cemeteries, Health & Medical, Home & Rental Insurance, Local Services, Financial Services, Life Insurance",Las Vegas,Nevada Insurance Enrollment,89032,4.5,NV
"5801 South McClintock Dr, Ste 103",2CKXu855VwHvMH5ZIRzpkw,"Florists, Shopping, Local Services, Bridal, Flowers & Gifts, Funeral Services & Cemeteries",Tempe,Bobbie's Flowers,85283,4.5,AZ
2515 N Scottsdale Rd,eFGSoYqMsFW2kECQPnxirQ,"Flowers & Gifts, Florists, Funeral Services & Cemeteries, Wedding Planning, Floral Designers, Shopping, Event Planning & Services, Local Services",Scottsdale,The Flower Cart,85257,4.5,AZ
9380 W Peoria Ave,W3zYIYCyUIwMZGlU_z8sBw,"Funeral Services & Cemeteries, Local Services, Cremation Services",Peoria,Best Funeral Services,85345,3.0,AZ
5502 2 Street SW,DK6RvPJiCmCBXgeJEmjIfQ,"Funeral Services & Cemeteries, Local Services",Calgary,Evan J Strong Funeral Services,T2H 0G9,3.5,AB
4164 Sheppard Avenue E,JAiZVIzhwKgPjncWUedCNQ,"Local Services, Funeral Services & Cemeteries",Scarborough,Ogden Funeral Homes,M1S 1T3,3.5,ON
6625 E Main St,KvAGwOlBijq1KyL_jLmieQ,"Local Services, Mortuary Services, Funeral Services & Cemeteries, Cremation Services",Mesa,Melcher Mortuary Mission Chapel & Crematory,85205,3.5,AZ
2180 Hurontario Street,Wa8xbP8OQrQtpgUGHDq3sg,"Local Services, Funeral Services & Cemeteries, Event Planning & Services",Mississauga,Turner & Porter Funeral Home,L5B 1M8,4.0,ON
4310 E Southern Ave,nccH78NjYLpXRxp5ZcNkiw,"Funeral Services & Cemeteries, Local Services",Phoenix,Resthaven / Carr-Tenney Mortuary & Memorial Gardens,85042,2.5,AZ
422 W Mclellan Rd,kgLTL1qgIKPpEwsEx3lSRA,"Cremation Services, Local Services, Funeral Services & Cemeteries",Mesa,Angels Cremation And Burials,85201,3.5,AZ
"20021 N Cave Creek Rd, Ste 14",0WVe1N86eZXuElRkPG6WiA,"Pet Adoption, Funeral Services & Cemeteries, Pest Control, Local Services, Pets, Pet Services, Animal Shelters, Pet Stores",Phoenix,All Animals Rescue & Transportation,85024,1.5,AZ
"19109 West Catawba Ave, Ste 200",7uvm5x-88KlC0Lv3TBP_5Q,"Pet Cremation Services, Local Services, Pets, Pet Services, Cremation Services, Funeral Services & Cemeteries",Cornelius,Life Celebration Pet Crematory,28031,5.0,NC
160 Beecroft Road,N9sKBn-_W8IMFlb8twZMbA,"Local Services, Funeral Services & Cemeteries",North York,York Cemetery Visitation Chapel and Reception Centre,M2N 5Z5,3.5,ON
7569 Sanctuary Cir,1_qO632iUbcqzp750EFjlA,"Pets, Veterinarians, Local Services, Funeral Services & Cemeteries",Brecksville,Pet Truth Productions Inc.,44141,4.0,OH
3700 Center Rd,o4uAhbWqgP-2gN-f3REzJw,"Funeral Services & Cemeteries, Local Services",Avon,Resthaven Memory Gardens,44011,1.0,OH
5680 Pearl Rd,CBW3v3YgGCyeRLisTZy6bg,"Funeral Services & Cemeteries, Local Services",Cleveland,Zabor Funeral Home,44129,4.0,OH
4800 E Indian School Rd,3-mMmqG7ADRlvXHEAKI-dw,"Local Services, Funeral Services & Cemeteries",Phoenix,Whitney & Murphy Funeral Home,85018,5.0,AZ
7979 W Warm Springs Rd,Ekd6Li4kZwd14XY4AzxINA,"Funeral Services & Cemeteries, Cremation Services, Local Services, Mortuary Services",Las Vegas,Palm Southwest Mortuary,89113,5.0,NV
2918 S Alma School Rd,m58sbyn8wR5xV77XvbMeGg,"Flooring, Roofing, Home Services, Funeral Services & Cemeteries, Local Services, Damage Restoration, Contractors",Mesa,Stratton Restoration,85210,3.0,AZ
401 N Hayden Rd,w973Fxar34ycsMsAKHNC9A,"Local Services, Funeral Services & Cemeteries",Scottsdale,Green Acres Mortuary & Cemetery,85257,3.5,AZ
3426 Brush Rd,SA5J77D4HFYQi52sXPF1Ng,"Local Services, Pet Groomers, Funeral Services & Cemeteries, Pet Services, Pets, Pet Sitting",Richfield,Paws Awhile Pet Memorial Park,44286,5.0,OH
6021 University Ave,lN0OQcEjSd8kwNSIH3998g,"Funeral Services & Cemeteries, Local Flavor, Local Services",Madison,Dead Pals of Sam Sanfillippo,53774,5.0,WI
18149 Bagley Rd,YLAV3ZfWX7yUu72Kr3LUTw,"Local Services, Funeral Services & Cemeteries, Cremation Services",Middleburg Heights,A. Ripepi & Sons Funeral Home,44130,2.0,OH
"9300 E Shea Blvd, Bldg C",-xtkDdmxXsyqs017t0C0Bw,"Local Services, Funeral Services & Cemeteries, Mortuary Services, Cremation Services",Scottsdale,Paradise Memorial Gardens and Mausoleum,85260,4.5,AZ
1246 E Jefferson St,MYzLe2iTBo5kEbo_u4m6xA,"Funeral Services & Cemeteries, Local Services",Phoenix,Harper Funeral Home,85034,2.5,AZ
718 Hazelwood Ave,wN-dlJcAUYKGGmA0ku2skg,"Funeral Services & Cemeteries, Local Services",Pittsburgh,Calvary Cemetery,15217,4.5,PA
"994 Perry Hwy, Ste 1",Hav5aI2bcHxS-vCT3aVYuA,"Florists, Funeral Services & Cemeteries, Local Services, Flowers & Gifts, Shopping",Pittsburgh,The Flower Market,15237,5.0,PA
"833 Nevada Hwy, Ste 1",txglF4y_AZe2bVRz0q1U9g,"Mortuary Services, Funeral Services & Cemeteries, Local Services",Boulder City,Boulder City Family Mortuary,89005,5.0,NV
9850 W Thunderbird Blvd,eu9G0ykFJkfWQLgPTYcLjA,"Funeral Services & Cemeteries, Local Services",Sun City,Regency Mortuary,85351,3.0,AZ
7400 West Cheyenne Ave,Zt-FyJkavwPklsh7hxKx6g,"Funeral Services & Cemeteries, Local Services, Cremation Services, Mortuary Services",Las Vegas,Palm Cheyenne Mortuary,89129,4.0,NV
6701 North Jones Blvd,kkJrD_kd2iYPNRGuiopGBA,"Cremation Services, Funeral Services & Cemeteries, Local Services",Las Vegas,Palm Northwest Mortuary,89131,4.5,NV
844 Copley Rd,cBWXFMj5qnD8PxXD78z0mg,"Home & Garden, Funeral Services & Cemeteries, Nurseries & Gardening, Local Services, Shopping, Event Planning & Services, Florists, Gift Shops, Wedding Planning, Flowers & Gifts",Akron,Staircase Florist,44320,3.0,OH
4668 Pioneer Trl,qetCAMNJceXg1txdrm7mHQ,"Local Services, Funeral Services & Cemeteries",Mantua,greene funeral home,44255,1.0,OH
405 E Southern Ave,0Ebm6BltdiFU6yGfXJhOIg,"Mortuary Services, Local Services, Funeral Services & Cemeteries",Tempe,Tempe Mortuary,85282,5.0,AZ
2054 Wilshire Ct,-sldiyeRl34ughPRKDDw7g,"Pet Services, Pets, Local Services, Funeral Services & Cemeteries",Concord,Good Shepherd Pet Services,28025,3.5,NC
27099 Miles Rd,nHoR3kaKYhfsmZJFEFiVYw,"Cremation Services, Local Services, Funeral Services & Cemeteries",Chagrin Falls,Corrigan F J Burial & Cremation Service,44022,3.5,OH
7251 W Lone Mountain Rd,rNiZY9ZuzZWkMgao_Ab9Tw,"Funeral Services & Cemeteries, Local Services",Las Vegas,Bunker's Memory Gardens Memorial Park,89129,2.0,NV
1678 Som Center Rd,B4Jjznazs42DOz_CMY6XEw,"Funeral Services & Cemeteries, Local Services",Mayfield Heights,Knollwood Cemetery Association,44124,1.0,OH
5373 Ridge Rd,N-kiKG_FR2jXwpue-UO2XQ,"Local Services, Funeral Services & Cemeteries",Cleveland,Casket Store,44129,3.0,OH
6150 Yonge Street,GRZBZycklFaEHBzsnqnxfA,"Funeral Services & Cemeteries, Cremation Services, Local Services",North York,R S Kane Funeral Home,M2M 3W9,4.5,ON
733 Patton Street Ext,dNqm1Ykn7aoNdFDFPs91bA,"Funeral Services & Cemeteries, Local Services",Monroeville,Good Shepherd Cemetery,15146,4.5,PA
5450 Stephanie St,MwQIfNOeSlmmMJfAqdORtA,"Funeral Services & Cemeteries, Pet Cremation Services, Local Services, Pet Services, Pets",Las Vegas,La Paloma Funeral Services,89122,4.0,NV
8555 E Pinnacle Peak Rd,Uet_CmNrjCmEtWKanFC9sA,"Mortuary Services, Funeral Services & Cemeteries, Local Services",Scottsdale,Messinger Pinnacle Peak Mortuary,85255,4.5,AZ
1111 Las Vegas Blvd N,jO5xKydIdX9dDjfQdwBqLQ,"Local Services, Cremation Services, Funeral Services & Cemeteries, Mortuary Services",Las Vegas,Desert Memorial Cremation & Burial,89101,2.0,NV
"1525 W University Dr, Ste 102",n64KfTWONkAd5ir1ab6Ilg,"Local Services, Funeral Services & Cemeteries",Tempe,SereniCare Funeral Home,85281,5.0,AZ
9440 W Peoria Ave,NrznYBngUD5iSZpomJvoQA,"Candle Stores, Flowers & Gifts, Funeral Services & Cemeteries, Local Services, Florists, Home Decor, Home & Garden, Shopping, Gift Shops",Peoria,Exclusive Flowers and Gifts,85345,3.0,AZ
28 Old Kingston Road,2INah43ljapnUT5SlRJpOA,"Funeral Services & Cemeteries, Local Services",Ajax,McEachnie Funeral Home,L1T 2Z7,4.0,ON
33 N Centennial Way,Kl6ZL3MMo5UBMzpVl6b7Dg,"Local Services, Cremation Services, Funeral Services & Cemeteries, Mortuary Services",Mesa,Bunker Family Funerals & Cremation,85201,4.5,AZ
6901 W Indian School Rd,a-YW47i4nMImU7CcrqN4CQ,"Local Services, Cremation Services, Funeral Services & Cemeteries",Phoenix,Advantage Funeral & Cremation Services - Maryvale,85033,5.0,AZ
63 Mimico Avenue,dFPmONp7Wzvh3JNg8T9dxw,"Funeral Services & Cemeteries, Local Services",Toronto,GH Hogle Funeral Homes,M8V 1R2,5.0,ON
4238 Acker Rd,rQsIQBkwDZiX5sxSXpXivA,"Travel Services, Funeral Services & Cemeteries, Hotels & Travel, Engraving, Local Services",Madison,Pechmann Memorials,53704,3.5,WI
6245 Columbia Road,7KclAwzrknesp6mYmVEdsQ,"Funeral Services & Cemeteries, Local Services",North Olmsted,Dostal Bokas Funeral Services,44070,3.5,OH
6500 E Bell Rd,tLq5sMHWSrFvgnX4Oix9rQ,"Local Services, Mortuary Services, Funeral Services & Cemeteries",Scottsdale,Hansen Mortuary - Scottsdale,85254,5.0,AZ
1600 South Jones Blvd,8CC5a3KFZ3bzm4Kn_g_WYQ,"Cremation Services, Funeral Services & Cemeteries, Local Services",Las Vegas,Palm South Jones Mortuary,89146,3.0,NV
7924 N 59th Ave,EnBo7WQMy9GCCIlpeWU8yw,"Local Services, Funeral Services & Cemeteries, Mortuary Services",Glendale,Chapel of the Chimes Mortuary,85301,4.0,AZ
"5450 Stephanie St, Ste 100",iktVOiEe5mLHmonoYcU1ZA,"Cremation Services, Local Services, Funeral Services & Cemeteries",Las Vegas,La Paloma Pet Cremation,89122,5.0,NV
720 N Lang Ave,edT8-t0TCqn9vZdjn4s0lw,"Local Services, Funeral Services & Cemeteries",Pittsburgh,Spriggs-Watson Funeral Home,15208,3.5,PA
7600 S Eastern Ave,OBGLTac74G_1Pt57M1sIhQ,"Funeral Services & Cemeteries, Cremation Services, Local Services",Las Vegas,Palm Eastern Mortuary,89123,3.5,NV
201 Marguerite Ave,71hkV-nhiIGlN0agjxzYmA,"Funeral Services & Cemeteries, Local Services",Wilmerding,Alfieri Funeral Home,15148,2.5,PA
800 South Boulder Hwy,Gu9ntCd2HY4u4y7_JCmKvA,"Local Services, Funeral Services & Cemeteries, Cremation Services",Henderson,Palm Boulder Highway Mortuary,89015,4.0,NV
5618 Broadview Rd,_L6QcAKBbzhcH2wXqsA0sQ,"Funeral Services & Cemeteries, Local Services",Parma,Cleveland Cremation,44134,5.0,OH
11850 Edgewater Dr,DonwAYNHJjTleLwn6fz30Q,"Food, American (Traditional), Local Services, Restaurants, Cafes, Funeral Services & Cemeteries, Coffee & Tea",Lakewood,Lake House Cafe,44107,3.5,OH
2200 Brighton Rd,mnEw54FPQ0Je77e8WVLJBA,"Local Services, Funeral Services & Cemeteries",Pittsburgh,Union Dale Cemetery,15212,2.5,PA
13738 W Camino Del Sol,_XmWK19esWgnOEZyaJ_8iQ,"Cremation Services, Funeral Services & Cemeteries, Local Services",Sun City West,Camino Del Sol Funeral Chapel & Cremation Center,85375,3.5,AZ
200 Winchester Street,NqxgwVjXaxVTaLY7plziBw,"Public Services & Government, Landmarks & Historical Buildings, Local Services, Funeral Services & Cemeteries, Local Flavor",Toronto,Toronto Necropolis & Crematorium,M4X 1B7,4.5,ON
"2007 W Bethany Home Rd, Ste A",vyMYESwDpWa1pRSUBBM4XA,"Wedding Planning, Shopping, Florists, Flowers & Gifts, Event Planning & Services, Gift Shops, Floral Designers, Local Services, Funeral Services & Cemeteries",Phoenix,Roadrunner Florist,85015,5.0,AZ
"1634 S Priest Dr, Ste 103",XRo9xH8S07ve1Zz1EJa0pQ,"Funeral Services & Cemeteries, Local Services",Tempe,Neptune Society - Phoenix,85281,3.0,AZ
15826 N Del Webb Blvd,RNkB4XsekPi5HPxT7vN2Dg,"Mortuary Services, Local Services, Cremation Services, Funeral Services & Cemeteries",Sun City,"Sunland Memorial Park, Mortuary & Cremation Center",85351,3.0,AZ
1097 O'Connor Drive,bvd0_KOYC19Im9lLBGnQ4Q,"Cremation Services, Local Services, Funeral Services & Cemeteries",Toronto,Aftercare Cremation & Burial Service,M4B 2T5,5.0,ON
3280 Av Sheppard E,-P_IDQAFH0-IoZSXTzWBwA,"Funeral Services & Cemeteries, Local Services, Cremation Services",Scarborough,Highland Funeral Home - Scarborough Chapel,M1T 3K3,1.5,ON
1424 Statesville Ave,rlSFhX7-JFjRDxrQTPoVeQ,"Local Services, Funeral Services & Cemeteries",Charlotte,Alexander Funeral Home,28206,2.0,NC
5348 W Bethany Home Rd,Jh_-_Uu5l-1oLI-dFmWCUQ,"Pet Services, Pet Cremation Services, Local Services, Funeral Services & Cemeteries, Pets",Glendale,Animal Cremation Services,85301,2.5,AZ
700 W 6th St,AAT50SSFgYWh4ntRAnxwuA,"Funeral Services & Cemeteries, Local Services, Active Life",Charlotte,Elmwood Cemetery,28202,4.5,NC
400 S Power Rd,mzbZR58X46Z59rL-FGI4bQ,"Funeral Services & Cemeteries, Local Services",Mesa,Mariposa Gardens Memorial Park and Funeral Care,85206,5.0,AZ
5762 Pearl Rd,8NWvLlXl2mXPSPDr8DuZ_Q,"Local Services, Funeral Services & Cemeteries",Cleveland,Ripepi Funeral Home,44129,2.5,OH
43 S Stapley Dr,C4kiDXDu9dFb8Ed4CQeAJA,"Local Services, Funeral Services & Cemeteries",Mesa,Advantage Funeral & Cremation Services - Melcher Roses,85204,5.0,AZ
7120 Cedar Ave,Qf6WvdnWLz2SuYhiwvMdlw,"Funeral Services & Cemeteries, Local Services",Cleveland,Pernel Jones and Sons Funeral Home,44103,2.5,OH
438 W Sunset Rd,1UzNLtvHCiyBW_yeq6CF8w,"Funeral Services & Cemeteries, Local Services, Cremation Services",Henderson,Hites Funeral Home & Cremation Service,89011,4.0,NV
16901 Old Statesville Rd,xl8cfFXZDeOS9LuUJac2eA,"Local Services, Funeral Services & Cemeteries",Huntersville,Raymer- Kepner Funeral Home & Cremation Services,28078,4.5,NC
24353 Lorain Rd,4Eeke-5QUeKEHjw_N9dJmw,"Shopping, Local Services, Flowers & Gifts, Florists, Funeral Services & Cemeteries, Gift Shops, Interior Design, Food, Specialty Food, Fruits & Veggies, Home Services",North Olmsted,Kathy Wilhelmy Flowers,44070,2.5,OH
1401 S Rainbow Blvd,Euq0ltqgsmD2VMlBopDbdg,"Local Services, Funeral Services & Cemeteries",Las Vegas,Davis Funeral Home and Memorial Park,89146,4.5,NV
2300 W Van Buren St,_8FHnJndxvJYUepDDdz7CA,"Local Services, Funeral Services & Cemeteries",Phoenix,Greenwood Memory Lawn Mortuary & Cemetery,85009,2.5,AZ
1575 W 117th St,13xK8Xs0N8eBOyqxqzFRow,"Local Services, Cremation Services, Funeral Services & Cemeteries",Cleveland,Malloy Esposito Crematory & Funeral Home,44107,5.0,OH
7900 E Main St,18giSSHPwapB2bOjeQf80A,"Local Services, Funeral Services & Cemeteries",Mesa,Mountain View Funeral Home & Cemetery,85207,3.5,AZ
700 5th Ave,zuz4w_uDWT5xC0EXOquhHQ,"Flowers & Gifts, Food, Specialty Food, Florists, Fruits & Veggies, Gift Shops, Funeral Services & Cemeteries, Shopping, Local Services",Pittsburgh,Harold's Flower Shop,15219,4.5,PA
467 Sherbourne St,aBqu8FYoUrYYSd_k-TFUOw,"Funeral Services & Cemeteries, Local Services",Toronto,Rosar-Morrison Funeral Home & Chapel,M4X 1K5,5.0,ON
2230 E Magnolia St,C2_TErSXoZ9PFc9o_x0hHA,"Funeral Services & Cemeteries, Local Services",Phoenix,Research For Life,85034,2.5,AZ
2375 Queen Street E,OX5eqHDV7rhcKWd8AkEngA,"Pet Cremation Services, Pets, Veterinarians, Pet Stores, Pet Services, Local Services, Funeral Services & Cemeteries",Toronto,Pets At Peace,M4E 1H2,5.0,ON
401 Mark Leany Dr,AgfbLRtjPuPeBqlu6pAMQw,"Pets, Pet Services, Pet Cremation Services, Professional Services, Taxidermy, Local Services, Funeral Services & Cemeteries",Henderson,Compassionate Pet Cremation,89011,5.0,NV
"3435 W Cheyenne Ave, Ste 105",wz43MKt6gMLYXiIPv1Xekw,"Local Services, Funeral Services & Cemeteries",North Las Vegas,Serenity Funeral Home,89032,3.5,NV
2049 Carolina Place Dr,uTs62QbcRfXdI0VSinCtUg,"Local Services, Funeral Services & Cemeteries, Cremation Services",Fort Mill,Palmetto Funeral Home and On-Site Cremation Service,29708,5.0,SC
"1720 W Southern Ave, Ste C8",_z-8uqduKQSgue--QJU_Lw,"Beauty & Spas, Funeral Services & Cemeteries, Tattoo, Local Services, Mortuary Services",Mesa,Mortuary Tattoo,85202,4.5,AZ
356 W Aurora Rd,aZXfKHcbCyEwlVfnOqIHIA,"Funeral Services & Cemeteries, Local Services",Sagamore Hills,Ferfolia Funeral Home,44067,3.5,OH
7450 W Craig Rd,PDr3YWRcuWCxA9XDv08owg,"Local Services, Pet Services, Pets, Funeral Services & Cemeteries, Pet Cremation Services",Las Vegas,Craig Road Pet Cemetery,89129,4.5,NV
321 East Blvd,LgFl8e8mEh6A7ZWw9IkOJQ,"Local Services, Party & Event Planning, Funeral Services & Cemeteries, Wedding Planning, Shopping, Florists, Flowers & Gifts, Floral Designers, Event Planning & Services",Charlotte,Southern Blossom Florist,28203,3.5,NC
1627 N 51st Ave,iiWrhUTxvievl9_s8qEU1A,"Local Services, Funeral Services & Cemeteries, Cremation Services",Phoenix,Abel Funeral Services,85035,3.0,AZ
9925 W Thomas Rd,5DyvjKT-ugHN3YqxfdEiwg,"Funeral Services & Cemeteries, Local Services",Avondale,Holy Cross Catholic Cemetery & Funeral Home,85392,2.0,AZ
1505 E Mcdowell Rd,9OjwcyqeOBh8jutdv2FXCg,"Local Services, Funeral Services & Cemeteries",Phoenix,Samaritan Funeral Home,85006,5.0,AZ
7601 E Indian School Rd,5HRjGybBPmW0QcL4U8At8A,"Mortuary Services, Local Services, Funeral Services & Cemeteries",Scottsdale,Messinger Indian School Mortuary,85251,5.0,AZ
12525 Nw Grand Ave,AJWLLn-VBTJ0ACye2RfACQ,"Local Services, Funeral Services & Cemeteries",El Mirage,Sunwest Funeral Home & Cemetary,85335,2.5,AZ
3629 N 40th Ave,qKl2QOm1InU_wiEdWC_y2g,"Pets, Funeral Services & Cemeteries, Local Services, Pet Cremation Services, Pet Services",Phoenix,PALS - Pet & Animal Lovers Service,85019,4.5,AZ
9010 Garfield Blvd,hblojRZVo417mqClNScz6w,"Local Services, Funeral Services & Cemeteries",Garfield Heights,Lucas Memorial Chapel,44125,5.0,OH
1544 W Grant St,R8Pwc4j9J_llaOmSsQRsqA,"Cremation Services, Local Services, Health & Medical, Funeral Services & Cemeteries",Phoenix,Cremation Center of Arizona,85007,4.0,AZ
320 West Carson Blvd,z7313AU6jwVlqeKXwfKv8A,"Cremation Services, Funeral Services & Cemeteries, Local Services",Charlotte,"Cremation Society of Charlotte, Inc.",28203,3.5,NC
401 Max Ct,oKrS70ivJqEtPu6-6InXNg,"Cremation Services, Local Services, Funeral Services & Cemeteries",Henderson,Sunrise Cremation,89011,2.5,NV
509 Washington Rd,ZDgCaWBwdAKxUei9VEnVDA,"Local Services, Funeral Services & Cemeteries",Pittsburgh,Mt Lebanon Cemetery Co,15228,3.5,PA
"237 S Sirrine, Ste 100",2XPHXpBq6JlO96eU-f_YpQ,"Cremation Services, Local Services, Funeral Services & Cemeteries, Elder Care Planning",Mesa,Family Burial & Cremation Center,85210,3.5,AZ
4201 Brownsville Rd,uSLXA7qU-eeatCluYKF7_Q,"Local Services, Funeral Services & Cemeteries",Pittsburgh,John F Slater Funeral Home,15227,5.0,PA
4538 N 16th St,QhtvanEc1fTJDHbE288CCg,"Mortuary Services, Local Services, Funeral Services & Cemeteries",Phoenix,Sinai Mortuary,85016,3.0,AZ
"4955 S Durango Dr, Ste 206",zeSghYbG2MkFAUI5l8SrCw,"Cremation Services, Funeral Services & Cemeteries, Local Services",Las Vegas,Simple Cremation,89113,3.5,NV
710 W Bethany Home Rd,Jc_5z3Rooj3vYJZZ9zHajA,"Funeral Services & Cemeteries, Local Services",Phoenix,A.L. Moore-Grimshaw Mortuaries Bethany Chapel,85013,3.5,AZ
926 S Litchfield Rd,1i0ws5ON250Gr5aQNG8XSQ,"Funeral Services & Cemeteries, Local Services",Goodyear,Thompson Funeral Chapel,85338,4.0,AZ
925 N Las Vegas Blvd,yvGAdeqvNlXAeBlqx0HMAg,"Funeral Services & Cemeteries, Mortuary Services, Local Services",Las Vegas,Bunker's Eden Vale Mortuary,89101,4.0,NV
2135 S 15th St,ZtOHXDOfIk5zg9_CvxA_yA,"Pets, Pet Services, Pet Cremation Services, Funeral Services & Cemeteries, Local Services",Phoenix,Entrusted Pets,85034,5.0,AZ
5407 Village Dr,zlavIo7e-r39PXxoq7lcHg,"Shopping, Florists, Funeral Services & Cemeteries, Local Services, Gift Shops, Flowers & Gifts",Concord,The Village Blossom,28027,2.5,NC
"21410 N 19th Ave, Ste 126",cc_7s2JMwFYVDFafs3Hz4w,"Local Services, Funeral Services & Cemeteries",Phoenix,Science Care,85027,4.0,AZ
1562 E Baseline Rd,gJOLOfiIqEjYY2f7HuyHWA,"Local Services, Funeral Services & Cemeteries",Mesa,Queen of Heaven Catholic Cemetery & Funeral Home,85204,3.0,AZ
"3975 S Durango Dr, Ste 104",26zqTRlDqrUL3zTdYa_gTQ,"Local Services, Funeral Services & Cemeteries, Cremation Services",Las Vegas,Kraft-Sussman Funeral & Cremation Services,89147,5.0,NV
,sYhW4rzrFw_DxdiNJJ-sKQ,"Professional Services, Graphic Design, Local Services, Flowers & Gifts, Funeral Services & Cemeteries, Arts & Crafts, Event Planning & Services, Shopping, Cards & Stationery",Las Vegas,Unique Memorials LV,89145,5.0,NV
21400 Chagrin Blvd,11nqTLt8FNmEdKHLEuvcgA,"Local Services, Funeral Services & Cemeteries",Highland Hills,Highland Park Cemetary,44122,1.5,OH
207 Shiloh St,_5yHs0ks2hfpThTHO0mGOw,"Funeral Services & Cemeteries, Shopping, Flowers & Gifts, Gift Shops, Florists, Floral Designers, Local Services, Wedding Planning, Event Planning & Services",Pittsburgh,Eiseltown Flowers & Gifts,15211,4.0,PA
613-12445 Lake Fraser Drive SE,RUEWEVmRaHnE9uJosbLcaw,"Florists, Local Services, Local Flavor, Flowers & Gifts, Event Planning & Services, Funeral Services & Cemeteries, Shopping, Wedding Planning",Calgary,Avenida Flowers,T2J 7A4,4.0,AB
14609 Brookpark Rd,WrOzDkPsrBfuJmC3FnGt8g,"Local Services, Funeral Services & Cemeteries",Brook Park,Holy Cross Burial Vaults,44142,2.5,OH
6200 S Eastern Ave,HzCPeB7joG83w57obeJYWg,"Local Services, Funeral Services & Cemeteries",Las Vegas,Davis Funeral Home & Memorial Park,89119,2.5,NV
"3620 N Rancho Dr, Ste 101",IK10PwNqeyUgTHCVJWQ7Fg,"Local Services, Cremation Services, Funeral Services & Cemeteries",Las Vegas,Simple Cremation,89130,3.5,NV
1591 Elgin Mills Road E,AdQW9sgttHhK1ryR5jpoFw,"Local Services, Funeral Services & Cemeteries",Richmond Hill,Elgin Mills Funeral Centre,L4S 1M9,4.5,ON
100 Center Ave,DSM7sq3ellDcqw_CoFK1uA,"Funeral Services & Cemeteries, Local Services",Aspinwall,Weddell-Ajak Funeral Home,15215,4.0,PA
8570 Del Webb Blvd,GYdSCMPV5lIB8P8_ip7hkw,"Funeral Services & Cemeteries, Local Services",Las Vegas,Neptune Society,89134,3.5,NV
1216 N Las Vegas Blvd,dVvOcZnvtU0WUI0luLcquQ,"Local Services, Funeral Services & Cemeteries",Las Vegas,Bunkers Mortuaries Cemeteries Crematory,89101,2.5,NV
200 W Beardsley Rd,CTTF3WVOm-ziDa_eMVxEMw,"Local Services, Funeral Services & Cemeteries",Phoenix,Phoenix Memorial Park and Mortuary,85027,2.5,AZ
7076 Brecksville Rd,JIoYvXTLBqide0x5zp5t5g,"Funeral Services & Cemeteries, Local Services",Independence,Fortuna Funeral Home,44131,3.0,OH
14 W Hulet Dr,goag7DoQu5FfoKtH9D4mqQ,"Local Services, Funeral Services & Cemeteries, Mortuary Services",Chandler,Bueler Mortuary,85225,4.0,AZ
115 S Country Club Dr,XQvEUquhsnJgWuFYB7O-dA,"Local Services, Cremation Services, Funeral Services & Cemeteries, Mortuary Services",Mesa,Wyman Cremation & Burial Chapel,85210,5.0,AZ
,gXwtsiE8ucDDFtJhc834Dw,"Party & Event Planning, Event Planning & Services, Funeral Services & Cemeteries, Local Services, Boat Charters, Officiants, Wedding Planning",Scottsdale,Oceanic West,85255,5.0,AZ
990 Patton Street Ext,97QjmGiDazC9YeDY_vhUtA,"Local Services, Funeral Services & Cemeteries, Pet Cremation Services, Pet Services, Pets",Monroeville,Restland Memorial Parks Inc,15146,1.0,PA
501 E Dunlap Ave,lhnNEdwO5ZvcwIWWxZsmIg,"Cremation Services, Local Services, Funeral Services & Cemeteries",Phoenix,Best Funeral Services & Chapel,85020,4.5,AZ
628 W Main St,P1uXCuDxx5uDXkENhz8EoA,"Local Services, Funeral Services & Cemeteries",Kent,Bissler & Sons Funeral Home & Crematory,44240,3.5,OH
6830 W Thunderbird Rd,SY3FUTOG3Jh3OALtyWrlUA,"Local Services, Funeral Services & Cemeteries",Peoria,Heritage Funeral Chapel,85381,5.0,AZ
36625 Center Ridge Rd,LP0HqI-ICZyZvcDbNDr1OA,"Local Services, Cremation Services, Funeral Services & Cemeteries",North Ridgeville,Bogner Family Funeral Home,44039,3.5,OH
2109 Luann Ln,xmUKbdI30se33TOfZvmXRw,"Local Services, Funeral Services & Cemeteries, Cremation Services",Madison,Foster Funeral & Cremation Service,53713,5.0,WI
7007 S Central Ave,seGZkkOJh7KQIMtSjK5PVQ,"Local Services, Funeral Services & Cemeteries, Mortuary Services",Phoenix,South Mountain Mortuary,85042,1.0,AZ
1812 E McDowell Rd,o4G8vXbE_SNuulpJdGxeoQ,"Cards & Stationery, Party & Event Planning, Shopping, Florists, Flowers & Gifts, Floral Designers, Gift Shops, Arts & Crafts, Local Services, Funeral Services & Cemeteries, Event Planning & Services",Phoenix,Arizona Flower Shop,85006,3.5,AZ
9380 W Peoria Ave,bHipNz9_3lgfE-5yM7UcBQ,"Funeral Services & Cemeteries, Local Services",Peoria,Best Caskets & Urns,85345,2.5,AZ
38001 Euclid Ave,dQ7S7mxJ7L9fA6JdKeGFSA,"Local Services, Funeral Services & Cemeteries",Willoughby,McMahon-Coyne-Vitantonio Funeral Homes,44094,5.0,OH
9702 E Apache St,YEZwPK3drXe2PhIVV8-PDw,"Local Services, Funeral Services & Cemeteries, Cremation Services",Mesa,A Wise Choice Cremation & Funeral Services,85207,3.5,AZ
2800 Brighton Rd,_XmJ21ZpF_PzbKeKRcFEiA,"Funeral Services & Cemeteries, Local Services",Pittsburgh,Highwood Cemetery Assn,15212,3.5,PA
2350 E Greenway Rd,a6TBIVU26fvzUTR2ohLZUg,"Local Services, Funeral Services & Cemeteries",Phoenix,Shadow Mountain Mortuary,85022,5.0,AZ
4715 Penn Ave,dc1YcZSIfvQpWFQJ3kI9oA,"Funeral Services & Cemeteries, Local Services",Pittsburgh,Allegheny Cemetery,15224,5.0,PA
1815 S Dobson Rd,YgqE1HfxAqJQoYnZIYUK5g,"Local Services, Mortuary Services, Funeral Services & Cemeteries",Mesa,Lakeshore Mortuary,85202,4.0,AZ
2041 W Bonanza Rd,T8-bbA4WR0qEiCLBSIGBfQ,"Mortuary Services, Local Services, Cremation Services, Funeral Services & Cemeteries",Las Vegas,Clark County Funeral Services,89106,5.0,NV
1500 Las Vegas Blvd N,8xKRoEFsBf3l_x0MGhxR9g,"Funeral Services & Cemeteries, Local Services",Las Vegas,Woodlawn Cemetery,89101,2.5,NV
1141 St Clair Ave West,cNSUWLDiM_0sNB9kyQSsKg,"Funeral Services & Cemeteries, Local Services",Toronto,Jerrett Funeral Homes,M6E 1B1,2.5,ON
,p_wf4h0KuxDlCmNV-n1nRw,"Funeral Services & Cemeteries, Antiques, Wills, Trusts, & Probates, Estate Liquidation, Professional Services, Home Services, Lawyers, Estate Planning Law, Real Estate, Local Services, Shopping, Auction Houses",Phoenix,Blue Leaf Estate Auctions,85282,3.5,AZ
3610 N Rancho Dr,c80LfQlZ6zPW7As3FqXwWw,"Local Services, Funeral Services & Cemeteries, Mortuary Services",Las Vegas,Heritage Mortuary,89130,3.0,NV
4033 N 19th Ave,36GBM2SXQ45gwuTvWbzFiA,"Local Services, Funeral Services & Cemeteries",Phoenix,Accu-Care Cremation & Funerals,85015,5.0,AZ
3919 Raymert Dr,UJqNbA7VHRpmVjgVLWfEfA,"Funeral Services & Cemeteries, Local Services",Las Vegas,Valley Funeral Home,89121,2.5,NV
2697 E Eldorado Ln,a4suStdiexCeNzwpZ-XDBQ,"Funeral Services & Cemeteries, Local Services",Las Vegas,King David Memorial Chapel,89120,4.5,NV
2621 S Rural Rd,E8U6piHxbHUFw_LtF6FbpQ,"Funeral Services & Cemeteries, Local Services",Tempe,Richardson Funeral Home,85282,5.0,AZ
301 Curry Hollow Rd,NrS4daTaivfO0AxT8-9Ung,"Local Services, Funeral Services & Cemeteries",Pittsburgh,Jefferson Memorial Cemetery & Funeral Home,15236,3.0,PA
2700 Mt Royal Blvd,faidYYQMviHd48D8eRCiWA,"Local Services, Funeral Services & Cemeteries",Glenshaw,Mt. Royal Memorial Park,15116,2.5,PA
"5620 N 7th St, Ste 2",4xqj4joZyqq-_-44dXVcdw,"Home Decor, Local Services, Home & Garden, Flowers & Gifts, Funeral Services & Cemeteries, Shopping, Florists",Phoenix,Flowers by Joe Gregory,85014,4.5,AZ
91 S Martin Luther Kg Blvd,hwZ2lxIMR1kJcCUY0PT9rA,"Furniture Stores, Home Decor, Local Services, Mattresses, Funeral Services & Cemeteries, Home & Garden, Shopping",Las Vegas,Ashley HomeStore,89106,2.5,NV
1599 S Dallas Ave,6TIpZZEubM0c4ASnMpr81A,"Funeral Services & Cemeteries, Local Services",Pittsburgh,The Homewood Cemetery,15217,5.0,PA
2127 W Charleston Blvd,ybYuJZ9R58iPL2JhtUi1PA,"Local Services, Funeral Services & Cemeteries",Las Vegas,Affordable Cremation & Burial Service,89102,3.5,NV
"8140 S Eastern Ave, Ste 3",Iy-PWtUd7mxSQutEcr5x7A,"Home & Garden, Wedding Planning, Gift Shops, Local Services, Nurseries & Gardening, Florists, Funeral Services & Cemeteries, Event Planning & Services, Floral Designers, Shopping, Flowers & Gifts, Caterers",Las Vegas,Windmill Floral Expressions,89123,4.5,NV
2828 Washington Rd,8maHJuWQeQIOinKJYq8_eA,"Cremation Services, Pets, Local Services, Funeral Services & Cemeteries, Pet Services",McMurray,Beinhauer Family Funeral Home and Cremation Services,15317,3.5,PA
3700 Forest Lawn Dr,V0pb46d6Wgb-03v8XViCyA,"Funeral Services & Cemeteries, Local Services, Professional Services, Pet Cremation Services, Pets, Pet Services",Matthews,Heritage Funeral and Cremation Services,28104,4.5,NC
2749 Mayfield Rd,0s03ippU5tXAxVV9ImjQvw,"Funeral Services & Cemeteries, Local Services",Cleveland,Mayfield Cemetery,44106,2.5,OH
8314 N 7th St,80wAHnKW55Uf_dVlMPiv7g,"Mortuary Services, Funeral Services & Cemeteries, Local Services",Phoenix,Hansen Mortuary,85020,4.5,AZ
1374 N Arizona Ave,hMABGe7cUibxTYMEi0H3lg,"Local Services, Mortuary Services, Cremation Services, Funeral Services & Cemeteries",Chandler,Legacy Funeral Home,85225,2.5,AZ
117 Sandusky St,bjLwFbzMtdAKWw6WuIRwSg,"Funeral Services & Cemeteries, Local Services, Hotels & Travel, Public Art, Local Flavor, Walking Tours, Tours",Pittsburgh,Andy Warhol's Grave,15212,5.0,PA
601 Lakeside Ave E,yTeTCkzIIw1rXatDWh_ISA,"Amateur Sports Teams, Active Life, Airports, Golf, Food, Convenience Stores, Funeral Services & Cemeteries, Home Services, Real Estate, Public Services & Government, Local Services, Property Management, Hotels & Travel, Landmarks & Historical Buildings",Cleveland,City of Cleveland,44114,3.5,OH
,4BkszfGUkOViE2pcLDaXUw,"Health & Medical, Local Services, Hospice, Counseling & Mental Health, Funeral Services & Cemeteries",Las Vegas,Uprooting Grief,89144,5.0,NV
"320 East Charleston, Ste 103",rm0haEzPjIf8E447aIua1A,"Local Services, Party & Event Planning, Funeral Services & Cemeteries, Florists, Flowers & Gifts, Floral Designers, Event Planning & Services, Shopping, Wedding Planning",Las Vegas,Exotic Florist,89104,3.5,NV
6265 Columbia Rd,QnF9GakIjlHuwqDP289lNg,"Funeral Services & Cemeteries, Local Services",North Olmsted,Sunset Memorial Park,44070,1.0,OH
2600 Todd Dr,JQThmnBqvs3WNxaw1hWfMw,"Pets, Local Services, Pet Services, Funeral Services & Cemeteries, Pet Cremation Services",Madison,Memorial Pet Services,53713,5.0,WI
21 Marion Dr,FB_TheCE-fX_Y7CcDnvwbQ,"Funeral Services & Cemeteries, Local Services",Las Vegas,Casa De Paz Funeraria,89110,5.0,NV
2357 Bloor Street W,8SraiTCYmrdS_ckkMtlo7A,"Local Services, Funeral Services & Cemeteries",Toronto,Turner & Porter,M6S 1P4,3.5,ON
30628 Detroit Rd,zKyXbR3n4D74IS9ppg4YyA,"Shopping, Local Services, Florists, Funeral Services & Cemeteries, Flowers & Gifts",Westlake,Allyson's Flowers,44145,1.0,OH
5357 E Main St,qC06kmkA9sUMthQT2huWjg,"Funeral Services & Cemeteries, Local Services, Pets, Pet Services, Pet Cremation Services",Mesa,All Pets Great & Small Cremation Service,85205,4.0,AZ
10940 E Chandler Heights Rd,aHVNI8hmRvZQS_X5TOmAwQ,"Funeral Services & Cemeteries, Local Services",Chandler,Valley of the Sun Mortuary & Cemetery,85248,3.0,AZ
4734 Butler St,ZcJGA1DV_3DLjArR-qDAMg,"Local Services, Funeral Services & Cemeteries",Pittsburgh,Allegheny Cemetery,15201,4.5,PA
1325 North Main St,OmWAUrbwb4ikm9TvAKecMw,"Funeral Services & Cemeteries, Cremation Services, Local Services, Mortuary Services",Las Vegas,Palm Downtown Mortuary,89101,3.5,NV
737 Dundas Street E,IFZYWAFEsmGezJzXe3SLoQ,"Local Services, Funeral Services & Cemeteries, Officiants, Event Planning & Services, Venues & Event Spaces",Mississauga,St. John's Dixie Cemetery and Crematorium,L4Y 2B5,3.5,ON
2150 Broadway,bB1hk9NA90htcNddaq-U5A,"Funeral Services & Cemeteries, Local Services",Lorain,Reidy-Scanlan-Giovannazzo Funeral Home,44052,5.0,OH
"11 South Stephanie St, Ste 140",zck-CEdZqOZK4EtZQp_fuA,"Funeral Services & Cemeteries, Cremation Services, Local Services",Henderson,National Cremation Society,89012,5.0,NV
375 Mount Pleasant Road,I8pcOpgsZOPdkg2sV73hiw,"Funeral Services & Cemeteries, Local Services",Toronto,Mount Pleasant Cemetery,M4T 2V8,4.0,ON
12316 Euclid Ave,Y4UHHfa_DeZaH4QFcd3YDw,"Public Services & Government, Arts & Entertainment, Landmarks & Historical Buildings, Museums, Local Services, Funeral Services & Cemeteries",Cleveland,Lake View Cemetery,44106,5.0,OH
"1525 W University Dr, Ste 102",s-xjtny7e8kjpIyE46qVBg,"Funeral Services & Cemeteries, Local Services",Tempe,All Options Funeral Home,85281,5.0,AZ
"4715-13th Street NE, Suite 105",Y5D6tBcIKwUYupXFg5HShw,"Cremation Services, Funeral Services & Cemeteries, Local Services",Calgary,Choice Memorial & Cremation Services,T2E 6M3,5.0,AB
"2121 Western Ave, Ste A3",3If0PeOeCrujpLV_NcVjHQ,"Professional Services, Cremation Services, Local Services, Funeral Services & Cemeteries",Las Vegas,McDermott's Funeral & Cremation Services,89102,4.0,NV
4935 Monroe Rd,xEvAqkjK22TiIXDFsXFjRQ,"Cremation Services, Local Services, Funeral Services & Cemeteries",Charlotte,Tribute Cremation Society,28205,3.5,NC
522 E Western Ave,F5H0xUQvYuDRgL7rrs4LIA,"Funeral Services & Cemeteries, Local Services",Avondale,Avenidas Funeral Chapel,85323,4.5,AZ
255 S Sirrine,T77ZF9Pl48GQNUMzbYt-bA,"Public Services & Government, Landmarks & Historical Buildings, Pet Services, Pets, Local Services, Funeral Services & Cemeteries, Shopping",Mesa,Western Monument,85210,5.0,AZ
8911 Woodbine Avenue,SBR_q4ZgZEnbC978BgCGvA,"Cremation Services, Local Services, Funeral Services & Cemeteries",Markham,Chapel Ridge Funeral Home and Cremation Centre,L3R 5G1,2.5,ON
1130 S Horne,GY0ATSXTwPqGCRYY6mQGBQ,"Local Services, Funeral Services & Cemeteries",Mesa,Rose Hill Funeral Home,85204,3.5,AZ
1985 S Taylor Rd,d58jnzS0vYVL7MpPlqS3jA,"Funeral Services & Cemeteries, Local Services",Cleveland Heights,Berkowitz-Kumin-Bookatz,44118,1.0,OH
8592 Darrow Rd,VyzaTwUyIQEKllXhIdSi1Q,"Funeral Services & Cemeteries, Local Services",Twinsburg,Crown Hill Cemetery,44087,3.5,OH
6021 University Ave,DWv4ONdxs8mv-QIsOFMjvA,"Cremation Services, Local Services, Funeral Services & Cemeteries, Mortuary Services",Madison,Cress Funeral & Cremation Service - University Chapel,53705,3.5,WI
1314 Middle St,mG7zUNc5CkX_gVezIAB6ew,"Local Services, Funeral Services & Cemeteries",Pittsburgh,Gary R Ritter Funeral Home,15215,3.5,PA
4460 E Thomas Rd,Ru9OuOTuR-_CVFsPv4FBFg,"Cremation Services, Local Services, Funeral Services & Cemeteries",Phoenix,National Cremation Society,85018,4.0,AZ
10913 Superior Ave,kiFJiCsG9j89XXqIQR7hGw,"Local Services, Funeral Services & Cemeteries",Cleveland,Watson's Funeral Home Inc,44106,3.5,OH
1297 Chemin de la Forêt,NZy2kfdaO1C0RWMaMUueHQ,"Sandwiches, Restaurants, Funeral Services & Cemeteries, Local Services",Outremont,Services Commémoratifs Mont-Royal,H2V 2P9,5.0,QC
7510 E Main St,EokmfTNuSlGrPU9kIUFKOA,"Local Services, Funeral Services & Cemeteries",Mesa,Horizon Funeral Care,85207,4.5,AZ
275 Lesmill Road,dQdClrRIXswXBGw89jtu6w,"Funeral Services & Cemeteries, Local Services",North York,The Simple Alternative Funeral Centres,M3B 2V1,4.5,ON
129 W Lake Mead Dr,EXKqX4twMNaotz1TaTWZdQ,"Cremation Services, Local Services, Funeral Services & Cemeteries",Henderson,Simple Cremation,89015,4.0,NV
727 E Morehead St,UITRYjNiZ3yb275H9MEq2A,"Funeral Services & Cemeteries, Local Services",Charlotte,Ellington Funeral Services,28202,5.0,NC
5301 Boulevard Décarie,u3ATEuuNTzMjH6fMzX6B3w,"Local Services, Professional Services, Funeral Services & Cemeteries, Shopping",Montréal,Kane & Fetterly Funeral Home - Salon Funéraire Kane & Fetterly,H3W 3C4,5.0,QC
407 S Decatur Blvd,vkxoB7r46rTtcbU-C_oSJg,"Florists, Event Planning & Services, Flowers & Gifts, Shopping, Floral Designers, Funeral Services & Cemeteries, Local Services",Las Vegas,All In Bloom,89107,5.0,NV
2337 W Van Buren St,qxAjZSdhxmF6v4I0snoT5w,"Local Services, Funeral Services & Cemeteries",Phoenix,American Monument Company,85009,4.0,AZ
719 N 27th Ave,AIiDJpO02tGACmf-9A427Q,"Local Services, Funeral Services & Cemeteries",Phoenix,Greenwood/Memory Lawn Mortuary,85009,3.0,AZ
10761 Grand Ave,IoMUTHajJFgJD0Jqqqt0PQ,"Funeral Services & Cemeteries, Local Services",Sun City,Palm Valley Funeral Home,85351,3.5,AZ
"41 Industrial Street, Unit 102",XTBwlJu97AYtWFIer2hlBQ,"Cremation Services, Local Services, Funeral Services & Cemeteries",Toronto,Affordable Burials & Cremations,M4G 0C7,5.0,ON
2033 N 48th St,zwcaswFrAX9HJ3h1mS7ytA,"Local Services, Funeral Services & Cemeteries",Phoenix,St. Francis Catholic Cemetery,85008,3.0,AZ
12420 N 103rd Ave,2y2d1wJrZAhHI2J7o2ndtg,"Venues & Event Spaces, Funeral Services & Cemeteries, Event Planning & Services, Local Services",Sun City,Menke Funeral & Cremation Center,85351,4.0,AZ
5650 E Main St,BpgFBpsfS4dCvljd4Pcxxw,"Mortuary Services, Funeral Services & Cemeteries, Local Services",Mesa,Sonoran Skies Mortuary,85205,3.5,AZ
2505 W Broadway Rd,DBpCKQvwJ0UpqRJEu7CDRA,"Local Services, Funeral Services & Cemeteries",Tempe,Double Butte Cemetery,85282,4.0,AZ
5203 Monona Dr,lBkGK2R8mEpyMFa33L2EXA,"Office Equipment, Local Services, Funeral Services & Cemeteries, Shopping",Madison,Gunderson Funeral Homes & Crematory,53716,3.0,WI
8022 York Rd,thFG6fpgVR1CEWGdj489kg,"Florists, Local Services, Flowers & Gifts, Shopping, Funeral Services & Cemeteries, Event Planning & Services, Wedding Planning",North Royalton,Blossom Shoppe,44133,5.0,OH
251 W Juniper Ave,5PAVtVod2BDLsSmzxpXA1A,"Funeral Services & Cemeteries, Local Services",Gilbert,Falconer Funeral Home,85233,4.0,AZ
33 Memory Gardens Lane,vgwwE3anX3UCgIoFWM2t0g,"Local Services, Funeral Services & Cemeteries",Toronto,Highland Memory Gardens Cemetery Crematorium,M2H 3C3,1.5,ON
