[
  {
    "business_id": "1iID59gTLw4WGneFGIYpIQ",
    "name": "ProCare Hospice of Nevada",
    "address": "7469 W Lake Mead Blvd, Ste 200",
    "city": "Las Vegas",
    "state": "NV",
    "postal_code": "89128",
    "stars": 4.5,
    "categories": "Home Health Care, Health & Medical, Hospice"
  },
  {
    "business_id": "u-n_W6EzO18OZPU0Z4ComQ",
    "name": "Marquis Centennial Hills",
    "address": "6351 N Fort Apache Rd",
    "city": "Las Vegas",
    "state": "NV",
    "postal_code": "89149",
    "stars": 5,
    "categories": "Medical Centers, Health & Medical, Memory Care, Home Health Care, Assisted Living Facilities, Hospice, Rehabilitation Center, Skilled Nursing"
  },
  {
    "business_id": "ON6XftIGX8YqAHL_pPBHFQ",
    "name": "The Wentworth of Las Vegas",
    "address": "2620 Lake Sahara Dr",
    "city": "Las Vegas",
    "state": "NV",
    "postal_code": "89117",
    "stars": 1.5,
    "categories": "Hospice, Health & Medical, Assisted Living Facilities, Home Health Care, Retirement Homes"
  },
  {
    "business_id": "F-fmkTWaM69gOMTA7dX-qA",
    "name": "A Place for Mom",
    "address": "",
    "city": "Phoenix",
    "state": "AZ",
    "postal_code": "85003",
    "stars": 1,
    "categories": "Health & Medical, Retirement Homes, Hospice, Home Health Care, Assisted Living Facilities, Memory Care"
  },
  {
    "business_id": "-AcyJ7-rjKPdEYJa-gplZg",
    "name": "Visiting Angels",
    "address": "8585 E Bell Rd, Ste 100",
    "city": "Scottsdale",
    "state": "AZ",
    "postal_code": "85260",
    "stars": 2.5,
    "categories": "Hospice, Health & Medical, Home Health Care, Personal Care Services"
  },
  {
    "business_id": "QW-6_dN28fyqteUL46T6Nw",
    "name": "Hospice of the Western Reserve",
    "address": "5786 Heisley Rd",
    "city": "Mentor",
    "state": "OH",
    "postal_code": "44060",
    "stars": 1,
    "categories": "Health & Medical, Hospice"
  },
  {
    "business_id": "fPoD4Uo1GEADR27lXfDTXA",
    "name": "Dewey Veterinary Medical Center",
    "address": "4800 W Dewey Dr",
    "city": "Las Vegas",
    "state": "NV",
    "postal_code": "89118",
    "stars": 3.5,
    "categories": "Veterinarians, Pet Sitting, Pet Groomers, Pet Hospice, Pets, Pet Services"
  },
  {
    "business_id": "nUo8IVRun9IadvPxvWZ87Q",
    "name": "Serenity Palliative Care",
    "address": "4122 N 17th St, Ste C2",
    "city": "Phoenix",
    "state": "AZ",
    "postal_code": "85016",
    "stars": 5,
    "categories": "Home Health Care, Health & Medical, Hospice"
  },
  {
    "business_id": "LspzEyFynt4R4SLzCUzypA",
    "name": "Montefiore",
    "address": "1 David Myers Pkwy",
    "city": "Beachwood",
    "state": "OH",
    "postal_code": "44122",
    "stars": 2,
    "categories": "Home Health Care, Health & Medical, Rehabilitation Center, Physical Therapy, Hospice, Retirement Homes"
  },
  {
    "business_id": "goFrdo35koq8pdJfWuEIVg",
    "name": "Solterra Subacute Services",
    "address": "1501 E Orangewood Ave",
    "city": "Phoenix",
    "state": "AZ",
    "postal_code": "85020",
    "stars": 3,
    "categories": "Assisted Living Facilities, Hospice, Retirement Homes, Physical Therapy, Medical Centers, Health & Medical, Speech Therapists, Rehabilitation Center, Home Health Care"
  },
  {
    "business_id": "az1uqvLVoHUiocAhsbP00A",
    "name": "THEMA Health Services",
    "address": "1725 E Osborn Rd",
    "city": "Phoenix",
    "state": "AZ",
    "postal_code": "85016",
    "stars": 2.5,
    "categories": "Health & Medical, Home Health Care, Hospice"
  },
  {
    "business_id": "9YRLOzvRknwn7sJu22dzrg",
    "name": "ACRx Specialty Pharmacy",
    "address": "3200 Soaring Gulls Dr, Ste 101",
    "city": "Las Vegas",
    "state": "NV",
    "postal_code": "89129",
    "stars": 5,
    "categories": "Hospice, Home Health Care, Health & Medical, Shopping, Pharmacy, Drugstores"
  },
  {
    "business_id": "Ud-t-qRLwNrI3l7VVIcNxg",
    "name": "Comfort Hospice Care",
    "address": "6655 W Sahara Ave",
    "city": "Las Vegas",
    "state": "NV",
    "postal_code": "89146",
    "stars": 4.5,
    "categories": "Health & Medical, Hospice"
  },
  {
    "business_id": "JTzlzNuBWM1NuXOFrhcupA",
    "name": "Kindred Transitional Care and Rehabilitation - The Greens",
    "address": "1575 Brainard Rd",
    "city": "Lyndhurst",
    "state": "OH",
    "postal_code": "44124",
    "stars": 4.5,
    "categories": "Physical Therapy, Hospice, Rehabilitation Center, Health & Medical, Skilled Nursing, Assisted Living Facilities"
  },
  {
    "business_id": "FSF7vWw6VZUHWymikd2ciA",
    "name": "LV Sounders",
    "address": "10300 W Charleston Blvd, Ste 13",
    "city": "Las Vegas",
    "state": "NV",
    "postal_code": "89135",
    "stars": 2.5,
    "categories": "Amateur Sports Teams, Soccer, Retirement Homes, Fitness & Instruction, Hospice, Trainers, Health & Medical, Sports Clubs, Active Life, Assisted Living Facilities"
  },
  {
    "business_id": "25SpeswSowwukX7Svw9dgg",
    "name": "Arizona Senior Options Placement Agency",
    "address": "",
    "city": "Glendale",
    "state": "AZ",
    "postal_code": "85305",
    "stars": 5,
    "categories": "Hospice, Elder Care Planning, Health & Medical, Local Services, Retirement Homes, Assisted Living Facilities, Home Health Care, Community Service/Non-Profit"
  },
  {
    "business_id": "kvKViu639oIoD5yUwRaVdA",
    "name": "Hospice of the Valley - Lund Family Hospice Home",
    "address": "1982 E Woodside Court",
    "city": "Gilbert",
    "state": "AZ",
    "postal_code": "85297",
    "stars": 4.5,
    "categories": "Hospice, Health & Medical"
  },
  {
    "business_id": "PcemwEbN_fxwV339rWEj9w",
    "name": "A-Z Best Home Care",
    "address": "10327 W Coggins Dr",
    "city": "Sun City",
    "state": "AZ",
    "postal_code": "85351",
    "stars": 3,
    "categories": "Home Health Care, Health & Medical, Hospice"
  },
  {
    "business_id": "RWuNQFpKpY_XmOkGvmIJNQ",
    "name": "Hospice of the Valley - Eckstein Center",
    "address": "9808 N 95th St",
    "city": "Scottsdale",
    "state": "AZ",
    "postal_code": "85258",
    "stars": 4,
    "categories": "Hospice, Health & Medical"
  },
  {
    "business_id": "gjyLiLQnPMewyQQ6_RxB5Q",
    "name": "Family Comfort Hospice",
    "address": "7975 N Hayden Rd, Ste A-200",
    "city": "Scottsdale",
    "state": "AZ",
    "postal_code": "85258",
    "stars": 5,
    "categories": "Health & Medical, Hospice"
  },
  {
    "business_id": "EWWPY0jgm2tjkBcx1M_FAQ",
    "name": "Hospice of the West",
    "address": "21410 N 19th Ave",
    "city": "Phoenix",
    "state": "AZ",
    "postal_code": "85027",
    "stars": 5,
    "categories": "Health & Medical, Hospice"
  },
  {
    "business_id": "KHfnOYOohUE5hTa3KInbOQ",
    "name": "Comprehensive Hospice & Palliative Care",
    "address": "2111 E Highland Ave, Ste B425",
    "city": "Phoenix",
    "state": "AZ",
    "postal_code": "85016",
    "stars": 3.5,
    "categories": "Hospice, Health & Medical"
  },
  {
    "business_id": "IdJop5kpgng2N2JUmCc-Aw",
    "name": "Serenity Hospice",
    "address": "4560 S Decatur Blvd, Ste 301",
    "city": "Las Vegas",
    "state": "NV",
    "postal_code": "89103",
    "stars": 4,
    "categories": "Hospice, Home Health Care, Health & Medical"
  },
  {
    "business_id": "bEaNHZztbOqEZ64ttCUiVw",
    "name": "Granny Nannies of Phoenix AZ",
    "address": "4041 S Mcclintock Dr, Ste 304",
    "city": "Tempe",
    "state": "AZ",
    "postal_code": "85282",
    "stars": 3.5,
    "categories": "Health & Medical, Home Health Care, Hospice"
  },
  {
    "business_id": "Q8qDUi17v5qTIEcR4Q7x5A",
    "name": "Hospice of the Valley - Friendship Village Palliative Care Unit",
    "address": "2525 E Southern Ave",
    "city": "Tempe",
    "state": "AZ",
    "postal_code": "85282",
    "stars": 3.5,
    "categories": "Hospice, Health & Medical"
  },
  {
    "business_id": "qo4zq8Pkh1yV8JUwWZz_oA",
    "name": "CompassionCare Hospice",
    "address": "7842 W Sahara Ave",
    "city": "Las Vegas",
    "state": "NV",
    "postal_code": "89117",
    "stars": 4,
    "categories": "Health & Medical, Hospice"
  },
  {
    "business_id": "oYlobYh32lWX9UEk7xrl9g",
    "name": "Home Care Assistance of Scottsdale",
    "address": "9301 E Shea Blvd, Ste 112",
    "city": "Scottsdale",
    "state": "AZ",
    "postal_code": "85260",
    "stars": 5,
    "categories": "Home Health Care, Hospice, Health & Medical, Personal Care Services, Assisted Living Facilities"
  },
  {
    "business_id": "koIsoy08zYfo4xmoyxQYsg",
    "name": "Kopper Crest Manor",
    "address": "2053 E Torrey Pines Pl",
    "city": "Chandler",
    "state": "AZ",
    "postal_code": "85249",
    "stars": 3.5,
    "categories": "Retirement Homes, Hospice, Health & Medical"
  },
  {
    "business_id": "JyuyJSOSmsJmr_iGAu3Fng",
    "name": "Crossroads Hospice & Palliative Care",
    "address": "9775 Rockside Rd",
    "city": "Valley View",
    "state": "OH",
    "postal_code": "44125",
    "stars": 3,
    "categories": "Health & Medical, Hospice"
  },
  {
    "business_id": "3fv0RZ30waBkouGxNxhaow",
    "name": "Infinity Hospice Care",
    "address": "6330 Jones Blvd",
    "city": "Las Vegas",
    "state": "NV",
    "postal_code": "89118",
    "stars": 4,
    "categories": "Health & Medical, Hospice, Local Services, Community Service/Non-Profit"
  },
  {
    "business_id": "_mx6QkDZ50ZgeNz81YWjrA",
    "name": "Advanced Care Rx Pharmacy",
    "address": "4161 S Eastern Ave, Ste A3",
    "city": "Las Vegas",
    "state": "NV",
    "postal_code": "89119",
    "stars": 1.5,
    "categories": "Hospice, Shopping, Pharmacy, Drugstores, Health & Medical"
  },
  {
    "business_id": "Lr6sYbS8_61G0DaM6l-5FA",
    "name": "Ultimate Medical Equipment",
    "address": "420 E Bell Rd, Ste C13",
    "city": "Phoenix",
    "state": "AZ",
    "postal_code": "85022",
    "stars": 5,
    "categories": "Shopping, Medical Supplies, Health & Medical, Home Health Care, Hospice, Active Life, Scooter Rentals"
  },
  {
    "business_id": "xwDIPoK0ggDj3l8p4LbCvw",
    "name": "Louisa's New Leash On Life Rescue",
    "address": "7716 Ducharme Ave",
    "city": "Las Vegas",
    "state": "NV",
    "postal_code": "89145",
    "stars": 3.5,
    "categories": "Pets, Pet Adoption, Pet Training, Pet Hospice, Pet Services"
  },
  {
    "business_id": "kRw7QxN260OMYsr1u-bJbw",
    "name": "Pacifica Senior Living Spring Valley",
    "address": "8880 W Tropicana Ave",
    "city": "Las Vegas",
    "state": "NV",
    "postal_code": "89147",
    "stars": 4,
    "categories": "Health & Medical, Memory Care, Hospice, Retirement Homes, Assisted Living Facilities"
  },
  {
    "business_id": "P8y_F6OBbLHpQ8MpRsEwjA",
    "name": "Full Circle Holistic Veterinary Care",
    "address": "1931 Monroe St",
    "city": "Madison",
    "state": "WI",
    "postal_code": "53711",
    "stars": 4.5,
    "categories": "Pet Services, Acupuncture, Veterinarians, Pets, Health & Medical, Pet Hospice, Doctors, Naturopathic/Holistic"
  },
  {
    "business_id": "QaBIJEqr8hGzzd1zQeJqZQ",
    "name": "Foot & Ankle Institute of Arizona",
    "address": "4045 E Union Hills Dr, Ste 107A",
    "city": "Phoenix",
    "state": "AZ",
    "postal_code": "85050",
    "stars": 5,
    "categories": "Hospice, Health & Medical, Surgeons, Home Health Care, Doctors, Podiatrists"
  },
  {
    "business_id": "xLsfm0spEy_pIy8NZ5Q69A",
    "name": "Pets At Peace",
    "address": "",
    "city": "Phoenix",
    "state": "AZ",
    "postal_code": "85024",
    "stars": 5,
    "categories": "Pet Services, Pets, Veterinarians, Pet Hospice"
  },
  {
    "business_id": "BYZo7W-Ybw2LOy-bJ1-iog",
    "name": "Hospice of the Cleveland Clinic",
    "address": "9500 Euclid Ave",
    "city": "Cleveland",
    "state": "OH",
    "postal_code": "44195",
    "stars": 2.5,
    "categories": "Hospice, Health & Medical"
  },
  {
    "business_id": "Ldi2tmfTN5d1PjaUHoOcTA",
    "name": "Bright Star Care - Charlotte",
    "address": "1900 Abbott St, Ste 101",
    "city": "Charlotte",
    "state": "NC",
    "postal_code": "28203",
    "stars": 5,
    "categories": "Health & Medical, Home Health Care, Child Care & Day Care, Local Services, Hospice"
  },
  {
    "business_id": "-oo8qcVVJrlwJiHooHolQw",
    "name": "Royal Express Medical Transportation",
    "address": "6710 N 47th Ave, Ste 2C",
    "city": "Glendale",
    "state": "AZ",
    "postal_code": "85301",
    "stars": 5,
    "categories": "Health & Medical, Medical Transportation, Assisted Living Facilities, Hospice"
  },
  {
    "business_id": "mjdUe_8Ei94fwN0LEuhX8g",
    "name": "Hospice of the Valley - Central Clinical",
    "address": "1510 E Flower St",
    "city": "Phoenix",
    "state": "AZ",
    "postal_code": "85014",
    "stars": 5,
    "categories": "Health & Medical, Hospice"
  },
  {
    "business_id": "n6DZkMeXUgnv-o-2Y3R2NA",
    "name": "FirstLight Home Care",
    "address": "7585 E Redfield Rd, Ste 105",
    "city": "Scottsdale",
    "state": "AZ",
    "postal_code": "85260",
    "stars": 5,
    "categories": "Health & Medical, Hospice, Home Health Care"
  },
  {
    "business_id": "nefqF48MN88vjhaS1ceBgw",
    "name": "Pacifica Senior Living San Martin",
    "address": "8374 W Capovilla Ave",
    "city": "Las Vegas",
    "state": "NV",
    "postal_code": "89113",
    "stars": 4,
    "categories": "Health & Medical, Assisted Living Facilities, Hospice, Memory Care, Retirement Homes"
  },
  {
    "business_id": "-lFtBu12icLOjWvLSinKsQ",
    "name": "Hospice Of The Western Reserve",
    "address": "300 E 185th St",
    "city": "Euclid",
    "state": "OH",
    "postal_code": "44119",
    "stars": 3,
    "categories": "Health & Medical, Community Service/Non-Profit, Local Services, Hospice"
  },
  {
    "business_id": "HkQ6jimCNcDEC1C5NFEtag",
    "name": "Reflections Hospice",
    "address": "1840 E University Dr",
    "city": "Mesa",
    "state": "AZ",
    "postal_code": "85203",
    "stars": 5,
    "categories": "Hospice, Health & Medical"
  },
  {
    "business_id": "3WRnU-0jz58h-Bgatf8Szw",
    "name": "Hospice of the Valley - Sherman Home",
    "address": "5801 E Mayo Blvd",
    "city": "Phoenix",
    "state": "AZ",
    "postal_code": "85054",
    "stars": 4.5,
    "categories": "Hospice, Home Health Care, Health & Medical"
  },
  {
    "business_id": "k_4Zkqhc8kH5PIY62a_ssg",
    "name": "East Valley Hospice",
    "address": "1311 W Chandler Blvd, Ste 200",
    "city": "Chandler",
    "state": "AZ",
    "postal_code": "85224",
    "stars": 4.5,
    "categories": "Hospice, Health & Medical"
  },
  {
    "business_id": "eqZfSx2TY7040jQj4BclHg",
    "name": "Mint Hill Senior Living",
    "address": "10830 Lawyers Glen Dr",
    "city": "Charlotte",
    "state": "NC",
    "postal_code": "28227",
    "stars": 1,
    "categories": "Retirement Homes, Assisted Living Facilities, Home Health Care, Health & Medical, Personal Care Services, Hospice"
  },
  {
    "business_id": "NEUIueS9k14w-1GAoBxCHw",
    "name": "Odyssey Health Care",
    "address": "4011 McLeod Dr",
    "city": "Las Vegas",
    "state": "NV",
    "postal_code": "89121",
    "stars": 2,
    "categories": "Health & Medical, Event Planning & Services, Hospice"
  },
  {
    "business_id": "GaJAc5YtZsAKQcYVe6DRpA",
    "name": "Las Vegas Solari Hospice",
    "address": "5550 S Jones Blvd",
    "city": "Las Vegas",
    "state": "NV",
    "postal_code": "89118",
    "stars": 3.5,
    "categories": "Health & Medical, Hospice"
  },
  {
    "business_id": "pPUZh_PoXHfIX0L-4jBsFg",
    "name": "Hospice of the Valley - Dobson Home",
    "address": "1188 N Dobson Road",
    "city": "Chandler",
    "state": "AZ",
    "postal_code": "85224",
    "stars": 4.5,
    "categories": "Health & Medical, Hospice"
  },
  {
    "business_id": "izagCj1Fue4YnVlx9kEw5g",
    "name": "Blue Sky Memory Care",
    "address": "8025 Amigo St",
    "city": "Las Vegas",
    "state": "NV",
    "postal_code": "89123",
    "stars": 2.5,
    "categories": "Health & Medical, Memory Care, Hospice"
  },
  {
    "business_id": "pKU4bXh_e1V6uB1DCW0SQA",
    "name": "Journeys Home Pet Euthanasia",
    "address": "",
    "city": "Madison",
    "state": "WI",
    "postal_code": "53705",
    "stars": 5,
    "categories": "Pets, Pet Services, Veterinarians, Pet Hospice"
  },
  {
    "business_id": "tYAur4ptvyJu6mO99ULyJw",
    "name": "Kindred at Home",
    "address": "11900 Fairhill Rd, Ste 309N",
    "city": "Cleveland",
    "state": "OH",
    "postal_code": "44120",
    "stars": 1.5,
    "categories": "Home Health Care, Hospice, Health & Medical, Hospitals, Occupational Therapy, Physical Therapy"
  },
  {
    "business_id": "XtFlfoG08iEoxNHHWEMdgw",
    "name": "AAA Senior Placement AZ by Sue Royer",
    "address": "14537 W Grand Ave, Ste 110",
    "city": "Surprise",
    "state": "AZ",
    "postal_code": "85374",
    "stars": 5,
    "categories": "Hospice, Retirement Homes, Home Health Care, Health & Medical"
  },
  {
    "business_id": "T5h7prb27lMargMp1R6b_w",
    "name": "365 Hospice",
    "address": "2549 Mosside Blvd",
    "city": "Monroeville",
    "state": "PA",
    "postal_code": "15146",
    "stars": 5,
    "categories": "Hospice, Health & Medical"
  },
  {
    "business_id": "n0AAdLqjFNNIPJ8eM7Wlxw",
    "name": "Comfy Couch Assisted Living",
    "address": "4812 E Osborn Rd",
    "city": "Phoenix",
    "state": "AZ",
    "postal_code": "85018",
    "stars": 4.5,
    "categories": "Rehabilitation Center, Hospice, Assisted Living Facilities, Health & Medical"
  },
  {
    "business_id": "RHmNyRxn6_PlA-izaXtQWg",
    "name": "Pacifica Senior Living Green Valley",
    "address": "2620 Robindale Rd",
    "city": "Henderson",
    "state": "NV",
    "postal_code": "89074",
    "stars": 3.5,
    "categories": "Assisted Living Facilities, Active Life, Memory Care, Health & Medical, Hospice, Senior Centers, Hospitals, Retirement Homes"
  },
  {
    "business_id": "qfaX75pL_cBrVOE501-DRg",
    "name": "The Gardens of Scottsdale",
    "address": "6001 East Thomas Road",
    "city": "Scottsdale",
    "state": "AZ",
    "postal_code": "85251",
    "stars": 3,
    "categories": "Rehabilitation Center, Home Health Care, Retirement Homes, Health & Medical, Hospice"
  },
  {
    "business_id": "boy190T8O6b6AzuJIu9qgw",
    "name": "Tender Loving Care Senior Residence",
    "address": "1401 Casa Del Rey Ct",
    "city": "Las Vegas",
    "state": "NV",
    "postal_code": "89117",
    "stars": 5,
    "categories": "Home Health Care, Health & Medical, Home Services, Assisted Living Facilities, Active Life, Retirement Homes, Hospice"
  },
  {
    "business_id": "EHSFFhaJp0AU1J19vPzIuA",
    "name": "O'Neill Healthcare North Olmsted",
    "address": "4800 Clague Rd",
    "city": "North Olmsted",
    "state": "OH",
    "postal_code": "44070",
    "stars": 5,
    "categories": "Assisted Living Facilities, Hospice, Health & Medical, Skilled Nursing"
  },
  {
    "business_id": "Ulwnqbq8pEARlTKW9IJ-bg",
    "name": "Right at Home",
    "address": "17035 North 67th Ave, Ste 11",
    "city": "Glendale",
    "state": "AZ",
    "postal_code": "85308",
    "stars": 5,
    "categories": "Hospice, Personal Care Services, Home Health Care, Health & Medical"
  },
  {
    "business_id": "llIIdbv8iMuQUK7vpbrNrQ",
    "name": "All About Restful Pets",
    "address": "",
    "city": "Phoenix",
    "state": "AZ",
    "postal_code": "85253",
    "stars": 5,
    "categories": "Veterinarians, Pet Services, Pet Hospice, Pet Cremation Services, Pets"
  },
  {
    "business_id": "BOrSSf0pEgFciJ9H0MB4GQ",
    "name": "Hospice of the Valley - Surprise Palliative Care Unit",
    "address": "14066 W Waddell Road",
    "city": "Surprise",
    "state": "AZ",
    "postal_code": "85379",
    "stars": 5,
    "categories": "Hospice, Health & Medical, Home Health Care"
  },
  {
    "business_id": "jzr88AhsyZ54jF-0iAqkug",
    "name": "Ballantyne Veterinary Clinic",
    "address": "16139 Lancaster Hwy, Ste 100",
    "city": "Charlotte",
    "state": "NC",
    "postal_code": "28277",
    "stars": 5,
    "categories": "Veterinarians, Pets, Pet Hospice, Pet Services, Pet Groomers"
  },
  {
    "business_id": "VITz-vFA6BzHifEfZUe5_Q",
    "name": "Prime Hospice",
    "address": "4225 W Glendale Ave",
    "city": "Phoenix",
    "state": "AZ",
    "postal_code": "85051",
    "stars": 2.5,
    "categories": "Hospice, Health & Medical"
  },
  {
    "business_id": "8zw6Kx9snDeDK3GFdvADhQ",
    "name": "Emeritus at Olive Grove",
    "address": "3014 East Indian School Road",
    "city": "Phoenix",
    "state": "AZ",
    "postal_code": "85016",
    "stars": 2,
    "categories": "Retirement Homes, Hospice, Health & Medical"
  },
  {
    "business_id": "yyMvjVRFyXmZ7knQBPcdRA",
    "name": "Aspen Perretta, DVM - Lap of Love",
    "address": "",
    "city": "Pittsburgh",
    "state": "PA",
    "postal_code": "15239",
    "stars": 5,
    "categories": "Pets, Veterinarians, Pet Services, Pet Hospice"
  },
  {
    "business_id": "WGK-Z6fQBXNTfUkyE6cBYw",
    "name": "Omni Care Hospice",
    "address": "6225 Dean Martin Dr",
    "city": "Las Vegas",
    "state": "NV",
    "postal_code": "89118",
    "stars": 5,
    "categories": "Hospice, Health & Medical"
  },
  {
    "business_id": "PaZagBYzEnfrqz96QiOw0w",
    "name": "Private Nursing",
    "address": "2405 E Southern Ave, Ste 8-9",
    "city": "Tempe",
    "state": "AZ",
    "postal_code": "85282",
    "stars": 2.5,
    "categories": "Health & Medical, Home Health Care, Hospice"
  },
  {
    "business_id": "fny-VfhuKoy2Zw61fv5J3g",
    "name": "Nevada Hospice Care",
    "address": "6960 O'Bannon Dr, Ste 130",
    "city": "Las Vegas",
    "state": "NV",
    "postal_code": "89117",
    "stars": 5,
    "categories": "Retirement Homes, Skilled Nursing, Counseling & Mental Health, Home Health Care, Hospice, Health & Medical"
  },
  {
    "business_id": "pIU7V-xPm9BAgG98Mh5paQ",
    "name": "Life Care Center of North Glendale",
    "address": "13620 N 55th Ave",
    "city": "Glendale",
    "state": "AZ",
    "postal_code": "85304",
    "stars": 2.5,
    "categories": "Hospice, IV Hydration, Rehabilitation Center, Health & Medical"
  },
  {
    "business_id": "VPISD-VxZE7yG7_XYR1tXg",
    "name": "Pacifica Senior Living Peoria",
    "address": "9045 W Athens St",
    "city": "Peoria",
    "state": "AZ",
    "postal_code": "85382",
    "stars": 1,
    "categories": "Memory Care, Hospice, Assisted Living Facilities, Retirement Homes, Health & Medical"
  },
  {
    "business_id": "mSg1sVZhZgNeIwCg2w6BGg",
    "name": "Compassionate Care Veterinary Hospital of Charlotte",
    "address": "9300 Monroe Rd",
    "city": "Charlotte",
    "state": "NC",
    "postal_code": "28270",
    "stars": 4,
    "categories": "Pet Services, Pet Boarding, Pet Sitting, Pet Hospice, Veterinarians, Pets"
  },
  {
    "business_id": "CQxhyLM833WF45yrS9yeAA",
    "name": "Happy Endings In-Home Pet Euthanasia",
    "address": "4727 E Bell Rd, Ste 45308",
    "city": "Phoenix",
    "state": "AZ",
    "postal_code": "85032",
    "stars": 5,
    "categories": "Veterinarians, Pet Hospice, Pet Services, Pets"
  },
  {
    "business_id": "P8lQZVq2C0Fozkst_VQynw",
    "name": "Peaceful Passing",
    "address": "",
    "city": "Phoenix",
    "state": "AZ",
    "postal_code": "85035",
    "stars": 5,
    "categories": "Pets, Veterinarians, Pet Cremation Services, Pet Services, Pet Hospice"
  },
  {
    "business_id": "OhTddekXpc-HqZotGMPPJw",
    "name": "Broadway Mesa Village",
    "address": "7231 E Broadway Rd",
    "city": "Mesa",
    "state": "AZ",
    "postal_code": "85208",
    "stars": 2.5,
    "categories": "Apartments, Rehabilitation Center, Home Services, Health & Medical, Real Estate, Retirement Homes, Memory Care, Hospice, Assisted Living Facilities"
  },
  {
    "business_id": "lxI50_K_Cu1VQDjYXNRlPA",
    "name": "Carrington Place Nursing Home",
    "address": "600 Fullwood Rd",
    "city": "Matthews",
    "state": "NC",
    "postal_code": "28105",
    "stars": 4,
    "categories": "Health & Medical, Rehabilitation Center, Assisted Living Facilities, Skilled Nursing, Hospice"
  },
  {
    "business_id": "krx7FGxuh4-xQqEvMECDGA",
    "name": "Hospice of the Valley - Thunderbird Palliative Care Unit",
    "address": "13614 N 59th Avenue",
    "city": "Glendale",
    "state": "AZ",
    "postal_code": "85304",
    "stars": 2.5,
    "categories": "Hospitals, Health & Medical, Hospice"
  },
  {
    "business_id": "K__oVA8FvF9oVAnGMYGMkw",
    "name": "Norman's Moving",
    "address": "14924 W Yorkshire Dr",
    "city": "Surprise",
    "state": "AZ",
    "postal_code": "85374",
    "stars": 3.5,
    "categories": "Assisted Living Facilities, Hospice, Retirement Homes, Health & Medical, Movers, Home Services"
  },
  {
    "business_id": "M5XuaHFiqXfzr6vQYskozQ",
    "name": "Progressive Hospital",
    "address": "4015 Mcleod Dr",
    "city": "Las Vegas",
    "state": "NV",
    "postal_code": "89121",
    "stars": 5,
    "categories": "Urgent Care, Hospice, Hospitals, Health & Medical"
  },
  {
    "business_id": "_Z8HhnBdwAex3WL24smHgg",
    "name": "El Jen Healthcare and Rehabilitation Services",
    "address": "5538 Duncan Dr",
    "city": "Las Vegas",
    "state": "NV",
    "postal_code": "89130",
    "stars": 3,
    "categories": "Retirement Homes, Hospice, Health & Medical, Rehabilitation Center, Hospitals, Assisted Living Facilities"
  },
  {
    "business_id": "s25rTuh2os1KKD8GzcE7zg",
    "name": "Horizon Post Acute and Rehabilitation Center",
    "address": "4704 West Diana Ave",
    "city": "Glendale",
    "state": "AZ",
    "postal_code": "85302",
    "stars": 2,
    "categories": "Health & Medical, Hospice, Physical Therapy, Retirement Homes"
  },
  {
    "business_id": "DuPb5gYkuV5fbC5StYJSlQ",
    "name": "Wings of Hope Hospice",
    "address": "11022 N 28th Dr, Ste 205",
    "city": "Phoenix",
    "state": "AZ",
    "postal_code": "85029",
    "stars": 3.5,
    "categories": "Health & Medical, Hospice, Medical Centers, Doctors, Home Health Care, Nutritionists"
  },
  {
    "business_id": "w8DDv9JmI-CVLQtRc7oCLA",
    "name": "Nathan Adelson Hospice",
    "address": "3150 N Tenaya Way, Ste 350",
    "city": "Las Vegas",
    "state": "NV",
    "postal_code": "89128",
    "stars": 4.5,
    "categories": "Hospice, Home Health Care, Health & Medical"
  },
  {
    "business_id": "KsNKuhCK7JpYVQXv8wy8-w",
    "name": "Life Care Center of Las Vegas",
    "address": "6151 Vegas Dr",
    "city": "Las Vegas",
    "state": "NV",
    "postal_code": "89108",
    "stars": 2,
    "categories": "Chiropractors, Health & Medical, Skilled Nursing, Medical Centers, Rehabilitation Center, Hospice"
  },
  {
    "business_id": "4BkszfGUkOViE2pcLDaXUw",
    "name": "Uprooting Grief",
    "address": "",
    "city": "Las Vegas",
    "state": "NV",
    "postal_code": "89144",
    "stars": 5,
    "categories": "Health & Medical, Local Services, Hospice, Counseling & Mental Health, Funeral Services & Cemeteries"
  },
  {
    "business_id": "k61WVXvUREIcmwaoDbZuag",
    "name": "Renaissance Hospice",
    "address": "2950 E Flamingo Rd, Ste J-B",
    "city": "Las Vegas",
    "state": "NV",
    "postal_code": "89121",
    "stars": 3.5,
    "categories": "Hospice, Health & Medical"
  },
  {
    "business_id": "DefyUYgs6kMACnRpXJssFw",
    "name": "Nathan Adelson Hospice",
    "address": "4141 University Center Dr",
    "city": "Las Vegas",
    "state": "NV",
    "postal_code": "89119",
    "stars": 4,
    "categories": "Retirement Homes, Hospice, Assisted Living Facilities, Home Health Care, Health & Medical"
  },
  {
    "business_id": "xh3Gwi62XtBDlIOwRWR53Q",
    "name": "Brookdale Senior Living",
    "address": "6031 West Cheyenne Ave",
    "city": "Las Vegas",
    "state": "NV",
    "postal_code": "89108",
    "stars": 1,
    "categories": "Health & Medical, Retirement Homes, Hospice"
  },
  {
    "business_id": "Xyt6OMMrCv8YqI_Ce65W-w",
    "name": "Serenity In Home Pet Euthanasia",
    "address": "5155 E Eagle Dr",
    "city": "Mesa",
    "state": "AZ",
    "postal_code": "85215",
    "stars": 5,
    "categories": "Pet Hospice, Pet Services, Veterinarians, Pets"
  },
  {
    "business_id": "rVmnrAawIvdumxLS9JSgQQ",
    "name": "Hospice of the Valley - Gardiner Home",
    "address": "1522 W Myrtle Ave",
    "city": "Phoenix",
    "state": "AZ",
    "postal_code": "85021",
    "stars": 3,
    "categories": "Hospice, Community Service/Non-Profit, Health & Medical, Local Services"
  },
  {
    "business_id": "S9NAJ_sZrCCm27sw6J2-RQ",
    "name": "Caring Senior Service of Phoenix",
    "address": "2301 W Dunlap Ave, Ste 114B",
    "city": "Phoenix",
    "state": "AZ",
    "postal_code": "85021",
    "stars": 1,
    "categories": "Hospice, Health & Medical, Personal Care Services, Home Health Care, Retirement Homes"
  },
  {
    "business_id": "pSf2r6lu44LlRQoOppO2Kg",
    "name": "Hacienda Del Rey",
    "address": "12917 W Las Cruces Dr",
    "city": "Litchfield Park",
    "state": "AZ",
    "postal_code": "85340",
    "stars": 4,
    "categories": "Assisted Living Facilities, Health & Medical, Hospice, Home Health Care, Retirement Homes"
  },
  {
    "business_id": "Hy70yly0uNYZhASa738p1w",
    "name": "Delmar Gardens of Green Valley",
    "address": "100 Delmar Gardens Dr",
    "city": "Henderson",
    "state": "NV",
    "postal_code": "89074",
    "stars": 3,
    "categories": "Education, Retirement Homes, Language Schools, Physical Therapy, Specialty Schools, Health & Medical, Hospice, Skilled Nursing, Assisted Living Facilities"
  },
  {
    "business_id": "gceyh3Aj6JTq4TiqhKzrjg",
    "name": "Valley Vet Care",
    "address": "",
    "city": "Scottsdale",
    "state": "AZ",
    "postal_code": "85259",
    "stars": 5,
    "categories": "Veterinarians, Pets, Pet Cremation Services, Pet Hospice, Pet Services"
  },
  {
    "business_id": "mbnU0WTmBcYDvUu0ch6O8A",
    "name": "McClintock Animal Care Center",
    "address": "1836 E Elliot Rd",
    "city": "Tempe",
    "state": "AZ",
    "postal_code": "85284",
    "stars": 4.5,
    "categories": "Pet Services, Pet Hospice, Pets, Veterinarians"
  },
  {
    "business_id": "U8kRqove7T20C9oFQi8nCg",
    "name": "Premier Hospice and Home Health",
    "address": "3550 N Central Ave, Ste 1200",
    "city": "Phoenix",
    "state": "AZ",
    "postal_code": "85012",
    "stars": 5,
    "categories": "Hospice, Health & Medical, Home Health Care, Skilled Nursing"
  },
  {
    "business_id": "SKt4tM6NBZaVQb6t5kGjWA",
    "name": "Sage Hospice",
    "address": "5111 N Scottsdale Rd, Ste 204",
    "city": "Scottsdale",
    "state": "AZ",
    "postal_code": "85250",
    "stars": 4,
    "categories": "Health & Medical, Home Health Care, Hospice"
  },
  {
    "business_id": "taeCKmXmifIuNovtXxaosw",
    "name": "Phoenix Mountain Post-Acute",
    "address": "13232 N Tatum Blvd",
    "city": "Phoenix",
    "state": "AZ",
    "postal_code": "85032",
    "stars": 3.5,
    "categories": "Health & Medical, Elder Care Planning, Medical Centers, Skilled Nursing, Physical Therapy, Hospice, Rehabilitation Center, Local Services, Occupational Therapy"
  },
  {
    "business_id": "ZWe_Bj1_AqudoAfqVT276g",
    "name": "Sante - Chandler",
    "address": "825 S 94th St",
    "city": "Chandler",
    "state": "AZ",
    "postal_code": "85224",
    "stars": 3.5,
    "categories": "Skilled Nursing, Rehabilitation Center, Home Health Care, Hospice, Health & Medical, Physical Therapy"
  },
  {
    "business_id": "n81Y30ZB_D8lIgrR7QT2GA",
    "name": "Nancy's Pet Care Service",
    "address": "",
    "city": "Las Vegas",
    "state": "NV",
    "postal_code": "89178",
    "stars": 4.5,
    "categories": "Dog Walkers, Pet Hospice, Pet Training, House Sitters, Pet Sitting, Pet Boarding, Home Services, Pet Services, Pets"
  },
  {
    "business_id": "VPVl3gOWAzzfLE-YiTWd8w",
    "name": "Gentle Journey In-Home Pet Euthanasia and Hospice Care",
    "address": "539 E Glendale Ave, Ste 1",
    "city": "Phoenix",
    "state": "AZ",
    "postal_code": "85020",
    "stars": 4.5,
    "categories": "Pets, Pet Stores, Veterinarians, Pet Services, Pet Hospice"
  },
  {
    "business_id": "omh_or5Pee_OFDwiHbqJHA",
    "name": "Pacifica Senior Living Regency",
    "address": "3985 S Pearl St",
    "city": "Las Vegas",
    "state": "NV",
    "postal_code": "89121",
    "stars": 4,
    "categories": "Memory Care, Hospice, Assisted Living Facilities, Home Health Care, Health & Medical, Retirement Homes"
  },
  {
    "business_id": "mjrDXBFEWsu40rDv7Ld8hw",
    "name": "Integrity Placement",
    "address": "1776 N Scottsdale Rd, Ste 2014",
    "city": "Scottsdale",
    "state": "AZ",
    "postal_code": "85257",
    "stars": 5,
    "categories": "Hospice, Memory Care, Health & Medical, Assisted Living Facilities, Home Health Care, Retirement Homes"
  },
  {
    "business_id": "pJKzJDohtGTltu2Yaia3hA",
    "name": "Southland Hospice",
    "address": "4527 N 16th St, Ste 104",
    "city": "Phoenix",
    "state": "AZ",
    "postal_code": "85016",
    "stars": 5,
    "categories": "Hospice, Home Health Care, Health & Medical"
  },
  {
    "business_id": "r_Z-9ZohLMpxmlltSWNEZw",
    "name": "Pet Home Euthanasia",
    "address": "",
    "city": "Phoenix",
    "state": "AZ",
    "postal_code": "85085",
    "stars": 4.5,
    "categories": "Health & Medical, Hospice, Veterinarians, Pet Services, Pet Hospice, Pets"
  },
  {
    "business_id": "Uw296FMa3GLM9Ijtoc_uIA",
    "name": "Harmony Hospice",
    "address": "5550 S Jones Blvd",
    "city": "Las Vegas",
    "state": "NV",
    "postal_code": "89118",
    "stars": 5,
    "categories": "Hospice, Health & Medical"
  },
  {
    "business_id": "0SPYu_GkX3YLqY6QlM0NFA",
    "name": "Kindred at Home - Personal Home Care Assistance",
    "address": "17035 North 67th Ave, Ste 8",
    "city": "Glendale",
    "state": "AZ",
    "postal_code": "85308",
    "stars": 5,
    "categories": "Hospice, Home Health Care, Professional Services, Personal Assistants, Health & Medical, Elder Care Planning, Personal Care Services, Local Services"
  },
  {
    "business_id": "doBmsTeVHs_8gwlOYLbdjQ",
    "name": "Medstar Medical Transport",
    "address": "1827 W 3rd St",
    "city": "Tempe",
    "state": "AZ",
    "postal_code": "85281",
    "stars": 2.5,
    "categories": "Health & Medical, Medical Transportation, Hospice"
  },
  {
    "business_id": "vZIXnOXmb2IkqGdIdbY4KQ",
    "name": "Brookdale Senior Living North Mesa",
    "address": "2122 East Brown Rd",
    "city": "Mesa",
    "state": "AZ",
    "postal_code": "85213",
    "stars": 5,
    "categories": "Retirement Homes, Health & Medical, Hospice"
  },
  {
    "business_id": "8flaVsSWY-yIsm293MVosA",
    "name": "Lap of Love Veterinary Hospice & In-Home Euthanasia",
    "address": "",
    "city": "Las Vegas",
    "state": "NV",
    "postal_code": "89130",
    "stars": 5,
    "categories": "Pet Hospice, Veterinarians, Pet Services, Pets"
  }
]