address,business_id,categories,city,name,postal_code,stars,state
"10550 Independence Pointe Pkwy, Ste 302",EpeIGIdVblKts0ihFJY_9w,"General Litigation, Lawyers, Professional Services, Real Estate, Real Estate Law, Home Services, Bankruptcy Law, Legal Services",Matthews,Harry Marsh Law,28105,3.5,NC
"8712 Lindholm Dr, Ste 300",O7SvlRCCJgcrmsfAtj-pGg,"Real Estate Law, Professional Services, Lawyers",Huntersville,"Ckezepis Law, PLLC",28078,2.5,NC
2120-237 4 Avenue SW,K1GkW5y9jMPxbeGLnw4t0A,"Real Estate Law, Divorce & Family Law, Lawyers, Immigration Law, Legal Services, General Litigation, Professional Services, Notaries, Local Services",Calgary,Caron & Partners,T2P 4K3,2.5,AB
402 E Southern Ave,lyFktc4fC8SzZNIQg2KNOw,"Local Services, Divorce & Family Law, Lawyers, Estate Planning Law, Professional Services, Notaries, Bankruptcy Law, Legal Services",Tempe,"Taylor House Law, PLC",85282,5.0,AZ
"19410 Jetton Rd, Ste 130",_OlEcEZdjuqu-bI38qOfBQ,"Lawyers, Professional Services, Divorce & Family Law, Estate Planning Law, General Litigation",Cornelius,Thomas Susan V Attorney Family Law,28031,5.0,NC
"1057 Whitney Ranch Dr, Ste 350",z-CGCHaR7g4tS3G4VV099Q,"Professional Services, Traffic Ticketing Law, Divorce & Family Law, DUI Law, Lawyers, Parking, Personal Injury Law, Automotive, General Litigation, Real Estate Law",Henderson,The Wright Law Offices,89014,5.0,NV
6173 S Rainbow Blvd,N5tz1ZQqeIyGtvB0yoLI4A,"Professional Services, Real Estate Law, Personal Injury Law, Financial Services, Lawyers, Financial Advising, Legal Services, Bankruptcy Law",Las Vegas,Peters and Associates,89118,4.5,NV
326 W 10th St,gFtYRB0AVTrakzNBgbq4nQ,"Personal Injury Law, Lawyers, Professional Services, Legal Services, Tenant and Eviction Law, Business Law, General Litigation, Employment Law, Wills, Trusts, & Probates, Medical Law, Estate Planning Law",Charlotte,Lindley Law,28202,5.0,NC
"2155 W Pinnacle Peak Rd, Ste 201-28",4Ab9Av1zCIsRLTO7-Wx8HA,"Bankruptcy Law, Divorce & Family Law, General Litigation, Professional Services, Lawyers, Estate Planning Law",Phoenix,The Law Office of Joshua K Hatch,85027,4.5,AZ
"10789 W Twain Ave, Ste 100",CUEPzJmQjvtlvH8icx-eQA,"Real Estate Law, Lawyers, Professional Services, Bankruptcy Law, Personal Injury Law",Las Vegas,Battle Born Injury Lawyers,89135,4.5,NV
10125 Berkeley Pl Dr,qC-brtILr9-kc5IKPvAuQg,"Professional Services, Real Estate Law, Lawyers",Charlotte,Costner Law,28262,3.0,NC
"3411 North Fifth Ave, Ste 303",p0AJCBI9Plo0K3cn9h7TtA,"Lawyers, Professional Services, IP & Internet Law, Business Law, Estate Planning Law, General Litigation",Phoenix,Keeling Law Offices,85013,2.5,AZ
"5725 N Scottsdale Rd, Ste C-110",GYOBUJtTt39GWaByf8Lk9g,"Real Estate Law, Personal Injury Law, Professional Services, Lawyers, Medical Law",Scottsdale,David Shapiro Law,85250,5.0,AZ
"6655 W Sahara Ave, Ste D-114",FEo6PAUUy_u3EvWJF8Mo8w,"Lawyers, Estate Planning Law, Professional Services, Divorce & Family Law",Las Vegas,"Acherman Law - Personal, Professional Representation",89146,5.0,NV
"5320 N 16th St, Ste 205",dq_s3i3_FHA3ptnhsVvmfA,"Professional Services, Real Estate Law, Lawyers, Legal Services, Personal Injury Law, Contract Law, Divorce & Family Law, Business Law, General Litigation",Phoenix,Degnan Law,85016,4.5,AZ
"14646 N Kierland Blvd, Ste 230",UEv3X-tIjr1QWLHYxmtz5A,"Professional Services, Real Estate Law, Lawyers, Business Law, Divorce & Family Law",Scottsdale,Provident Law,85254,3.5,AZ
"301 N Neil St, Ste 400",204g8guwaRbL-T23BRjOHQ,"Professional Services, Lawyers, Divorce & Family Law, Business Law, Real Estate Law",Champaign,Rincker Law,61820,5.0,IL
"1760 E Pecos Rd, Ste 332",tNlfh4x5HUUHj65KbNmDFg,"Lawyers, Local Services, Professional Services, Business Law, General Litigation, Mediators, Estate Planning Law, Wills, Trusts, & Probates, Personal Injury Law",Gilbert,Harrison Law,85295,4.0,AZ
"11120 N Tatum Blvd, Ste 101",GeVgX-OZDTlOskU9kd8TuA,"Lawyers, Professional Services, Estate Planning Law, Divorce & Family Law, Wills, Trusts, & Probates, Business Law",Phoenix,Poulos Law Firm,85028,5.0,AZ
4164 N Marshall Way,QTD6euYGCNyL3C93tC6ncw,"Home Services, Professional Services, Real Estate Services, Lawyers, Hotels & Travel, Real Estate Law, Real Estate, Vacation Rental Agents, Legal Services",Scottsdale,Vacation Ownership Consultants,85251,5.0,AZ
3901 W Charleston Blvd,7RMJmOFSG3aSXU83KBoWGg,"Estate Planning Law, Wills, Trusts, & Probates, Divorce & Family Law, Professional Services, Notaries, Lawyers, Financial Services, Tax Services, Local Services",Las Vegas,Nevada Legal Forms & Tax Services,89102,3.0,NV
"4250 N Drinkwater Blvd, Fl 4",7ip3JWOAxL-FlTGQGaHLxQ,"Bankruptcy Law, Lawyers, Divorce & Family Law, Professional Services, Estate Planning Law",Scottsdale,Sacks Tierney,85251,2.5,AZ
120 Church Rd,YcTIvgMOqnz5iOkN987oOA,"Bankruptcy Law, Lawyers, Business Law, Professional Services, Real Estate Law",Wexford,Dorazio Law Group,15090,2.5,PA
"5304 E Southern Ave, Ste 106",-Hc1J3UdMvErcWLDHKn1-A,"Local Services, Community Service/Non-Profit, Public Services & Government, Real Estate Law, Lawyers, Home Services, Real Estate Services, Professional Services, Tenant and Eviction Law, Real Estate, Legal Services",Mesa,Arizona Tenants Association,85206,3.5,AZ
"2700 N 3rd St, Ste 3055",0r7T5Cypgdx4PuOhaJ_ruw,"Divorce & Family Law, Lawyers, Professional Services, Personal Injury Law, Bankruptcy Law, Estate Planning Law",Phoenix,The Law Office of Malkin & Associates,85004,3.0,AZ
"5812 S Pecos Rd, Ste A",PAcRm1PJmQb8pkwtWV94bA,"Lawyers, Real Estate Law, Professional Services, Tenant and Eviction Law, Business Law",Las Vegas,Simon Law,89120,4.5,NV
"500 N Rainbow Blvd, Ste 300",bs8xKVVKTw_GnwZ2a7HhIQ,"Estate Planning Law, Professional Services, Lawyers, Divorce & Family Law, Bankruptcy Law",Las Vegas,Roger A Giuliani Law Offices,89107,4.5,NV
"2625 N Green Valley Pkwy, Ste 225",TlZWdscw4diB9U3dwaCmHA,"Professional Services, General Litigation, Real Estate Law, Lawyers, Personal Injury Law",Henderson,"Judd J Balmer, Esq",89014,2.5,NV
"6980 S Cimarron Rd, Ste 110",BY9IQn3lvx6UGnPQQHAusQ,"Estate Planning Law, Professional Services, Lawyers, Business Law, Wills, Trusts, & Probates",Las Vegas,Trusted Estate Planning Attorneys,89113,5.0,NV
"2620 Regatta Dr, Ste 102",Vm2TWVsv-6qPTF5AT8mx0Q,"Professional Services, Business Law, Wills, Trusts, & Probates, Estate Planning Law, Lawyers, Real Estate Law",Las Vegas,Nevada Estate Planning & Probate Services,89128,5.0,NV
"4560 S Decatur Blvd, Ste 302",P-0uY-AQvVYTMtIogguoWw,"Bankruptcy Law, Real Estate Law, Professional Services, Lawyers, Legal Services",Las Vegas,DeLuca & Associates,89103,4.0,NV
"3430 Toringdon Way, Ste 101A",fnXC8u-uVbekWQcugFvt-g,"Professional Services, Lawyers, Home Services, Real Estate, Real Estate Law",Charlotte,"Gerard W. McNaught, LLC",28277,2.5,NC
"255 Consumers Road, 5th Floor",W_GTlDcrgCbPtvgt9LtMsQ,"Real Estate Law, Lawyers, Professional Services, Personal Injury Law, Local Services",Toronto,Diamond & Diamond Lawyers,M2J 1R3,2.5,ON
"10320 W Mcdowell Rd, Bldg D",AEEa3PCo_dBaWHRNHrytdQ,"Lawyers, Personal Injury Law, Divorce & Family Law, Wills, Trusts, & Probates, Professional Services, Estate Planning Law",Avondale,Johnson & Associates,85392,5.0,AZ
"10655 Park Run Dr, Ste 130",sOsW27gsx3VVMWhdLx2OlA,"Divorce & Family Law, Estate Planning Law, Professional Services, Lawyers, Tax Law",Las Vegas,Miller Rebecca - Cooper Coons Law Firm,89144,5.0,NV
"625 N Gilbert Rd, Ste 201",XriRz6VbYDltbSSABPy_qA,"Employment Law, DUI Law, Professional Services, Estate Planning Law, Lawyers, Criminal Defense Law, Bankruptcy Law, Divorce & Family Law",Gilbert,Zachary Law Group,85234,3.5,AZ
"639 Dupont Street, Unit 188",m0V7G95ciymTAGPKYxHBlg,"Estate Planning Law, Notaries, Lawyers, Business Law, General Litigation, Local Services, Contract Law, Professional Services, Immigration Law",Toronto,House Call Notary Public,M6G 1Z4,4.5,ON
"8686 E San Alberto Dr, Ste 300",irSen-EG7GsrevUZYGbc2g,"Contract Law, Business Law, Lawyers, Professional Services, Employment Law, Estate Planning Law",Scottsdale,Law Office of Wendy Anderson,85258,4.0,AZ
"18 E University Dr, Ste 201",Oi3dls1J_JzDQEuVAtdJHg,"Business Law, Divorce & Family Law, Bankruptcy Law, Real Estate Law, DUI Law, Professional Services, Lawyers, Wills, Trusts, & Probates, Estate Planning Law, Employment Law",Mesa,Joseph M Udall,85201,4.0,AZ
"4700 S Mill Ave, Ste 5",D0Ps4yBPJPEFwMSRtH3ynw,"Professional Services, Real Estate Law, Lawyers",Tempe,The Law Offices of J Roger Wood,85282,2.5,AZ
3293 Leechburg Rd,OG-oeLM7ND4xO5Nj2Z5Swg,"Estate Planning Law, Wills, Trusts, & Probates, Workers Compensation Law, Divorce & Family Law, Lawyers, Professional Services, Employment Law",New Kensington,"Emily K Trisoline, Attorney",15068,3.5,PA
"1640 S Stapley Dr, Ste 132",ZH9Xaw4TvTg1psnFsjpSKw,"Real Estate Law, Personal Injury Law, General Litigation, Lawyers, Professional Services",Mesa,Schern Richardson Finter Decker,85204,5.0,AZ
"520 S Fourth St, Ste 350",40NN63v0MGD8jYXtIfplaQ,"Estate Planning Law, Divorce & Family Law, Wills, Trusts, & Probates, Lawyers, Professional Services, Criminal Defense Law, Personal Injury Law",Las Vegas,Dawn Lozano,89101,5.0,NV
2916 N 7th Ave,V2sX62YqJiolrr4BqRuQqQ,"Professional Services, Personal Injury Law, Wills, Trusts, & Probates, Real Estate Law, Lawyers, General Litigation, Real Estate, Estate Planning Law, Business Law, Home Services, Bankruptcy Law",Phoenix,Platt & Westby,85013,4.0,AZ
"9949 W Bell Rd, Ste 201",9gdGI4reocg79AybmQAh9g,"Professional Services, Estate Planning Law, Divorce & Family Law, Criminal Defense Law, Lawyers",Sun City,Moore Law Firm,85351,3.5,AZ
725 W Elliot Rd,-SY343b6fyP0vaj2duY3JA,"Real Estate Law, Real Estate Agents, Professional Services, Home Services, Lawyers, Real Estate, Real Estate Services",Gilbert,RE/MAX Alliance Group,85233,2.0,AZ
"1930 Village Center Cir, Ste 3-165",kK0kZMxmd1KKwU_s4YUpxA,"Lawyers, Real Estate, Professional Services, Fashion, Used, Vintage & Consignment, Estate Planning Law, Home Services, Estate Liquidation, Home & Garden, Home Decor, Furniture Stores, Shopping",Las Vegas,Silver Lining Estate Sales & Liquidation,89134,5.0,NV
601 S 6th St,vD1njlctvEaraE-nJkjbCw,"Real Estate, Business Law, Home Services, General Litigation, Lawyers, Professional Services, Real Estate Law",Las Vegas,Kern Law,89101,4.0,NV
3115 S Price Rd,Yb7zIEDAf4mNIu4O42L92g,"Estate Planning Law, Lawyers, Professional Services",Chandler,Jeffrey P Hall,85248,5.0,AZ
"1057 Whitney Ranch Dr, Ste 350",fIOztDK0wQMRubUeEeaVWA,"Real Estate Law, Personal Injury Law, Business Law, Estate Planning Law, Professional Services, Lawyers",Henderson,Ken R Ashworth & Associates,89014,5.0,NV
"750 Prospect Ave E, Ste 306",MbKWg24rOC8G8d3UfkuGZQ,"Lawyers, Professional Services, Workers Compensation Law, Wills, Trusts, & Probates, Employment Law, Estate Planning Law",Cleveland,Hurm Law Firm,44115,5.0,OH
"1166 E Warner Rd, Ste 216A",YmzH5RyxnAnIPVChPIpP_w,"Estate Planning Law, Criminal Defense Law, Disability Law, Wills, Trusts, & Probates, Personal Injury Law, Professional Services, Real Estate Law, Business Law, Lawyers",Gilbert,"Andrew S Mathers, PC",85296,5.0,AZ
317 S South St,VHVQXoXPk81mCVuzV-OpjQ,"Real Estate, Lawyers, Legal Services, Real Estate Services, Home Services, Professional Services, Real Estate Law",Gastonia,Hance & Hance,28052,2.5,NC
"2601 N 3rd St, Ste 305",mGHWC3AjjcWTQvv4m9ddpg,"Financial Advising, Financial Services, Professional Services, Criminal Defense Law, Immigration Law, Real Estate Law, Business Law, DUI Law, Lawyers, Bankruptcy Law, General Litigation, Personal Injury Law",Phoenix,Martinet Law,85004,5.0,AZ
"10240 W Bell Rd, Ste E",m0TPVaF2ZSXNUy6AuCdYVA,"Real Estate Law, Divorce & Family Law, Estate Planning Law, Professional Services, Lawyers",Sun City,That Paralegal Place,85351,2.0,AZ
3055 E Waterman Way,193GRVErPSYgfMlq4ye86w,"Wills, Trusts, & Probates, Financial Services, General Litigation, Professional Services, Lawyers, Estate Planning Law, Legal Services",Gilbert,Family First Estate & Corporate Services,85297,4.5,AZ
"1717 E Bell Rd, Ste 1",OflOH1yPze86GU8Wuu2l4g,"Real Estate Law, Lawyers, Personal Injury Law, DUI Law, Medical Law, Professional Services, Criminal Defense Law",Phoenix,Alex & Associates,85022,5.0,AZ
"6787 W Tropicana Ave, Ste 268 & 270",4TgAjM5Mamp0Qqz1vQz6nw,"Professional Services, Business Law, Divorce & Family Law, Lawyers, Estate Planning Law",Las Vegas,Cutter Law Firm,89103,4.0,NV
"10201 Southport Road SW, Suite 880",C4K8pCPROYDQZdAbUnBSvg,"Professional Services, Divorce & Family Law, Real Estate Law, Lawyers, Estate Planning Law",Calgary,West Legal,T2W 4X9,4.0,AB
"207 N Gilbert Rd, Ste 209",wDUz9x2xiYniDM3i3al7RQ,"Lawyers, Estate Planning Law, Bankruptcy Law, Divorce & Family Law, Professional Services, Wills, Trusts, & Probates",Gilbert,Cholewka Law,85234,4.0,AZ
"439 University Avenue, Suite 2201",Tvtwp5NFy-PzM2poMzjL0g,"Legal Services, Lawyers, Notaries, Professional Services, Real Estate Law, Estate Planning Law, Personal Injury Law, Local Services",Toronto,Axess Law,M5G 1Y8,3.5,ON
"1160 N Town Center Dr, Ste 390",ovmt7QUFjF3h5YZoQVFa_A,"Lawyers, Professional Services, Estate Planning Law, Wills, Trusts, & Probates",Las Vegas,Johnson & Johnson Law Offices,89144,5.0,NV
5622 W Glendale Ave,87ljDf7ZsNFYwuf6BwLieg,"General Litigation, Real Estate Law, Personal Injury Law, DUI Law, Criminal Defense Law, Divorce & Family Law, Lawyers, Bankruptcy Law, Immigration Law, Professional Services",Glendale,Bellah Perez,85301,4.0,AZ
"6623 Las Vegas Blvd S, Ste 300",S7CGD8ue3YLzTp5hPZGqfg,"Professional Services, Bankruptcy Law, Home Services, Real Estate, Real Estate Law, Lawyers, Real Estate Agents, Personal Injury Law",Las Vegas,Schwartz Flansburg PLLC,89119,4.5,NV
"880 Seven Hills Dr, Ste 210",wnYansqrzDDYQrEXH0vb7A,"Wills, Trusts, & Probates, Divorce & Family Law, Lawyers, Estate Planning Law, Personal Injury Law, Professional Services",Henderson,Parry & Pfau,89052,5.0,NV
"6910 S Cimarron Rd, Ste 230",X9lBHGl5Ta3vZlIFMc9VbA,"Professional Services, Business Law, Lawyers, Personal Injury Law, Estate Planning Law, Elder Law",Las Vegas,Young Law Group,89113,4.0,NV
8816 Spanish Ridge Ave,_chgT2KGlgQp_c7dWdGLhA,"Professional Services, Personal Injury Law, Lawyers, Business Law, Bankruptcy Law, Real Estate Law, Employment Law",Las Vegas,Maier Gutierrez & Associates,89148,5.0,NV
"2375 E Camelback Rd, Ste 600",OkHmiIE3S-o7tYCzB31Xtw,"Debt Relief Services, Professional Services, Bankruptcy Law, Lawyers, Legal Services, Wills, Trusts, & Probates, Estate Planning Law, Financial Advising, Real Estate Law, Financial Services",Phoenix,"Law Office of D.L. Drain,",85016,5.0,AZ
"12725 W Indian School Rd, Ste C-103",rlh554Iq_qED87WCyY_PaA,"Lawyers, Estate Planning Law, Professional Services, Business Law, Bankruptcy Law, Divorce & Family Law",Avondale,Becker Zarling Law,85392,4.0,AZ
"11811 N Tatum Blvd, Ste 3031",ArfVuFWLnEG-NeG6yxc0Bg,"Legal Services, Business Law, Investing, Lawyers, Financial Services, Professional Services, Wills, Trusts, & Probates, Immigration Law, IP & Internet Law, Real Estate Law, Estate Planning Law",Phoenix,IBC Law Firm,85028,5.0,AZ
"2168 E Williams Field Rd, Ste 200",ihL8oAnG4DI55HoKScKDgw,"Professional Services, Lawyers, Tax Law, General Litigation, Estate Planning Law, Business Law",Gilbert,"The Law Office of Paul C. Cox, PLLC",85295,5.0,AZ
"9205 W Russell Rd, Ste 240",v_p_wi92V21gNXavAhRTtA,"Professional Services, Personal Injury Law, Real Estate Law, Lawyers, Criminal Defense Law, General Litigation, Estate Planning Law, Wills, Trusts, & Probates",Las Vegas,Law Office of Steven H. Burke,89148,5.0,NV
"2980 N Litchfield Rd, Ste 120",5Ly0ePr2mA-NsaQv4M-9Aw,"Wills, Trusts, & Probates, Professional Services, Lawyers, Estate Planning Law",Goodyear,Mahoney Law Office,85395,3.5,AZ
"330 E Warm Springs Rd, Ste A-18",LcRga10wGLZnHlGGrV_NTA,"Mortgage Brokers, Real Estate, Lawyers, Home Services, Educational Services, Professional Services, Education, Real Estate Law, Bankruptcy Law, Estate Planning Law",Las Vegas,The Law Office of Monica Centeno,89119,3.5,NV
"4727 E Bell Rd, Ste 45-450",6YyCSiJoz_3ULFbQbTq2pw,"Estate Planning Law, Lawyers, Wills, Trusts, & Probates, Legal Services, Professional Services",Phoenix,Joy Garvey,85032,2.5,AZ
"810 S Durango Dr, Ste 102",JXCy5nMz1PwepUauWtZKqQ,"Lawyers, Business Law, Professional Services, Bankruptcy Law, Real Estate Law",Las Vegas,Clark Newberry Law Firm,89145,5.0,NV
"2850 W Horizon Ridge Pkwy, Ste 200",Hdqqp7G9NgFuW3P-NGQ9Xw,"Legal Services, Lawyers, Business Law, Professional Services, General Litigation, Real Estate Law",Henderson,Gordon Law,89052,5.0,NV
"1707 Village Center Cir, Ste 150",KirVG2SpKBEtCCm3GdeVIA,"Wills, Trusts, & Probates, Estate Planning Law, Professional Services, Lawyers, General Litigation",Las Vegas,Rushforth Lee & Kiefer,89134,3.5,NV
"7375 S Pecos Rd, Ste 101",Ei713CM05bBUe7rHn85Bqw,"Professional Services, Divorce & Family Law, Criminal Defense Law, Lawyers, Personal Injury Law, DUI Law, Estate Planning Law",Las Vegas,Rosenblum Law Offices,89120,5.0,NV
"6655 W Sahara Ave, Ste B-200",rofDCtMXAMsRnVRyHM-B-A,"Personal Injury Law, Professional Services, Lawyers, Estate Planning Law",Las Vegas,Reed & Mansfield,89146,5.0,NV
"153 W Lake Mead Pkwy, Ste 2130",NVZ9J0bUG2i-Ta0gW3JnnA,"Lawyers, Professional Services, Business Law, General Litigation, Divorce & Family Law, Estate Planning Law, Wills, Trusts, & Probates",Henderson,The Law Office of Daniel Potucek,89015,3.5,NV
15393 Yonge Street,VEYq1rfk9sPYxIGhdX6TWg,"Lawyers, Professional Services, Notaries, Local Services, Real Estate Law, Estate Planning Law, Divorce & Family Law",Aurora,Jason K  Allan Law Office,L4G 1P1,5.0,ON
"3005 West Horizon Ridge Pkwy, Ste 241",YatJhykuVLdWqDM8MYCOQA,"Real Estate Law, Personal Injury Law, Criminal Defense Law, Lawyers, Professional Services",Henderson,Lagomarsino Law,89052,4.5,NV
197 S Herlong Ave,NHfTU7yR6CE6EvTBRy0mBg,"Professional Services, Estate Planning Law, Personal Injury Law, Lawyers, Criminal Defense Law, Wills, Trusts, & Probates",Rock Hill,Schiller & Hamilton Law Firm,29732,3.5,SC
8446 Excelsior Dr,1cmJGvE9d2wj9A715-Zktg,"Estate Planning Law, Professional Services, Bankruptcy Law, Lawyers, Business Law, Real Estate Law",Madison,Horn & Johnsen SC,53717,5.0,WI
"6201 Fairview Rd, Ste 330",rO-kxqN6nVv5cs6HvN4IyQ,"Estate Planning Law, Real Estate Law, General Litigation, Business Law, Tax Law, Lawyers, Professional Services, Bankruptcy Law",Charlotte,McGrath & Spielberger,28210,5.0,NC
"2460 Professional Ct, Ste 110",kUBG2fB0lhszGS24yPcG-A,"Wills, Trusts, & Probates, Professional Services, Real Estate Law, Lawyers, General Litigation, Estate Planning Law, Divorce & Family Law, Business Law",Las Vegas,"Drizin Law | Probate, Estate Planning, Wills and Trusts",89128,4.0,NV
"2101 Windsor Pl, Ste 2, Chase Bank Building",XrC0GNsP3_oQZMmGscNPWw,"Business Law, Criminal Defense Law, Professional Services, Lawyers, Estate Planning Law, Personal Injury Law, Immigration Law, Divorce & Family Law",Champaign,Maatuka Al-Heeti Emkes,61820,5.0,IL
"7373 E Doubletree Ranch Rd, Ste 200",EwwtoEgGPAB4cpzxUNhElQ,"Lawyers, Divorce & Family Law, Professional Services, Estate Planning Law, Wills, Trusts, & Probates, Business Law",Scottsdale,RD Smith Law,85258,5.0,AZ
1290 S Jones Blvd,44_-jHi1F6vEl9wEPF_ycA,"Personal Injury Law, General Litigation, Tax Law, Professional Services, Lawyers, Bankruptcy Law, Real Estate Law",Las Vegas,Van Law Firm,89146,5.0,NV
"7502 E Pinnacle Peak Rd, Ste B118",Vi3um4au870py3_Xn8Qyxg,"Legal Services, Professional Services, Lawyers, Divorce & Family Law, Estate Planning Law, Wills, Trusts, & Probates",Scottsdale,Singer Pistiner,85255,5.0,AZ
"428 S Gilbert Rd, Ste 116",hsugu--POBFgmFrHpOqVQQ,"Lawyers, Divorce & Family Law, General Litigation, Real Estate Law, Professional Services",Gilbert,Terry J. Fong Law Group,85296,4.0,AZ
"2501 Parmenter St, Ste 200B",wFWDcUq5oXZa_XKM44NuiA,"Real Estate Law, Bankruptcy Law, Lawyers, Professional Services, Divorce & Family Law",Middleton,Fuhrman & Dodge,53562,2.5,WI
"6625 S Valley View Blvd, Ste 232",1wTdZbfGvcQS7Jr3xe5H_w,"Professional Services, Lawyers, Estate Planning Law, General Litigation, Wills, Trusts, & Probates, Business Law, Divorce & Family Law",Las Vegas,Burdick Law,89118,5.0,NV
"725 S 8th St, Ste 100",ob33SuNNHgODbhq11b0EIw,"Professional Services, Divorce & Family Law, Bankruptcy Law, Lawyers, Estate Planning Law",Las Vegas,Ghandi Deeter Blackham Law Offices,89101,4.0,NV
"411 East Bonneville Ave, Ste 505",fcJnDgLjIYoHkdlFMxOYDg,"Employment Law, Professional Services, Lawyers, Workers Compensation Law, Estate Planning Law, Wills, Trusts, & Probates, Social Security Law, Disability Law, Personal Injury Law",Las Vegas,Welt Law,89101,3.0,NV
"4250 N Drinkwater Blvd, Ste 320",CMfUC3KTV-jDjTwjM0iYEg,"General Litigation, Debt Relief Services, Real Estate, Financial Services, Real Estate Law, Lawyers, Bankruptcy Law, Professional Services, Home Services",Scottsdale,McCarthy Law,85251,3.5,AZ
"6020 E Brown Rd, Ste B-106",7582k8HTDRBVK0JL2qWoHw,"Lawyers, Business Law, Estate Planning Law, Personal Injury Law, Professional Services",Mesa,Chastain Legal Group,85205,5.0,AZ
"7251 W Lake Mead Blvd, Ste 300",WUR4t14RH_3Cje4UzHI_SQ,"Local Services, Real Estate Law, Commercial Real Estate, Notaries, Home Services, Lawyers, Legal Services, Professional Services, Real Estate, Real Estate Services",Las Vegas,Quick Claim USA,89128,5.0,NV
"8060 Silver Springs Boulevard NW, Suite 106",RdLg4jej0554Lc6zf0rgZQ,"Real Estate, Real Estate Services, Lawyers, Home Services, Real Estate Law, Professional Services",Calgary,MacKay Real Property Law,T3B 5K1,3.5,AB
"64 N Pecos Rd, Ste 100",LHBqTy-yA1J1sip5aY03gA,"Professional Services, Bankruptcy Law, Lawyers, Real Estate Law, Divorce & Family Law, Business Law",Henderson,Pontoni Michael R,89074,3.5,NV
"10150 Mallard Creek Rd, Bldg 3, Ste 209",noXU6jMfJE5ucpjXlHOHjg,"Real Estate Law, Lawyers, Professional Services",Charlotte,The Coley Law Firm,28262,3.5,NC
3411 N 32nd St,R5xIz45ztdsthSKBbgMvCQ,"Lawyers, Professional Services, Tax Law, Real Estate Law, Bankruptcy Law, Employment Law, Personal Injury Law",Phoenix,"The Rosacci Law Firm, PC",85018,5.0,AZ
"14500 N Northsight Blvd, Ste 208",IldFUl2hTbIG5mamyrUX_A,"Bankruptcy Law, Divorce & Family Law, Business Law, General Litigation, Real Estate Law, Professional Services, Personal Injury Law, Lawyers",Scottsdale,Drake Law Firm,85260,2.5,AZ
147 Liberty Street,zfn2YAYzU3y5SsJqRLJfMQ,"Divorce & Family Law, Business Law, Real Estate Law, Local Services, Professional Services, Notaries, Lawyers",Toronto,6ixLawyer/Lawyer on Wheels,M6K 3G3,3.5,ON
"2432 W Peoria Ave, Ste 1284, Bldg 18",5ePf6TFBbxUt1BBvP9nXEQ,"Lawyers, Bankruptcy Law, Wills, Trusts, & Probates, Professional Services, Personal Injury Law, Estate Planning Law",Phoenix,"Simmons & Greene, P.C.",85029,5.0,AZ
"4140 E Baseline Rd, Ste 101",gqwlqfC2akV7PXIIGyNCbw,"Estate Planning Law, Business Law, Professional Services, Lawyers, Wills, Trusts, & Probates",Mesa,Woods Law Group,85206,5.0,AZ
"7600 N 16th St, Ste 105",byYbmnfna-uxrNFIdJUiCQ,"Lawyers, Professional Services, Estate Planning Law",Phoenix,"Morris Hall, PLLC",85020,2.0,AZ
113-2155 Leanne Boulevard,FaaxTICv7WfoJARi8LAWPg,"Business Law, Professional Services, Real Estate Law, Lawyers, Estate Planning Law",Mississauga,Ball & Berljawsky,L5K 2K8,3.5,ON
"4101 Meadows Ln, Ste 210",dIcJ08GHNVUmTMNYW5qS3Q,"Real Estate Law, DUI Law, Lawyers, Criminal Defense Law, Professional Services, Personal Injury Law",Las Vegas,Valiente Mott,89107,5.0,NV
"4270 S Decatur Blvd, Ste B10",LIOyluKTkOoA1dduOLZB6g,"Professional Services, Lawyers, Divorce & Family Law, Estate Planning Law",Las Vegas,Steinberg Law Group,89103,3.5,NV
"215 E Warm Springs Rd, Ste 109",pePJunIRixnoRrojFW-xyg,"Real Estate Law, Lawyers, Process Servers, Tenant and Eviction Law, Local Services, Legal Services, Junk Removal & Hauling, Professional Services, Real Estate Services, Home Services, Real Estate",Las Vegas,Vegas Valley Evictions,89119,4.5,NV
812 Ivy St,ric6_nTE68dBs4q6IGBpOA,"Professional Services, Personal Injury Law, Lawyers, General Litigation, Medical Law, Real Estate Law, Business Law",Pittsburgh,Flaherty Fardo,15232,3.5,PA
"6272 Spring Mountain Rd, Ste 110",bhzKoF4XJ5790jt9-08oQA,"Real Estate Law, Lawyers, Professional Services, Personal Injury Law, Bankruptcy Law",Las Vegas,Vohwinkel Law,89146,4.5,NV
"11225 N 28th Dr, Ste A105",aMqStYa8kPPGjW1_H4Zh-w,"Estate Planning Law, Lawyers, Professional Services, Wills, Trusts, & Probates, Business Law",Phoenix,Nicole Pavlik Law Firm,85029,5.0,AZ
"4035 W Chandler Blvd, Ste 4",q_B7QQi1FzmT4Axw6ZrnJA,"Tax Law, Wills, Trusts, & Probates, Food, Ice Cream & Frozen Yogurt, Pizza, Estate Planning Law, Lawyers, Tax Services, Bankruptcy Law, Professional Services, Business Consulting, Financial Services, Restaurants",Chandler,Law Office of James J Gentile,85226,4.0,AZ
3216 W Charleston Blvd,aMOCpkCjjjD5InYwIIkAoQ,"Lawyers, Professional Services, General Litigation, Real Estate Law",Las Vegas,Needham Law Firm,89102,5.0,NV
"2580 St Rose Pkwy, Ste 330",8m1HM54_hE6UcQcxWTWMaA,"Professional Services, Real Estate Law, General Litigation, Employment Law, Immigration Law, DUI Law, Personal Injury Law, Lawyers, Consumer Law",Henderson,Cogburn Law Offices,89074,4.5,NV
"7371 Prairie Falcon Rd, Ste 120",u2oFzNViupoZpiqHNMQWOw,"Legal Services, Lawyers, Business Law, Professional Services, Wills, Trusts, & Probates, Estate Planning Law",Las Vegas,Law Office of Michael R Cahill,89128,5.0,NV
"174 S South St, Ste 301",6V7ApmKDl2bjGjDtSJqj8g,"Professional Services, Estate Planning Law, Legal Services, Mediators, Wills, Trusts, & Probates, Lawyers, Divorce & Family Law",Gastonia,McIlveen Family Law Firm,28052,1.5,NC
,ejOU6CuEdFjkBai-60Ot5A,"Legal Services, Estate Planning Law, Lawyers, Divorce & Family Law, Professional Services",Tempe,Legal Services Network,85283,2.0,AZ
"1771 E Flamingo Rd, Ste B-212",BM397qQH6MSZEesj6td2nA,"Divorce & Family Law, Business Law, Real Estate Law, Lawyers, General Litigation, Bankruptcy Law, Professional Services",Las Vegas,Law Office of Timothy P Thomas,89119,5.0,NV
"9960 W Cheyenne Ave, Ste 250",V_QDFLvgeWsRDvEPYajcrQ,"Personal Injury Law, Lawyers, Professional Services, Divorce & Family Law, Wills, Trusts, & Probates, Estate Planning Law",Las Vegas,Bowen Law Offices,89129,3.5,NV
"1100 8 Avenue SW, Suite 233",nex50Umab9MlR7a7nqMRCw,"Lawyers, Wills, Trusts, & Probates, Real Estate Law, General Litigation, Professional Services, Estate Planning Law, Legal Services",Calgary,Stemp & Company,T2P 3T8,3.5,AB
"357 Regis Ave, Ste 1",XI6dymC6spr_oWS-5HRyVQ,"General Litigation, Professional Services, Lawyers, Estate Planning Law, Personal Injury Law, Divorce & Family Law",Pittsburgh,Covelli Law Offices,15236,2.5,PA
"2701 Coltsgate Rd, Ste 210",M5wn7x59tByCIrndhOJ1ew,"Lawyers, Professional Services, Real Estate Law",Charlotte,Doyle & Wallace,28211,3.5,NC
"5594 S Fort Apache Rd, Ste 120",dVOPg7s0OZ4jIfE2d5ndFw,"Employment Law, Real Estate Law, Estate Planning Law, Criminal Defense Law, Professional Services, Lawyers, Divorce & Family Law",Las Vegas,Kristina Kirigin - vegas west attorneys,89148,5.0,NV
"5280 S Eastern Ave, Ste A-5",ZitMJD4J3_eRa71TBH6SkQ,"Local Services, Financial Services, Divorce & Family Law, Legal Services, Lawyers, Notaries, Professional Services, Estate Planning Law, DUI Law, Wills, Trusts, & Probates",Las Vegas,American Legal Services,89119,4.0,NV
"2500 N Buffalo Dr, Ste 100",Zh6fxrqsKqdSVmTK3roxBQ,"Handyman, Nightlife, Real Estate Law, Gay Bars, Lawyers, Property Management, Professional Services, Land Surveying, Real Estate Services, Bars, Real Estate, Home Services",Las Vegas,Triumph Property Management,89128,2.5,NV
"2620 Regatta Dr, Ste 219",EH38fH2s3rjTiOmxBK1HXw,"Legal Services, DUI Law, Bankruptcy Law, Real Estate Law, Personal Injury Law, Professional Services, Divorce & Family Law, Criminal Defense Law, Lawyers",Las Vegas,TCM Law Group,89128,4.0,NV
626 S 3rd St,7RL3qW5IqoD4Mu3X1bkjjA,"Professional Services, Tenant and Eviction Law, Business Law, Real Estate Law, Lawyers",Las Vegas,Law Office Of Steven Marzullo,89101,1.5,NV
"4500 S Lakeshore Dr, Ste 300",3NnOa7-4F9nff4xLOlaLeQ,"Mediators, Lawyers, Divorce & Family Law, Real Estate Law, Professional Services, Wills, Trusts, & Probates, Estate Planning Law",Tempe,McMurdie Law & Mediation,85282,4.0,AZ
721 Queen Street E,Dx82l_qYYnIDXVQUemVUpg,"Shopping, Lawyers, Estate Planning Law, Divorce & Family Law, Professional Services, Real Estate Law",Toronto,Korman & Company,M4M 1H1,3.0,ON
"5353 N 16th St, Ste 110",SEmaOR0RUjQgc74peILyGA,"Professional Services, Lawyers, Business Law, Real Estate Law, Employment Law",Phoenix,Dessaules Law Group,85016,5.0,AZ
"3200 N Central Ave, Ste 2500",QH0DO6XdXYyKJfDTMr-VZg,"Lawyers, Professional Services, General Litigation, Business Law, Real Estate Law",Phoenix,The Law Offices of Donald W Hudspeth,85012,5.0,AZ
"202 E Earll Dr, Ste 440",QMSHQ0dZbD0lGbjNzeXoLg,"Estate Planning Law, Personal Injury Law, Bankruptcy Law, Business Law, Real Estate Law, Lawyers, Professional Services",Phoenix,Bankruptcy Estate Planning Business Pros,85012,4.5,AZ
5800 W Glenn Dr,ho6i87iCPzqAiCjHlg-TzQ,"Immigration Law, Lawyers, Legal Services, Estate Planning Law, Personal Injury Law, Professional Services",Glendale,AJ Law- Glendale,85301,5.0,AZ
"2470 W Horizon Ridge Pkwy, Ste 120",ap8tUjQXMLY7ky9DiXlUqw,"Professional Services, Accountants, Financial Services, Tax Services, Lawyers, Estate Planning Law",Henderson,Arlint CPA,89052,4.5,NV
"11225 N 28th Dr, A105",Ykxb2sc4sFUmQ5jdfZLo7w,"Lawyers, Professional Services, Estate Planning Law, Business Law",Phoenix,Nicole Pavlik Law,85029,4.5,AZ
"20325 N 51st Ave, Ste 166",t3b1NQQhiYDQrKRoFI25yg,"Bankruptcy Law, Business Law, Estate Planning Law, Professional Services, Lawyers",Glendale,The Hindo Law Group,85308,5.0,AZ
"2201 Warden Avenue, Suite 200",41XhzOPK28B_DPLQVSFgwg,"Real Estate Services, Professional Services, Home Services, Lawyers, Real Estate Law, Real Estate",Toronto,Bradshaw & Mancherjee,M1T 1V5,5.0,ON
"8440 W Lake Mead Blvd, Ste 203",bWDBUSY4rFfyuwFor8cpeA,"Lawyers, Professional Services, Wills, Trusts, & Probates, Business Law, Estate Planning Law, Employment Law",Las Vegas,Law Office of Mary Chapman,89128,2.0,NV
"3027 E Warm Springs Rd, Ste 400",QEo_fzFScbNkt2s5YWiIFw,"Professional Services, Lawyers, Estate Planning Law",Las Vegas,Sundvick Legacy Center,89120,3.5,NV
"4000 S Eastern Ave Ste 200, Ste 200",unKlY4oQJk2sNrbvZXtk6A,"Real Estate Law, Professional Services, Lawyers, Bankruptcy Law, Estate Planning Law",Las Vegas,Law Offices of Randolph H Goldberg,89119,3.5,NV
"1455 E Tropicana Ave, Ste 750",Tfdbdi_gkbJkgFaOqWdw8g,"Personal Injury Law, Lawyers, Professional Services, Real Estate Law, Business Law",Las Vegas,Brandon L Phillips Attorney at Law,89119,3.0,NV
"63 E Main St, Ste 501",-wY_r9cud8uU2CAAYLmnIg,"Professional Services, Lawyers, Divorce & Family Law, Estate Planning Law, Employment Law, Personal Injury Law, Criminal Defense Law",Mesa,Rowley Chapman & Barney,85201,4.0,AZ
"7455 Arroyo Crossing Pkwy, Ste 220",OAJPzS_LPfxzvyi2N77i9w,"Bankruptcy Law, Wills, Trusts, & Probates, Divorce & Family Law, Estate Planning Law, Professional Services, Lawyers",Las Vegas,JK Nelson Law,89113,5.0,NV
"2601 E Thomas Rd, Ste 235",WzHvNjObVl3LqbG10JouIg,"Real Estate Law, Criminal Defense Law, Business Law, Personal Injury Law, Professional Services, DUI Law, Lawyers",Phoenix,"Cronus Law, PLLC",85016,3.5,AZ
"10000 W Charleston Blvd, Ste 100",dllOo-VaUY6JlqkYq_L-MQ,"Wills, Trusts, & Probates, Business Law, Divorce & Family Law, Estate Planning Law, Lawyers, Tax Law, Professional Services",Las Vegas,Law Firm of Jeffrey Burr,89135,4.0,NV
"7881 W Charleston Blvd, Ste 165",gXbnZhu_bspTGGbyFEAqlQ,"Lawyers, Estate Planning Law, Professional Services, Divorce & Family Law, General Litigation",Las Vegas,The Law Office of Sean D Lyttle,89117,5.0,NV
"2701 W Queen Creek Rd, Ste 3",IIdwLfMFIPKgkJUSm47mJw,"Lawyers, Professional Services, Wills, Trusts, & Probates, Estate Planning Law, Divorce & Family Law",Chandler,Keystone Law Firm,85248,3.5,AZ
"8090 N 85th Way, Ste 100",kSNSYw3ewEmeP_Py1k-dzA,"Lawyers, Estate Planning Law, Professional Services",Scottsdale,"William S Graves, PC",85258,3.5,AZ
"14300 N Northsight Blvd, Ste 129",L6omP1KmO9q_QP8VDVesYw,"Professional Services, Lawyers, Bankruptcy Law, Real Estate Law, Divorce & Family Law",Scottsdale,Canterbury Law Group,85260,4.0,AZ
"10655 Park Run Dr, Ste 130",C6FmC_gV1Xj01EquZhyH2A,"Estate Planning Law, Lawyers, Professional Services, Divorce & Family Law",Las Vegas,"Cooper Coons, Ltd.",89144,5.0,NV
"6767 W Tropicana Ave, Ste 200",FTgr7u4G27hiGzC0RG1anA,"Lawyers, Real Estate Law, Wills, Trusts, & Probates, Estate Planning Law, Professional Services, Bankruptcy Law",Las Vegas,Hurtik Law And Associates,89103,4.0,NV
"4900 N Scottsdale Rd, Ste 1500",MbHAT7X7A3eChSiKJ7kpGg,"Lawyers, Professional Services, Estate Planning Law, Divorce & Family Law, Mediators",Scottsdale,Hildebrand Law,85251,2.0,AZ
2650 E Southern Ave,HNqx9qb0lYMa4-Wxh9Jmtw,"Business Law, Tenant and Eviction Law, Lawyers, General Litigation, Professional Services, Real Estate Law, Estate Planning Law",Mesa,The Law Offices of Mark A Tucker,85204,4.0,AZ
"10120 S Eastern Ave, Ste 207",jE_vBvX_90XbPE-zR3HBEg,"Real Estate Law, Business Law, Lawyers, Bankruptcy Law, Estate Planning Law, Professional Services",Henderson,Christopher Legal,89052,5.0,NV
"80 E Rio Salado Pkwy, Ste 401, Davis Miles McGuire Gardner, PLLC",ZwPbVPG-PdHCu87xBJerFg,"Lawyers, Estate Planning Law, Professional Services, Real Estate Law",Tempe,John W Skabelund,85281,5.0,AZ
"400 S Tryon St, Ste 950",09T-C1mxwtVLnpf7wkrtbw,"Lawyers, Divorce & Family Law, Real Estate Law, Professional Services, Estate Planning Law, Wills, Trusts, & Probates, Mediators",Charlotte,McIlveen Family Law Firm,28202,5.0,NC
7309 Flint Road SE,OVCGvGRCu9JNFsPHNMjyrA,"Real Estate Law, Immigration Law, Divorce & Family Law, Lawyers, Professional Services",Calgary,Kahane Law Office Barristers & Solicitors,T2H 1G3,3.5,AB
"4020 N 20th St, Ste 217",GvMDR-ORMq--lzGZz87Osg,"Real Estate Law, Lawyers, Legal Services, Bankruptcy Law, Tax Law, Business Law, Professional Services",Phoenix,Denny & Boulton,85016,4.5,AZ
"5225 N Central Ave, Ste 109",ldTRWbBJDaUzSpMrYf5TYw,"Professional Services, Personal Injury Law, Lawyers, Estate Planning Law",Phoenix,Law Offices of David M Morrison,85012,4.5,AZ
"5799 Yonge St, Unit 803",zeZDWjdu4BYPUsmoibflgQ,"Notaries, Local Services, Real Estate Law, Lawyers, Professional Services",North York,Stephen H Shub Professional Corporation,M2M 3V3,1.5,ON
"2 E Mifflin St, Ste 200",GAPcAbp8O9WU7C8oafg1rA,"Divorce & Family Law, Personal Injury Law, Employment Law, Business Law, Professional Services, Estate Planning Law, Lawyers, Criminal Defense Law",Madison,Axley Attorneys,53703,1.0,WI
"7251 W Lake Mead Blvd, Ste 300",arCeGBnhdO-cvPh7up_UYQ,"Estate Planning Law, Professional Services, Divorce & Family Law, Lawyers, Bankruptcy Law",Las Vegas,Discount Las Vegas Lawyer,89128,4.0,NV
39 Oneida Crescent,KNE803AH9DItB5Fmw8sY4Q,"Real Estate, General Litigation, Real Estate Services, Local Services, Home Services, Notaries, Lawyers, Real Estate Law, Professional Services, Legal Services",Richmond Hill,Notary Public and Commissioner of Oaths,L4B 4T9,5.0,ON
PH9 330 Highway 7 E,eETNHbePcdICuK3juORqng,"Home Services, Real Estate Law, Divorce & Family Law, Notaries, Real Estate Services, Local Services, Real Estate, Bankruptcy Law, Lawyers, General Litigation, Professional Services",Richmond Hill,Hosseini Law Firm,L4B 3P8,1.0,ON
"10777 W Twain Ave, Ste 300",ZNDkx6TMMa3GhXTwIxD2iw,"DUI Law, Bankruptcy Law, Real Estate Law, Criminal Defense Law, Estate Planning Law, Contract Law, Professional Services, Workers Compensation Law, Divorce & Family Law, Lawyers",Las Vegas,Black & LoBello Attorneys at Law,89135,4.0,NV
"50 Peel Centre Drive, Suite 203",NGD0EbFXgxO8aBE-I3V8ZQ,"Local Services, Estate Planning Law, Real Estate Law, Lawyers, Notaries, Professional Services",Brampton,David Cohen,L6T 0E2,2.5,ON
"5602 - 4th Street NW, Unit 8",aeBxmhNVO_B-q3Crw6CV1w,"Lawyers, Professional Services, Real Estate Law",Calgary,Gottlieb & Tillier Law Office,T2K 1B3,1.0,AB
"20325 N 51st Ave, Ste 176",khgwZC-8xpe0Z93g00gunw,"Tax Law, Business Law, Estate Planning Law, Professional Services, Wills, Trusts, & Probates, Patent Law, Lawyers",Glendale,Hirschi Law,85308,4.5,AZ
209 - 10836 24th Street SE,4Mjx19JQES_hFG1UaWDrYQ,"Divorce & Family Law, Real Estate Law, Lawyers, Business Law, Professional Services",Calgary,Masuch Albert,T2Z 4C9,1.0,AB
"871 Coronado Center Dr, Ste 200",U26pp1q7AAEzV4qiWXnyTQ,"Divorce & Family Law, Lawyers, Wills, Trusts, & Probates, Professional Services, Estate Planning Law",Henderson,Goulet Law,89052,5.0,NV
"199 N Arroyo Grande Blvd, Ste 200",ncUm6eMhC2KKy_kr3H2FVw,"Bankruptcy Law, Real Estate Law, Professional Services, Lawyers",Henderson,Law Office of Hayes & Welsh,89074,3.5,NV
"150 N Durango Dr, Ste 230",Br-egAN-3IeTRNGB-ZVuVQ,"General Litigation, Professional Services, Wills, Trusts, & Probates, Divorce & Family Law, Estate Planning Law, Lawyers, Business Law",Las Vegas,Escobar & Associates Law Firm,89145,4.5,NV
"10101 W Bell Rd, Ste 101",cg869RMZw96uCL9CUjcnAg,"Professional Services, Lawyers, Estate Planning Law, General Litigation",Sun City,Gorman & Jones,85351,1.0,AZ
9035 E Mountain View Rd,aw9ceCRoSzkYqXBwp3-WQQ,"Investing, Tax Services, Financial Services, Wills, Trusts, & Probates, Lawyers, Financial Advising, Professional Services, Estate Planning Law",Scottsdale,Grand Canyon Planning Associates,85258,3.5,AZ
1401 N Green Valley Pkwy,zoKoQF2lSXYxiQlLdly_NA,"Professional Services, Lawyers, Real Estate Law, Estate Planning Law",Henderson,Lawyers Title of Nevada,89074,1.0,NV
"10161 Park Run Dr, Ste 150",-DjKNypuO9ZthIuKbg718Q,"Real Estate Law, Wills, Trusts, & Probates, Professional Services, Estate Planning Law, Legal Services, General Litigation, Business Law, Personal Injury Law, Lawyers, Divorce & Family Law",Las Vegas,"Vaksman Khalfin, PC",89145,5.0,NV
"7227 N 16th St, Ste 118",MZyovtEiw1pJe00dxm6oRA,"Bankruptcy Law, Printing Services, Professional Services, Health & Medical, Local Services, Divorce & Family Law, Estate Planning Law, Lawyers, Legal Services, Personal Injury Law",Phoenix,Legal Resource Center,85020,3.5,AZ
"5010 E Shea Blvd, Ste 205",149rGuvIq4Zm4nUylf4GZw,"Wills, Trusts, & Probates, Professional Services, Lawyers, Personal Injury Law, Estate Planning Law",Scottsdale,The Law Office of Libby Banks,85254,5.0,AZ
"14555 N Scottsdale Rd, Ste 320",25D60KVvKrHkCpKI7ZxUsQ,"Business Law, Lawyers, Personal Injury Law, Professional Services, Real Estate Law, General Litigation, DUI Law",Scottsdale,Thomas Law PLLC,85254,5.0,AZ
"702 E Osborn Rd, Ste 200",QtkgjYAkXHhPKObhmq44jA,"Professional Services, Lawyers, Divorce & Family Law, Bankruptcy Law, Real Estate Law, Employment Law, Personal Injury Law",Phoenix,"Burch & Cracchiolo, P.A.",85014,4.0,AZ
503 - 110 Wellesley Street E,KHe-pIBItCyngCDPoux0NA,"Estate Planning Law, Wills, Trusts, & Probates, Professional Services, Divorce & Family Law, Lawyers, Real Estate Law",Toronto,Colin Lyle Family Lawyer,M4Y 1J1,1.0,ON
"1166 E Warner Rd, Ste 101",yJzed89fX2QiIR3Ja9sYxg,"Professional Services, Estate Planning Law, Wills, Trusts, & Probates, Lawyers",Gilbert,Steven M Jackson Law Group,85296,5.0,AZ
"7255 E Hampton Ave, Bldg 4, Ste 127",gou1CWjWCS_X6LwlNGgY3Q,"Professional Services, Personal Injury Law, Lawyers, Employment Law, Divorce & Family Law, Bankruptcy Law, Estate Planning Law, Wills, Trusts, & Probates, Social Security Law",Mesa,Atchley Law Firm - Bankruptcy Attorney,85209,5.0,AZ
7322 E Thomas Rd,tB_UoqV2LVP9IM9eHo6Cng,"Legal Services, General Litigation, DUI Law, Divorce & Family Law, Lawyers, Professional Services, Criminal Defense Law, Estate Planning Law",Scottsdale,"Owens & Perkins, Attorneys at Law",85251,3.5,AZ
"6320 E Thomas Rd, Ste 302",GNfFziPrUAlibonlaYBBew,"Business Law, Real Estate Law, Professional Services, Wills, Trusts, & Probates, Estate Planning Law, Lawyers",Scottsdale,Harold J Bliss Jr Attorney at Law,85251,5.0,AZ
1237 S Val Vista Dr,H2wVgHlFIQHbJYWtB0aLyg,"Lawyers, Real Estate Law, Estate Planning Law, Professional Services, Business Law",Mesa,Winsor Law Group,85204,5.0,AZ
346 E Palm Ln,i6G3zsEJIqpGktMWyffXjw,"Real Estate Law, Financial Services, Lawyers, Professional Services, Insurance, Business Law, Estate Planning Law, Wills, Trusts, & Probates, Divorce & Family Law",Phoenix,"Forakis Law Firm, PLC",85004,5.0,AZ
"10155 W Twain Ave, Ste 100",jCAOrAZjKpfhiT-nV7JNqg,"Estate Planning Law, Tax Law, General Litigation, Lawyers, Real Estate Law, Wills, Trusts, & Probates, Professional Services, Personal Injury Law",Las Vegas,Goodsell & Olsen,89147,2.5,NV
1070 Major Mackenzie Drive E,efS8c59z4TUZDAUeBcpUfw,"Legal Services, Real Estate Law, Lawyers, Local Services, Notaries, Professional Services",Richmond Hill,Axess Law,L4S 1P3,3.5,ON
"16427 N Scottsdale Rd, Ste 300",7AC0apYjXXNpauPrUvZAgg,"Real Estate Law, Divorce & Family Law, Lawyers, Business Law, Estate Planning Law, Employment Law, Professional Services, Personal Injury Law",Scottsdale,"Hymson Goldstein & Pantiliat, PLLC",85254,3.5,AZ
"400 E Van Buren St, Ste 1900",IZB4TikyAr86J9dPTwQF4w,"Public Services & Government, Real Estate Law, Legal Services, Professional Services, Bankruptcy Law, Criminal Defense Law, Employment Law, Lawyers",Phoenix,Snell & Wilmer,85004,1.0,AZ
"8716 Spanish Ridge Ave, Ste 115",qJKgaN3D1lgRkO8qGLoUHA,"Professional Services, Real Estate Law, Personal Injury Law, Medical Law, Business Law, Lawyers, General Litigation",Las Vegas,Ayon Law,89148,4.0,NV
72 Berkeley Street,mb6e5-4s6YIaQAlbPHuWyQ,"Home Services, Lawyers, Real Estate Services, Professional Services, Real Estate, Real Estate Law",Toronto,Feld Kalia Professional Corporation,M5A 2W7,2.5,ON
"40 N Center St, Ste 200",dIkwnJgYdep2OjxfY1utWQ,"Criminal Defense Law, Personal Injury Law, Lawyers, DUI Law, Estate Planning Law, General Litigation, Professional Services, Bankruptcy Law, Divorce & Family Law",Mesa,JacksonWhite Attorneys at Law,85201,3.5,AZ
"3115 S Price Rd, Ste 111",NTEYcGsRi5RuhoDGUDQUqQ,"Estate Planning Law, Lawyers, Professional Services, Divorce & Family Law, DUI Law, Criminal Defense Law",Chandler,Stewart Law Group,85248,3.5,AZ
"1490 S Price Rd, Ste 301",f0x5Rl66SLsGBWkxjTBXmw,"Tax Law, Business Law, Legal Services, Lawyers, Estate Planning Law, Bankruptcy Law, Professional Services, Real Estate Law",Chandler,Nielsen Law Group,85286,4.5,AZ
"3595 S Town Center Dr, Ste 111",MVpx99bDf_ejKG8Wea4YdA,"Professional Services, Lawyers, Business Law, Estate Planning Law",Las Vegas,Michaud Law Office,89135,5.0,NV
"20525 Center Ridge Rd, Ste 626",zPN8k5J4yJ7OOUD3kSOsXQ,"Employment Law, Divorce & Family Law, Lawyers, Professional Services, Wills, Trusts, & Probates, Bankruptcy Law, Estate Planning Law",Rocky River,Laubacher,44116,1.0,OH
"1760 East Pecos Rd, Ste 332",aBmofmtM0yWJT_-fjPu0Hw,"Wills, Trusts, & Probates, Criminal Defense Law, Estate Planning Law, Lawyers, Professional Services, Divorce & Family Law, DUI Law",Gilbert,Oliverson & Huss Law PLLC - Your Arizona Legal Team,85295,3.5,AZ
"2001 East Campbell Ave, Ste 203",wEuj893iaOZBciHHaxE4sA,"Lawyers, Professional Services, Legal Services, Wills, Trusts, & Probates, Estate Planning Law, Elder Law",Phoenix,"Emily R Taylor, Attorney",85016,5.0,AZ
"2600 Paseo Verde Pkwy, Ste 200, Jeffrey L Burr Estate Planning Probate Attorneys",XRtWxLQG4rt1UXhD9E8g8A,"Wills, Trusts, & Probates, Tax Law, General Litigation, Professional Services, Estate Planning Law, Lawyers, Business Law",Henderson,Jeffrey L Burr,89074,4.0,NV
"1152 E Greenway St, Ste 3",xY0nJz981I_ZPbHC3j0KwQ,"Business Law, Divorce & Family Law, Bankruptcy Law, Wills, Trusts, & Probates, Legal Services, Lawyers, Professional Services, Estate Planning Law",Mesa,Dynasty Legal Documents,85203,5.0,AZ
"1212 E Osbord Rd, Ste 109",k92sBeLNsJRULNTcyCb8jA,"Real Estate Law, Bankruptcy Law, Professional Services, Lawyers, Divorce & Family Law, Health & Medical, Doctors, Business Law, Estate Planning Law, Family Practice, Criminal Defense Law",Phoenix,Dean W O'Connor Attorney At Law,85014,3.5,AZ
15249 N 99th Ave,dKNohFodgYO2BZWXlw16gA,"Personal Injury Law, Divorce & Family Law, Lawyers, Estate Planning Law, Professional Services, General Litigation, Criminal Defense Law, Business Law, Real Estate Law",Sun City,"Mushkatel, Robbins & Becker",85351,2.5,AZ
"852 Gold Hill Rd, Ste 201",DaNmJp8_CsO2XRt_j5PzDg,"DUI Law, Lawyers, Professional Services, Estate Planning Law, Business Law, Wills, Trusts, & Probates",Fort Mill,Nosal & Jeter,29708,4.5,SC
"700 E Baseline Rd, Ste C3",dXWRvFWkie_9QFo4NnnFbA,"Estate Planning Law, Financial Services, Lawyers, Bankruptcy Law, Professional Services, Debt Relief Services",Tempe,Arizona Credit Law Group,85283,4.0,AZ
"3225 McLeod Dr, Ste 100",NK-4b3WvDQBr0R98IWZasA,"Financial Services, Professional Services, Business Consulting, Lawyers, General Litigation, Business Law, Accountants, Tax Services, Real Estate Law, Bookkeepers",Las Vegas,Anderson Business Advisors,89121,5.0,NV
"16421 N Tatum Blvd, Ste 207",adWtEDSd5KM06pdz2_BSAA,"Lawyers, Estate Planning Law, General Litigation, Professional Services, Wills, Trusts, & Probates",Phoenix,McDonald Warner,85032,5.0,AZ
"4425 N 24th St, Ste 225",vcX6p12cUL2WJTcd1f39bg,"Lawyers, Real Estate Law, Personal Injury Law, Professional Services",Phoenix,Southwest Injury Law,85016,5.0,AZ
"1070 W Horizon Ridge Pkwy, Ste 100",l40n_LkJgRyzzMFqcvAVNg,"Estate Planning Law, Divorce & Family Law, Criminal Defense Law, Professional Services, Wills, Trusts, & Probates, Lawyers",Henderson,Throne & Hauser,89012,3.5,NV
11509 Lorain Rd,_73OK2Zv7CaaSKIoD5Nz7A,"Personal Injury Law, Criminal Defense Law, Lawyers, Real Estate Law, Business Law, Professional Services",Cleveland,Norman & Tayeh,44111,5.0,OH
15425 S 40th Pl,SVy9qqmNwNLtuRrk4WVHFA,"Estate Planning Law, Wills, Trusts, & Probates, Lawyers, Professional Services",Phoenix,Four Peaks Planning,85044,4.5,AZ
500 Copper Creek Drive,Sqh9QBgUjLaSOLhSrrMNSw,"Estate Planning Law, Personal Injury Law, Divorce & Family Law, Lawyers, Home Services, Notaries, Real Estate, Real Estate Law, Professional Services, Local Services",Markham,Axess Law,L6B 0S1,1.0,ON
5940 S Rainbow Blvd,NnLOlAlFp5NvjnwP0T6Dcg,"Bankruptcy Law, Lawyers, Personal Injury Law, Professional Services, Estate Planning Law, Real Estate Law, Divorce & Family Law",Las Vegas,Devine Law Firm,89118,4.0,NV
"2799 E Tropicana Ave, Ste H",RvygcPI_cVQURQPqfLCCNA,"Professional Services, Local Services, Notaries, Lawyers, Divorce & Family Law, Legal Services, Estate Planning Law","Las Vegas,",Legal Forms Nevada,89121,4.0,NV
"2451 S Buffalo Dr, Ste 100",XB8s1-9MyiBta7IcwUjN5g,"Adult Education, Wills, Trusts, & Probates, Professional Services, Divorce & Family Law, Education, Estate Planning Law, Lawyers",Las Vegas,Law Offices of Gary L Fales & Associates,89117,2.5,NV
"11240 N Tatum Blvd, Ste 110",7pjlcize2W62P28XWDr9NQ,"Lawyers, Professional Services, Personal Injury Law, Bankruptcy Law, Divorce & Family Law, Estate Planning Law, Wills, Trusts, & Probates",Phoenix,Loose Law Group,85028,4.5,AZ
"1757 E Baseline Rd, Ste 118",jwy8e-QOVEz6mHDACkGL9w,"Insurance, Investing, Professional Services, Legal Services, Financial Advising, Accountants, Tax Services, Wills, Trusts, & Probates, Lawyers, Estate Planning Law, Financial Services",Gilbert,Wealth Guardian Group,85233,5.0,AZ
,p_wf4h0KuxDlCmNV-n1nRw,"Funeral Services & Cemeteries, Antiques, Wills, Trusts, & Probates, Estate Liquidation, Professional Services, Home Services, Lawyers, Estate Planning Law, Real Estate, Local Services, Shopping, Auction Houses",Phoenix,Blue Leaf Estate Auctions,85282,3.5,AZ
1322 5th Ave,RSAit8Yods_DpyQYyvHjmg,"Divorce & Family Law, Professional Services, Bankruptcy Law, Estate Planning Law, General Litigation, Lawyers, Employment Law",Coraopolis,Law Offices of Max C. Feldman,15108,5.0,PA
"40 E Horizon Ridge Pkwy, Ste 101",5Vdn2nweL2nMusPDZAR8rg,"Real Estate Services, Lawyers, Home Services, Property Management, Real Estate Agents, Real Estate, Professional Services, Real Estate Law, Commercial Real Estate",Henderson,Nevada Desert Realty & Property Management,89002,5.0,NV
"3017 W Charleston Blvd, Ste 54",t0q28iYHRHuEaYHwlk0alg,"Criminal Defense Law, Estate Planning Law, Professional Services, Legal Services, Lawyers, Wills, Trusts, & Probates, Divorce & Family Law",Las Vegas,Accolade Law,89102,5.0,NV
,Zdl-pmteQRZv9FLYWCkqPg,"Professional Services, Tenant and Eviction Law, Legal Services, Real Estate Law, Lawyers, Real Estate Services, Real Estate, Home Services",Las Vegas,Vegas Evictions,89193,5.0,NV
1015 Bloor Street W,voOR2o9ULNynDKh2Lve8Cw,"Divorce & Family Law, Lawyers, Business Law, Immigration Law, Real Estate Law, Notaries, Criminal Defense Law, Professional Services, Local Services",Toronto,Costa Law Firm,M6H 1M1,3.5,ON
"2500 S Power Rd, Ste114",wOF1wFytMH8p8uBOcgLLAA,"Estate Planning Law, Professional Services, Lawyers, Wills, Trusts, & Probates",Mesa,Hough Law Offices,85209,4.0,AZ
508 East Blvd,gnt1hLT7RBdXLTWwThs53Q,"Divorce & Family Law, Lawyers, Wills, Trusts, & Probates, Professional Services, Estate Planning Law",Charlotte,Miller Bowles Law,28203,3.5,NC
"84 Rue Notre-Dame O., Suite 200",4L8KyWp2SUHhUVXAUg9M1A,"Legal Services, Lawyers, Professional Services, Divorce & Family Law, DUI Law, Criminal Defense Law, Real Estate Law",Montreal,S. Zalman Haouzi,H2Y 1S6,5.0,QC
"1108 E Greenway St, Ste 1",pJqJMxiqEoA3u3o69CfG3Q,"General Litigation, Lawyers, Professional Services, Business Law, Divorce & Family Law, Real Estate Law",Mesa,McKindles Law Firm,85203,4.0,AZ
"8988 W Cheyenne Ave, Ste 150",fk6hj7MXOYHXZlHEbuAO-Q,"Lawyers, Professional Services, Business Law, Estate Planning Law, Real Estate Law",Las Vegas,Borg Law Group,89129,5.0,NV
"Walmart, 300 Borough Drive",eS6eu0zezVYYXykNG-92Kw,"Legal Services, Lawyers, Real Estate Services, Home Services, Professional Services, Real Estate, Notaries, Divorce & Family Law, Real Estate Law, Personal Injury Law, Local Services, Estate Planning Law",Scarborough,Axess Law,M1P 4P5,4.5,ON
8275 S Eastern Ave,J0NUItCouPBMVKW7zlRWHw,"Lawyers, Wills, Trusts, & Probates, Estate Planning Law, Professional Services",Las Vegas,Sundvick Lizette B ESQ,89123,2.5,NV
6230 W Desert Inn Rd,-ElDqujEn1u64ynQr0bX7g,"Lawyers, Real Estate Law, Professional Services, Divorce & Family Law",Las Vegas,McFarling Law Group,89146,4.5,NV
"64 N Pecos Rd, Ste 200",WPhDR41v0EJOIKpFuSm75w,"Divorce & Family Law, Lawyers, Professional Services, Wills, Trusts, & Probates, Estate Planning Law",Henderson,Rachel Jacobson,89074,5.0,NV
"3900 E Camelback Rd, Ste 250",_2Ypabws60bwV-KV3naw7Q,"Mortgage Brokers, Real Estate Services, Real Estate, Home Services, Lawyers, Real Estate Law, Professional Services",Phoenix,Grand Canyon Title Agency,85018,2.0,AZ
"7254 E Southern Ave, Ste 121",2dD7CO5KLel52ncTKy6d7Q,"Professional Services, Lawyers, Estate Planning Law, Wills, Trusts, & Probates, Business Law",Mesa,Dana Law Group - Mesa,85209,4.5,AZ
"1747 E Morten Ave, Ste 110",srQM811bJCkN_YCP-8vSLg,"Mediators, Lawyers, Professional Services, Estate Planning Law, Divorce & Family Law, Wills, Trusts, & Probates",Phoenix,Sirlin law Firm,85020,5.0,AZ
3100 W Ray Rd,agH9eHYYbl5Zj7WiCZjZBQ,"Lawyers, Divorce & Family Law, Estate Planning Law, Professional Services, Business Law, Mediators",Chandler,Donaldson Stewart,85226,3.0,AZ
"7881 W Charleston Blvd, Ste 165",z7p6v6crOqHQ7lhyr2MOtA,"Personal Injury Law, Professional Services, Lawyers, Estate Planning Law, Real Estate Law",Las Vegas,Yan Kenyon,89117,5.0,NV
"10120 S Eastern Ave, Ste 140",YQ33rdPmyHlHjmJ15iYkpg,"Legal Services, Professional Services, Real Estate Law, Lawyers, Divorce & Family Law",Henderson,Nevada Family Law Group,89052,5.0,NV
2101 Richmond Rd,WJ_JElUxUcSRJG4lpst0mQ,"Lawyers, Professional Services, Divorce & Family Law, Estate Planning Law",Beachwood,Larry Madorsky & Assoc Lpa,44122,3.5,OH
"319 S Sharon Amity Rd, Ste 230",5CGu70ennvKa6HMtQ-kn5g,"Divorce & Family Law, Professional Services, Lawyers, Wills, Trusts, & Probates, Estate Planning Law",Charlotte,Krusch Divorce Resolution,28211,3.5,NC
"15035 N 73rd St, Ste B",01JrEo51_U2Gz2hsvZOksg,"Lawyers, Professional Services, Business Law, Contract Law, Wills, Trusts, & Probates, General Litigation, Estate Planning Law",Scottsdale,Neal Law Firm,85260,5.0,AZ
"13925 Ballantyne Corporate Pl, Ste 200",LWD79u2P8Laurv615POSTg,"Business Law, Real Estate Law, Estate Planning Law, Professional Services, Lawyers",Charlotte,"Gorman & Associates, PA",28277,5.0,NC
"12725 W Indian School Rd, Ste E101",9hd5YXcCFcH6gWQ-8RzHkA,"Legal Services, Lawyers, Professional Services, Real Estate Law",Avondale,Casler Law Office,85392,3.0,AZ
"1980 Festival Plaza Dr, Ste 300",S5sFDe6_S7UCPnsVxCU1DQ,"Real Estate Law, Lawyers, Professional Services, Personal Injury Law",Las Vegas,O'Grady Law Group,89135,5.0,NV
"111 W Monroe St, Ste 1400",aIMWLToUusGChKru0DHT4w,"Personal Injury Law, Professional Services, Lawyers, DUI Law, Immigration Law, Criminal Defense Law, Wills, Trusts, & Probates, Estate Planning Law",Phoenix,Kanu & Associates,85003,2.0,AZ
"2450 Saint Rose Pkwy, Ste 120",4Bph02QEmYGIm2DTG71jig,"Business Law, Real Estate Law, Lawyers, General Litigation, Professional Services",Henderson,Law Offices of P. Sterling Kerr,89074,2.0,NV
711 S 9th St,hV4QbR8PWp_H5FW9QdwldA,"Divorce & Family Law, Lawyers, Professional Services, Real Estate Law, Employment Law, Immigration Law, Bankruptcy Law, Personal Injury Law",Las Vegas,Lizada Law Firm,89101,4.5,NV
"4455 E Camelback Rd, Ste C250",bMKmisKCFzPvqlamqyPRdQ,"Personal Injury Law, General Litigation, DUI Law, Real Estate Law, Professional Services, Lawyers, Criminal Defense Law",Phoenix,Tait & Hall Law Firm,85018,5.0,AZ
3008 N 44th St,jhHhoZfO62QhFKJ02Y9mbA,"Lawyers, Professional Services, Real Estate Law, Bankruptcy Law",Phoenix,Law Offices of Scott M Clark,85018,4.0,AZ
"7881 W Charleston Blvd, Ste 220",WcRitelbM2N7mRDyAGdDzA,"Business Law, Real Estate Law, Professional Services, Lawyers, Bankruptcy Law",Las Vegas,David J Winterton & Associates,89117,3.0,NV
"15425 S 40th Pl, Ste 5",32MCxjAV0jwcD1n_-BQ_SA,"General Litigation, Professional Services, Estate Planning Law, Lawyers, Wills, Trusts, & Probates, Personal Injury Law, Criminal Defense Law, Divorce & Family Law",Phoenix,"Leavell & Rivera, PLC",85044,5.0,AZ
2037 Franklin Ave,ECV_8nrylyVRnnyqwzOrCw,"Lawyers, Bankruptcy Law, Professional Services, Real Estate Law, Legal Services, Personal Injury Law",Las Vegas,A Fresh Start Law,89104,4.5,NV
"3030 N 3rd St, Ste 200",yFBhINkr3UBwALHImnxo6g,"Professional Services, Wills, Trusts, & Probates, Lawyers, Estate Planning Law",Phoenix,"Michael J. Fuller, Attorney at Law",85012,5.0,AZ
"2250 E Germann Rd, Ste 11",WyMdp2FO4ZmG6m8h6BEYzA,"Real Estate Law, Professional Services, Lawyers, Bankruptcy Law",Chandler,"Neeley Law Firm, PLC",85286,5.0,AZ
"401 W Baseline Rd, Ste 207",vPDy4AwYyl9WUX_G3V6WgQ,"Personal Injury Law, Business Law, General Litigation, Real Estate Law, Professional Services, Lawyers, Estate Planning Law",Tempe,"The Deneau Law Firm, PLLC",85283,3.5,AZ
"1057 Whitney Ranch Dr, Ste 350",5QNoAr8OJhOWTPX2h-00jQ,"Divorce & Family Law, Lawyers, Professional Services, General Litigation, Criminal Defense Law, Estate Planning Law, Personal Injury Law",Henderson,The Jacks Law Group,89014,4.5,NV
"1850 N Central Ave, Ste 1800",JNZb6YC4wagWil_wAAs1ug,"Lawyers, Estate Planning Law, Wills, Trusts, & Probates, Elder Care Planning, Business Law, Real Estate Law, Local Services, Professional Services, Tax Law",Phoenix,Frazer Ryan Goldberg & Arnold,85004,3.5,AZ
"5556 S Fort Apache Rd, Ste 100",oI--vAw7Yu4oIBZTk_8FnQ,"Professional Services, General Litigation, Lawyers, Real Estate Law, Workers Compensation Law",Las Vegas,Messner Reeves,89148,3.0,NV
"1540 W Warm Springs Rd, Ste 100",R2oGMEyh0TUtEd7MYukINA,"Estate Planning Law, Business Law, Legal Services, Lawyers, Professional Services, Tax Law",Henderson,Dixon Law Group,89014,5.0,NV
"10130 Perimeter Pkwy, Ste 400",5fHZVoCij2D44wRQyZzEaA,"Lawyers, Real Estate Law, Professional Services",Charlotte,Shapiro & Ingle LLP,28216,2.5,NC
"2627 North 3rd. St, Ste 104",8bUPOe1gUNbisMBHJ0yXWA,"Divorce & Family Law, Professional Services, Lawyers, Bankruptcy Law, Wills, Trusts, & Probates, Estate Planning Law",Phoenix,"Yvonne Yragui, PC",85004,4.0,AZ
"3130 N 3rd Ave, Ste 200",d22K9b3VX6_T7ekTu3Lgpg,"Divorce & Family Law, Personal Injury Law, Lawyers, Estate Planning Law, Professional Services",Phoenix,Debra Palomino,85013,3.5,AZ
"6053 S Fort Apache Rd, Ste 120",2-9mbNkNPvaZf5HICHLgng,"Professional Services, Divorce & Family Law, Real Estate Law, Lawyers, Business Law",Las Vegas,Pintar Albiston LLP,89148,4.0,NV
2425 W Horizon Ridge Pkwy,BiRO5-IsJ5ev0KLNo663WA,"Lawyers, Professional Services, Wills, Trusts, & Probates, Estate Planning Law",Henderson,Cassady Law Offices,89052,4.0,NV
"25 Adelaide Street E, Suite 900",ueSZ4vtjh3-JGqUBpdQpyg,"Lawyers, Professional Services, Real Estate Law",Toronto,"Baldwin Sennecke Halman, LLP",M5C 1T6,4.0,ON
"4020 N 20th St, Ste 100",XbKWLeDinNrpxgJ0T2PY-Q,"Bankruptcy Law, Business Law, DUI Law, Estate Planning Law, Personal Injury Law, Professional Services, Lawyers, Criminal Defense Law",Phoenix,Jenkins Law Firm,85016,3.5,AZ
71 Main Street S,aipGVzw4Hmq3sXXce9ZXTA,"Criminal Defense Law, Lawyers, Professional Services, Divorce & Family Law, Real Estate Law, Business Law",Newmarket,Epstein & Associates,L3Y 3Y5,3.5,ON
"823 Las Vegas Blvd S, Ste 280",Xu9eH13hGgsV1uT4o3-Fng,"Business Law, Lawyers, Estate Planning Law, Real Estate Law, Bankruptcy Law, Professional Services, General Litigation",Las Vegas,Reynolds & Associates,89101,5.0,NV
"2025 North Third St, Ste B290",60a9WCKS5-pti4ewUMriFw,"Lawyers, Professional Services, Wills, Trusts, & Probates, Estate Planning Law",Phoenix,"Michael J Tucker, PC",85004,5.0,AZ
"6512 N Decatur Blvd, Ste 130",aFSS0iQ7GaK5kiwTGyZfNQ,"Tax Services, Lawyers, Wills, Trusts, & Probates, Local Services, Professional Services, Legal Services, Estate Planning Law, Financial Services, Accountants, Insurance, Notaries, Divorce & Family Law, Shipping Centers",Las Vegas,Nevada Legal Forms & Postal Services,89131,3.0,NV
612 S 10th St,EAaPxsyECxILGOxTitSn7w,"Professional Services, Employment Law, Lawyers, Personal Injury Law, Criminal Defense Law, Divorce & Family Law, Estate Planning Law",Las Vegas,Leavitt Legal Group,89101,5.0,NV
"4647 N 32nd St, Ste 135",GjtFOzr08DELMgbiW4_WlQ,"Estate Planning Law, Local Flavor, Professional Services, Lawyers, Real Estate Law, Legal Services, Business Law",Phoenix,Kadish & Anthony Law Group,85018,5.0,AZ
"3800 Howard Hughes Pkwy, Ste 1000",G8s7-XBxC1FY25hPnjftQQ,"Lawyers, Real Estate Law, Business Law, Professional Services, Bankruptcy Law, General Litigation, Mediators",Las Vegas,"Jay Young, Attorney",89169,5.0,NV
"9590 E Ironwood Square, Ste 110",uia7gB6D2ICHI7571-hOnw,"General Litigation, IP & Internet Law, Business Law, Real Estate Law, Professional Services, Lawyers",Scottsdale,Davidson Law Group,85258,4.5,AZ
10781 W Twain Ave,ZeFAipPkqMDTGEzeVMqN1A,"Lawyers, Personal Injury Law, Legal Services, Real Estate Law, Professional Services, Divorce & Family Law",Las Vegas,Mortenson & Rafie,89135,5.0,NV
2916 N 7th Ave,xL-S6BfPkeMAe7myPN8EoQ,"Wills, Trusts, & Probates, Employment Law, Divorce & Family Law, Estate Planning Law, Lawyers, Professional Services",Phoenix,Elizabeth A Westby,85013,5.0,AZ
"3877 N 7th St, Ste 230",0fRgMgSf0WrSoGx11pEZPQ,"Professional Services, Estate Planning Law, Lawyers, DUI Law, Bankruptcy Law, Divorce & Family Law, Real Estate Law",Phoenix,Bennett Parker Law,85014,4.5,AZ
"14301 N 87th St, Ste 305",PkF-RJSVMatReKCA0iOrog,"Home Services, Real Estate Law, Real Estate Agents, Divorce & Family Law, Real Estate, Professional Services, Mediators, Contract Law, Lawyers",Scottsdale,Laura B Bramnick Attorney at Law,85260,4.0,AZ
"7656 W Sahara Ave, Ste 110",phQhptefrOnZmS9kmVydqQ,"Personal Injury Law, Criminal Defense Law, Estate Planning Law, Wills, Trusts, & Probates, Lawyers, Professional Services",Las Vegas,Nadine Morton Law,89117,2.5,NV
,HHGlgFOGBPzGF6sFJWnrwA,"Notaries, Local Services, Real Estate Services, Real Estate, Wills, Trusts, & Probates, Estate Planning Law, Lawyers, Home Services, Professional Services",Gilbert,Anderson Mobile Notary Services,85299,5.0,AZ
2301 Palomino Ln,cNs9Wpl1vf1hn6e580aoUQ,"Lawyers, Professional Services, DUI Law, Estate Planning Law, Employment Law, Wills, Trusts, & Probates, Criminal Defense Law, Real Estate Law, Divorce & Family Law, General Litigation, Personal Injury Law",Las Vegas,The Law Offices of Stovall and Associates,89107,4.5,NV
"2520 St Rose Pkwy, Ste 319",EF-9CNwiOSSB_CCoaWHE6w,"Lawyers, Professional Services, Estate Planning Law, Elder Law, Wills, Trusts, & Probates",Henderson,Grant Morris Dodds,89074,4.0,NV
"3101 N Central Ave, Ste 820",WS8QIHUW9EKMn-mrixxZxg,"Professional Services, Business Law, Divorce & Family Law, Legal Services, Estate Planning Law, Wills, Trusts, & Probates, Lawyers",Phoenix,The Law Offices of Jeffrey D Lynch,85012,5.0,AZ
"203 S Water St, Ste 300",gYUw6H0JPfHwSMcX4q3n8g,"Professional Services, Lawyers, General Litigation, Business Law, Estate Planning Law",Henderson,McDonald Law Group,89015,5.0,NV
2305 W Horizon Ridge Pkwy,B7NHFoP1DH9JrpliCHRCDA,"Professional Services, Divorce & Family Law, Wills, Trusts, & Probates, Local Services, Legal Services, Lawyers, Estate Planning Law",Henderson,Affordable DocPrep Services,89052,4.0,NV
"1384 Old Freeport Rd, Ste 3B",QFzNhlm2fpX_Eqm-uczLzg,"Professional Services, DUI Law, Business Law, Real Estate Law, Divorce & Family Law, Lawyers, Criminal Defense Law",Pittsburgh,Allegheny Attorneys at Law,15238,2.0,PA
"707 Grant St, Ste 125",bU0ngjsWeMBrcWe-I1TODQ,"Professional Services, Personal Injury Law, Lawyers, General Litigation, Workers Compensation Law, Real Estate Law, Social Security Law",Pittsburgh,Robert Peirce & Associates,15219,2.5,PA
"222 Boulevard Saint-Laurent, Suite 202",tgw-78xz6RCA3MULf-xCVg,"Professional Services, Estate Planning Law, Real Estate Law, Local Services, Lawyers, Notaries, Business Law",Montral,David Toledano,H2Y 2Y3,1.0,QC
"1810 E Sahara Ave, Ste 120",Vy9yZjLxMr0cxERNC5TAjg,"General Litigation, Professional Services, Business Law, Real Estate Law, Lawyers",Las Vegas,"Law Office of Andrew H Pastwick, LLC",89104,5.0,NV
"366 N Gilbert Rd, Ste 202",OMR9nxByWV3WP50z5yF_pg,"Business Law, Lawyers, Personal Injury Law, Estate Planning Law, Professional Services, Wills, Trusts, & Probates",Gilbert,Browne Law Group,85234,5.0,AZ
"2450 S Gilbert Rd, Ste 200",PXAzSkv5MfQ-u8QRd_wwYw,"Bankruptcy Law, Lawyers, Professional Services, DUI Law, Real Estate Law",Chandler,Brown & Associates,85286,2.5,AZ
20814 N 14th Ave,Lt1rPwuTdOmMQSHx9UHXYw,"Local Services, Estate Planning Law, Notaries, Wills, Trusts, & Probates, Couriers & Delivery Services, Legal Services, Professional Services, Lawyers",Phoenix,Arizona Notary Service,85027,5.0,AZ
"2100 Wharton St, Ste 302",ye3_3aPF-qTf2XlwSnAacQ,"Divorce & Family Law, Wills, Trusts, & Probates, Real Estate, Legal Services, Lawyers, Home Services, Estate Planning Law, Professional Services, Real Estate Services, Real Estate Law",Pittsburgh,American Wills & Estates,15203,4.5,PA
"215 E Warm Springs Rd, Ste 109",3w5mWViDj2224A6POYTcQQ,"Real Estate Agents, Real Estate Law, Real Estate, Lawyers, Professional Services, Real Estate Services, Home Services",Las Vegas,First Full Service Realty,89119,5.0,NV
1130 Wigwam Pkwy,EGKX6GoambHTSEF8LfSoYQ,"Criminal Defense Law, Professional Services, Bankruptcy Law, Lawyers, Estate Planning Law, Wills, Trusts, & Probates, Personal Injury Law",Henderson,Dempsey Roberts & Smith,89074,2.0,NV
"9205 W Russell Rd, Ste 240",0Y18bIw9XLPs5QjeNWEoWQ,"Lawyers, Divorce & Family Law, Personal Injury Law, Professional Services, Criminal Defense Law, Wills, Trusts, & Probates, Estate Planning Law",Las Vegas,Onello Law Group,89148,5.0,NV
"1671 W Horizon Ridge Pkwy, Ste 200",3prPyOIoC5Cm0z7Mjcfd4g,"Professional Services, Bankruptcy Law, Wills, Trusts, & Probates, General Litigation, Lawyers, Estate Planning Law, Personal Injury Law",Henderson,Clear Counsel Law Group,89012,4.0,NV
"8275 S Eastern Ave, Ste 200",ZF3k5JsZyv-faCIgPJQ84A,"Professional Services, Lawyers, Estate Planning Law, Wills, Trusts, & Probates, Business Law",Las Vegas,The Marshall Law Office,89123,5.0,NV
4801 E Independence Blvd,fs5PI8BJ3iG0GGh18zAEBw,"Legal Services, Professional Services, Home Services, Real Estate, Lawyers, Real Estate Law, Criminal Defense Law, Personal Injury Law",Charlotte,Law Office of Algernon Williams,28212,5.0,NC
"5425 E Bell Rd, Ste 104",wqqkx4YlE0G65MkyE37LQQ,"Professional Services, Lawyers, Estate Planning Law, Divorce & Family Law, Wills, Trusts, & Probates",Scottsdale,"Mazza Law, PLC",85254,5.0,AZ
"5020 E Shea Blvd, Ste 100",0gteyijxNgxYRLNGAVyFTw,"Professional Services, Lawyers, Wills, Trusts, & Probates, Estate Planning Law",Scottsdale,Bivens & Associates,85254,4.5,AZ
"55 Eglinton Avenue E, Suite 706",29tgeFlBU-j62sv1hIQ0Hw,"Lawyers, Personal Injury Law, Professional Services, Real Estate Law, General Litigation, Divorce & Family Law",Toronto,Jordan D Sobel,M4P 1G8,5.0,ON
"13034 N Verde River Dr, Ste 104",zmbblJZnfNr16dxGD3fmeQ,"DUI Law, Lawyers, Professional Services, Criminal Defense Law, Estate Planning Law",Fountain Hills,Fountain Hills Law Firm,85268,5.0,AZ
"4808 N 22nd St, Ste 200",5FMe4HfH1y1CwZ8Ox_9I7Q,"Lawyers, Real Estate Law, Divorce & Family Law, Estate Planning Law, Professional Services",Phoenix,Albee Law Firm,85016,5.0,AZ
6260 N Durango Dr,IVI3hsJyeYe9RYVcLKP7zw,"Lawyers, Tax Law, Tax Services, Bankruptcy Law, Real Estate Law, Professional Services, Financial Services",Las Vegas,Randolph Law Firm PC,89149,4.5,NV
22050 Mastick Rd,00-0Yeseo7DzKE0c0ElmXg,"Lawyers, Estate Planning Law, Wills, Trusts, & Probates, Legal Services, Divorce & Family Law, Professional Services",Cleveland,Goodwin & Bryan,44126,2.0,OH
1180 N Town Center Dr,eC-XUA0VhOmU49gSQb-RTg,"Lawyers, Professional Services, Estate Planning Law",Las Vegas,Law Offices of Pamela Jones,89144,5.0,NV
"2200 Paseo Verde Pkwy, Ste 350",xsYYHCTjYpmIzqtMI8NsIg,"Lawyers, Professional Services, Divorce & Family Law, Bankruptcy Law, Estate Planning Law",Henderson,Ford & Friedman,89052,4.0,NV
"6330 Spring Mountain Rd, Ste D",_uOp33KhlWnqUWWZ5Wwn_g,"Immigration Law, Professional Services, Lawyers, Personal Injury Law, Estate Planning Law",Las Vegas,Law Offices of Eric K. Chen,89146,4.0,NV
"20 E Thomas Rd, Ste 2200",8_qSnI18U9LlcWGFNwKC4g,"Real Estate Law, Lawyers, Business Law, Professional Services, General Litigation, Criminal Defense Law, Estate Planning Law",Phoenix,Kleinman Law Firm,85012,3.5,AZ
703 S 8th St,6HBRu5vvtpH1lln7qYCSdw,"Divorce & Family Law, Personal Injury Law, Legal Services, DUI Law, Criminal Defense Law, General Litigation, Lawyers, Professional Services, Real Estate Law",Las Vegas,"Alex B. Ghibaudo, P.C.",89101,3.0,NV
,IKVF1pZqoEhvVQQqG5jscw,"Estate Planning Law, Professional Services, Lawyers",Mesa,Family Tree Estate Planning - Mesa/Tempe,85206,3.5,AZ
"2820 Selwyn Ave, Ste 425",xR8-i-2Qdg1MSBsDPAKs4Q,"Estate Planning Law, Wills, Trusts, & Probates, Professional Services, Tenant and Eviction Law, Lawyers, Real Estate Law",Charlotte,Hankin & Pack Law,28209,1.0,NC
"7227 E Baseline Rd, Ste 109",UHAXvfuHn_est-DJcfjIQw,"Professional Services, Lawyers, Divorce & Family Law, Business Law, Estate Planning Law, Personal Injury Law, Bankruptcy Law",Mesa,Dodge & Vega,85209,3.5,AZ
"7025 W Bell Rd, Ste 8",DFXnSo3uzj8LiiDeR1k22A,"Lawyers, Legal Services, Divorce & Family Law, Professional Services, Real Estate Law, Business Law",Glendale,Monahan Law Firm,85308,3.5,AZ
"3030 N 3rd St, Ste 770",1x7quBnzVvOkKHtsPCWQeA,"Professional Services, Lawyers, Estate Planning Law, Personal Injury Law, Divorce & Family Law, Wills, Trusts, & Probates, Bankruptcy Law",Phoenix,Kamper Estrada,85012,5.0,AZ
3420 N Buffalo Dr,xl6c9WkFcIFamGLkqYIYkw,"Criminal Defense Law, Divorce & Family Law, Personal Injury Law, Professional Services, Lawyers, Estate Planning Law, DUI Law",Las Vegas,Kurth Law Office,89129,4.5,NV
10799 W Twain Ave,grJwuzsLp3lFR3IMm8cs-w,"Professional Services, Lawyers, Wills, Trusts, & Probates, Estate Planning Law",Las Vegas,Cassady Law Offices,89135,4.0,NV
165 North Queen Street,VtITCOfuxRk3CSNBx8_qPg,"Real Estate Law, Professional Services, Local Services, Lawyers, Legal Services, Notaries",Toronto,Axess Law,M9C 1A7,1.0,ON
402 E Southern Ave,YX3ooK_QOjal8Pi9QNYSWA,"Lawyers, Entertainment Law, Real Estate Law, Professional Services, Business Law",Tempe,Kuzmich & Associates,85282,5.0,AZ
"7272 East Indian School Rd, Ste 111",pYMDovqfT7FclTOeUUIf6Q,"Lawyers, Real Estate Law, Business Law, Bankruptcy Law, Professional Services",Scottsdale,The Law Office of Joseph Velez,85251,3.5,AZ
"7881 W Charleston Blvd, Ste 160",f_-YvSQ08g2LAF9Se-Mq4A,"Professional Services, DUI Law, Divorce & Family Law, Lawyers, Bankruptcy Law, Personal Injury Law, Real Estate Law",Las Vegas,Lonardo and Jacovino Law Firm,89117,5.0,NV
"11811 N Tatum Blvd, Ste 3031",37v4ie0ubsJR2FkZsSFrUA,"Financial Services, Debt Relief Services, Divorce & Family Law, Estate Planning Law, Bankruptcy Law, Professional Services, Lawyers",Phoenix,Rambo Law Offices,85028,5.0,AZ
719 S 6th St,GkfO4Lc1osCKItP4lWaVzg,"Estate Planning Law, Contract Law, Professional Services, Legal Services, Lawyers, Divorce & Family Law, Process Servers, Bankruptcy Law",Las Vegas,Low Cost Document Preparation Services,89101,2.5,NV
"5020 E Shea Blvd, Ste 240",KGyZ8Auih5LDWC7_-DaX9g,"Lawyers, Divorce & Family Law, Mediators, Professional Services, Estate Planning Law, Personal Injury Law, Criminal Defense Law",Scottsdale,Ogborne Law,85254,5.0,AZ
"6720 N Scottsdale Rd, Ste 305",fxkqaZgPUVrs1Tgdnrec1w,"Professional Services, Business Law, Real Estate Law, Lawyers, Wills, Trusts, & Probates, Estate Planning Law",Scottsdale,Galbut Beabeau,85253,5.0,AZ
"14220 N Northsight Blvd, Ste 135",T23Z6F4l0j-qriMSlyYTLA,"Wills, Trusts, & Probates, Estate Planning Law, Personal Injury Law, Real Estate Law, General Litigation, Professional Services, Divorce & Family Law, Lawyers",Scottsdale,Berk Law Group,85260,5.0,AZ
"8970 W Cheyenne Ave, Ste 110",81H_yEsSDHcy2rXZ7EwsZw,"Business Law, Wills, Trusts, & Probates, Estate Planning Law, Professional Services, Lawyers",Las Vegas,Stone Law Offices,89129,4.5,NV
"1100 W Bagley Rd, Ste 210",GkYEcoWW1BHkXe9DZgM3gA,"Estate Planning Law, Real Estate Law, Business Law, Lawyers, Professional Services",Berea,"Margaret T Karl, Attorney",44017,3.0,OH
7319 N 16th St,7YOEPQdMWGbKsat7xTeDwg,"Divorce & Family Law, Lawyers, Professional Services, Active Life, Wills, Trusts, & Probates, Estate Planning Law, Employment Law",Phoenix,GillespieShields,85020,3.5,AZ
"Walmart, 1900 Eglinton Avenue",e5e4jowzkZzc_HSGRK2Y2Q,"Legal Services, Personal Injury Law, Local Services, Professional Services, Estate Planning Law, Real Estate Law, Lawyers, Notaries",Toronto,Axess Law,M1L 2L9,2.5,ON
"8102 N 23rd Ave, Ste E",pTuL-z6fGXBzbsqWhwJy2g,"Bankruptcy Law, Lawyers, Professional Services, Notaries, Financial Services, Estate Planning Law, General Litigation, Debt Relief Services, Local Services",Phoenix,Hauf Law Office,85021,3.0,AZ
"1839 E Queen Creek Rd, Ste 1",h_u4YEyuWCUMZFosKQyPEw,"DUI Law, Bankruptcy Law, Criminal Defense Law, Professional Services, Lawyers, Estate Planning Law, General Litigation, Personal Injury Law",Chandler,Gordwin Law,85286,3.5,AZ
"333 N Dobson Rd, Ste 5",53dFNOHN2CkcmRM-0PqwWg,"Professional Services, Estate Planning Law, Home Services, Real Estate Law, Business Law, Real Estate, Lawyers",Chandler,"Law Offices of Jeffrey A. Schoen, P.C.",85224,3.5,AZ
"1747 E Morten Ave, Ste 108",nNYd0DPiFJU0Ud4IHnDG4Q,"Professional Services, General Litigation, Lawyers, Real Estate Law, Business Law",Phoenix,Innabi Law Firm,85020,4.5,AZ
3336 E Chandler Heights Rd,NEehpvyHO6EJO44_yuPC9g,"Estate Planning Law, Accountants, Tax Services, Financial Services, General Litigation, Legal Services, Lawyers, Professional Services",Gilbert,"The Law Office Of Kristin Gentile White, PC",85298,3.0,AZ
"7251 W Lake Mead Blvd, Ste 300",Vg9c5JeXkYpJh_bS6sH0tA,"DUI Law, Lawyers, Divorce & Family Law, Professional Services, Personal Injury Law, Criminal Defense Law, Estate Planning Law, Business Law, Wills, Trusts, & Probates, Bankruptcy Law",Las Vegas,James Edward Smith,89128,4.0,NV
