address,business_id,categories,city,name,postal_code,stars,state
"15605 W Roosevelt St, Ste 103",FNtrxYca1pRcPJ80ZPQu_w,"Financial Services, Home & Rental Insurance, Home Services, Real Estate, Auto Insurance, Life Insurance, Automotive, Insurance, Real Estate Services",Goodyear,Allstate Insurance: Oscar Arnold,85338,5.0,AZ
128 Clairton Blvd,1wB4Is9P9U11sihZVUQgaw,"Home & Rental Insurance, Insurance, Life Insurance, Financial Services, Auto Insurance",Pittsburgh,Triangle Benefit Services,15236,5.0,PA
"4260 W Craig Rd, Ste 150-A",nTq2Oej2WsSiOBNNEtR6lg,"Auto Insurance, Insurance, Health Insurance Offices, Funeral Services & Cemeteries, Health & Medical, Home & Rental Insurance, Local Services, Financial Services, Life Insurance",Las Vegas,Nevada Insurance Enrollment,89032,4.5,NV
"4120 N 20th St, Ste B",wL2JpTAk3zziok1Y9jpMVw,"Financial Services, Life Insurance, Insurance, Health & Medical, Health Insurance Offices",Phoenix,Focus Benefits Group,85016,5.0,AZ
1013 S Stapley Dr,wkcLbpz6GCDJ5D0_uwg9aQ,"Auto Insurance, Insurance, Financial Services, Home & Rental Insurance, Life Insurance",Mesa,Arizona National Insurance,85204,5.0,AZ
"2400 S Rancho Dr, Ste 160",AkBSbIyrsa3Fy8lP0WuN7g,"Auto Insurance, Home & Rental Insurance, Life Insurance, Financial Services, Insurance",Las Vegas,Shalyani Alberto - State Farm Insurance Agent,89102,4.5,NV
"633 E Ray Dr, Ste 106",hu0ZSSIYN4YoNHgnQqNgRg,"Financial Services, Home & Rental Insurance, Life Insurance, Insurance, Auto Insurance",Gilbert,Legacy Insurance & Investment Group,85296,1.5,AZ
"715 W Baseline Rd, Ste 3",46Tp9MfHruBf2ReaU5SZBg,"Life Insurance, Home & Rental Insurance, Insurance, Financial Services, Auto Insurance, Professional Services",Tempe,Farmers Insurance - Greg Krajewski,85283,3.5,AZ
"7145 W Ann Rd, Ste 120",ep9qv_IHwduMhp0C6xBZ1A,"Insurance, Financial Services, Auto Insurance, Life Insurance, Home & Rental Insurance",Las Vegas,All Nevada Insurance,89130,4.0,NV
"2990 Sunrdg Hgts, Ste 130",N0wCyREajOBd6ptgJfCsKQ,"Auto Insurance, Life Insurance, Home & Rental Insurance, Insurance, Financial Services",Henderson,Allstate Insurance: Mike Seifer,89052,5.0,NV
,ha7QgVNfyDXQ7GXqhZqpTQ,"Life Insurance, Insurance, Home & Rental Insurance, Auto Insurance, Financial Services",Charlotte,Valbuena Insurance Group,28209,2.0,NC
231 N Gilbert Rd,s_L5r5U09ryymTpcs7YrxQ,"Financial Services, Home & Rental Insurance, Auto Insurance, Life Insurance, Insurance",Gilbert,Allstate Insurance: Wes Cain,85234,3.5,AZ
"7400 E Pinnacle Peak Rd, Ste 204",3M0eqrPb7Ae2ywKqrNCH9Q,"Auto Insurance, Home & Rental Insurance, Financial Services, Insurance, Life Insurance",Scottsdale,Neate Dupey Insurance Group,85255,5.0,AZ
"6955 N Durango Dr, Unit 1001",LA3mtgvUBTX_DGmjfFGdtg,"Financial Services, Insurance, Auto Insurance, Life Insurance, Home & Rental Insurance",Las Vegas,Allstate Insurance: Padma Schaudt,89149,2.5,NV
2346 E Bonanza Rd,gX_M3-No7Enc0f4eLxZh_Q,"Financial Services, Auto Insurance, Insurance, Home & Rental Insurance, Life Insurance",Las Vegas,Freeway Insurance,89101,3.5,NV
"301 N Pecos Rd, Ste D",LuCGd2ccVQJECqNId72fZg,"Life Insurance, Home & Rental Insurance, Auto Insurance, Financial Services, Insurance",Henderson,Western Pacific Insurance,89074,4.5,NV
"2450 S Gilbert Rd, Ste 212",sT_J-0Vji-LGteSdVp_gww,"Investing, Home & Rental Insurance, Insurance, Life Insurance, Financial Services, Auto Insurance",Chandler,Alpha & Omega Financial Group,85286,5.0,AZ
"3211 N Tenaya Way, Ste 115",8mdM8abuDq5-QhYBjIY94w,"Life Insurance, Financial Services, Insurance, Home & Rental Insurance, Auto Insurance",Las Vegas,Desert Shores Insurance Services,89129,4.5,NV
"2800 W Sahara Ave, Ste 6A",uW46dizrUk0J1BJc7MkY4A,"Professional Services, Insurance, Accountants, Tax Services, Life Insurance, Financial Services",Las Vegas,JC 101 Services,89102,1.5,NV
"4411 S Rural Rd, Ste 201",GCH-_SwHCAsUnLli54JRaQ,"Health & Medical, Home Health Care, Health Insurance Offices, Life Insurance, Insurance, Financial Services",Tempe,Rodney Horne - Whole Health 4 Life,85282,5.0,AZ
"10715 David Taylor Dr, Ste 500",xf29ZP4UPzPwX6M-0GMIWg,"Financial Services, Auto Insurance, Home & Rental Insurance, Insurance, Life Insurance",Charlotte,Erie Insurance Group,28262,1.0,NC
"6530 N Buffalo Dr, Ste 140",u04012ROvcubmBDUMQadmA,"Life Insurance, Insurance, Home & Rental Insurance, Auto Insurance, Financial Services",Las Vegas,Allstate Insurance Agent: Julio Lyons,89131,3.5,NV
"2625 E Craig Rd, Ste F",9M9sYHxewgpbzmeKrjw_fA,"Life Insurance, Financial Services, Auto Insurance, Insurance, Home & Rental Insurance",North Las Vegas,Colleen Drinnon - American Family Insurance,89030,3.5,NV
8276 W Camelback Rd,1cJTrCjIHusAE4P_GHqyYA,"Financial Services, Auto Insurance, Home & Rental Insurance, Life Insurance, Insurance",Glendale,Allstate Insurance: Juan Deglane,85303,4.0,AZ
,48pViHXrYENXVyX44mUGNg,"Health & Medical, Health Insurance Offices, Life Insurance, Insurance, Financial Services",Phoenix,"Casey Kemp, Rane Family Insurance",85027,5.0,AZ
"7380 S Eastern Ave, Ste 123",t0unczk90zU3bTYFqDqrEg,"Financial Services, Life Insurance, Insurance, Home & Rental Insurance, Auto Insurance",Las Vegas,Allstate Insurance Agent: Rosalie Gonzalez,89123,3.5,NV
"1000 N Green Valley Pkwy, Ste 450",H8yEpcHQKXnWIUBk9EtK-w,"Financial Services, Insurance, Auto Insurance, Life Insurance, Home & Rental Insurance",Henderson,Allstate Insurance : The Bell Agency,89074,4.5,NV
"112 N Tryon St, Ste 300",BVMH2vmNMjE3Al4gOnrAVQ,"Financial Services, Auto Insurance, Life Insurance, Home & Rental Insurance, Insurance",Charlotte,Allstate Insurance: J C Alvarado,28202,4.0,NC
"7825 Ballantyne Commons, Ste 220",rvaq6umghH9sfNaizkYUCg,"Banks & Credit Unions, Financial Services, Home & Rental Insurance, Life Insurance, Auto Insurance, Insurance",Charlotte,Tom Harman - State Farm Insurance Agent,28277,3.0,NC
"6145 S Rainbow Blvd, Ste 105",8Q2IPMjrDPwILXa4lBKB8Q,"Financial Advising, Financial Services, Life Insurance, Insurance, Investing, Tax Services",Las Vegas,Link Financial Advisory,89118,5.0,NV
"8133 Ardrey Kell Rd, Ste 202",WXpVC1VbdUaZYgbC4LWV7Q,"Insurance, Financial Services, Life Insurance, Auto Insurance, Home & Rental Insurance",Charlotte,Allstate Insurance: Ken Costanza,28277,5.0,NC
"467 E Silverado Ranch Blvd, Ste 120",CYDBaTzC45UzX1eY1jkckg,"Financial Services, Life Insurance, Home & Rental Insurance, Insurance, Auto Insurance",Las Vegas,Loan Ngo: Allstate Insurance,89183,4.5,NV
"625 N Gilbert Rd, Ste 107",mbYxVY1lgekEq9UKrzRnxA,"Home & Rental Insurance, Life Insurance, Auto Insurance, Insurance, Financial Services",Gilbert,San Tan Insurance,85234,5.0,AZ
"8989 E Via Linda, Ste 218",htNzGIFsWVRcuNXAFEZiTQ,"Home & Rental Insurance, Life Insurance, Financial Services, Insurance, Auto Insurance",Scottsdale,Allstate Insurance: Paulina Kalaj,85258,5.0,AZ
"10610 Metromont Pkwy, Ste 300",V4lqHS9JvdRjKI7-Y1LJvQ,"Insurance, Financial Services, Life Insurance",Charlotte,Liberty National Life Insurance,28269,1.0,NC
"8235 S Eastern Ave, Ste 160",uPs-BlHDIXbFdX9eMnZSTg,"Insurance, Financial Services, Financial Advising, Investing, Life Insurance",Las Vegas,Legacy Wealth Management Group of Las Vegas,89123,4.5,NV
"10040 W Cheyenne Ave, Ste 140",yiL2RaDn8q09RvrhFNFilQ,"Financial Services, Insurance, Auto Insurance, Life Insurance, Home & Rental Insurance",Las Vegas,Allstate Insurance: Joe Webster,89129,5.0,NV
"9640 W Tropicana Ave, Ste 106",rpBurVI-UgQMZuBWJWqmhA,"Health Insurance Offices, Insurance, Financial Advising, Health & Medical, Financial Services, Investing, Life Insurance",Las Vegas,Sun City Financial,89147,5.0,NV
"34225 N 27th Dr, Bldg 5, Ste 149",Y__4UnDUBNwQZmvK2uMRoA,"Financial Services, Auto Insurance, Insurance, Home & Rental Insurance, Life Insurance",Phoenix,Kerth Insurance & Associates,85085,3.5,AZ
"3315 W Craig Rd, Ste 110",XGfQGUj1GX7BfuOlpjOfDA,"Auto Insurance, Life Insurance, Home & Rental Insurance, Insurance, Financial Services",North Las Vegas,GEICO Insurance Agent,89032,2.5,NV
"300 E John St, Ste 122",ZtzEEY9T3l6mwr27mwm__w,"Home & Rental Insurance, Auto Insurance, Financial Services, Life Insurance, Insurance",Matthews,Allstate Insurance: Curtis P Ireland,28105,5.0,NC
"5940 S Rainbow Blvd, Ste 167",r_vyV25Z5aCHYiNYw1pFBQ,"Life Insurance, Financial Services, Insurance, Health & Medical, Health Insurance Offices",Las Vegas,Effortless Insurance,89118,5.0,NV
1837 E Indian School Rd,A8xaVmM6WFCVwgoLaV-tTg,"Home & Rental Insurance, Financial Services, Auto Insurance, Insurance, Life Insurance",Phoenix,Bill Hunter Insurance Brokers,85016,4.5,AZ
"2345 E Centennial Pkwy, Ste 114",eYvZ3U789PkYZpot5f2PmQ,"Financial Services, Banks & Credit Unions, Life Insurance, Auto Insurance, Insurance, Home & Rental Insurance",North Las Vegas,Ariel Rivera - State Farm Insurance Agent,89081,4.5,NV
"2162 N Lamb Blvd, Ste I",fSHNctJhKrjEPVYidGLJ3w,"Insurance, Life Insurance, Auto Insurance, Financial Services, Home & Rental Insurance",Las Vegas,Short Stop Insurance,89115,5.0,NV
"9699 N Hayden Rd, Ste E107",zFG5IbUkZMPYanGIEYlYew,"Financial Services, Life Insurance, Home & Rental Insurance, Insurance, Auto Insurance",Scottsdale,Allstate Insurance: Steve Froehle,85258,3.5,AZ
"701 N Green Valley Pkwy, Ste 207",bumTq2vGtYq-gTFXtcpWxQ,"Home & Rental Insurance, Auto Insurance, Life Insurance, Financial Services, Insurance",Henderson,Shelter Insurance,89074,3.5,NV
20660 N 40th St,eE31byofFhIN6c8t_Gxviw,"Insurance, Auto Insurance, Life Insurance, Home & Rental Insurance, Financial Services",Phoenix,ACC Insurance Agency,85050,5.0,AZ
"3415 W Craig Rd, Ste 201",sd4Bg0MBQOqG89BGOPcF9Q,"Financial Services, Auto Insurance, Life Insurance, Home & Rental Insurance, Insurance",North Las Vegas,Allstate Insurance: Lydia Hernandez,89032,3.5,NV
"7150 E Camelback Rd, Ste 310",EdeCgDn9XfSulY0DmSwVCA,"Life Insurance, Financial Services, Insurance, Health Insurance Offices, Health & Medical",Scottsdale,Rob Hess,85251,4.0,AZ
"2605 S Decatur Blvd, Ste 115",VcXzF9hKUyJZNrNgkzsiXg,"Insurance, Financial Services, Auto Insurance, Life Insurance, Home & Rental Insurance",Las Vegas,Freeway Insurance,89102,3.5,NV
6110 Parkland Blvd,DBM0lIFFkMlhfXQ0TGWQvQ,"Life Insurance, Insurance, Financial Services",Cleveland,Selman & Company,44124,1.0,OH
"3660 E University, Ste 2",BoiDlrYoSFDgX02d0rrh1A,"Financial Services, Financial Advising, Home & Rental Insurance, Auto Insurance, Insurance, Life Insurance, Investing",Mesa,Monique Allan - COUNTRY Financial representative,85205,2.5,AZ
"1825 W Chandler Blvd, Ste 1",Mr1unBOrzaq8bq1PlNnVKg,"Banks & Credit Unions, Auto Insurance, Insurance, Financial Services, Home & Rental Insurance, Life Insurance",Chandler,Adam Gettys - State Farm Insurance Agent,85224,4.5,AZ
8480 Placid St,jGnLkfqlVbmbp-Bw5Ex8NA,"Auto Insurance, Life Insurance, Financial Services, Home & Rental Insurance, Insurance",Las Vegas,Dawn Fisler - American National,89123,5.0,NV
"3923 S Mcclintock Dr, Ste 410",74EPO52NAXxuOK0sBpdeaQ,"Auto Insurance, Life Insurance, Insurance, Financial Services",Tempe,Farmers Insurance - Ashlee Candelaria,85282,4.5,AZ
,YONVFCF2RoSUFEndbVTOww,"Life Insurance, Auto Insurance, Financial Services, Home & Rental Insurance, Insurance",Henderson,Kevin Walker Insurance,89012,4.0,NV
"3218 E Bell Rd, Ste 25",FWNoYwndpV88gYAxpjsYTQ,"Financial Services, Financial Advising, Auto Insurance, Life Insurance, Insurance, Home & Rental Insurance",Phoenix, L & A Insurance Services,85032,4.0,AZ
"3160 S Gilbert Rd, Ste 4",d3FZnKqJYt3tsrFkAxq27Q,"Financial Services, Auto Insurance, Insurance, Home & Rental Insurance, Life Insurance",Chandler,Allstate Insurance Agent: Jacque Riggs,85286,5.0,AZ
"3202 E Greenway Rd, Ste 1627",aGnZPtxIzhLJwQ7iGVtJCg,"Financial Services, Home & Rental Insurance, Auto Insurance, Insurance, Life Insurance",Phoenix,Chris Wing - State Farm Insurance Agent,85032,5.0,AZ
"3260 N Hayden Rd, Ste 210",LKH4GWgp-SwkyvttTWU7ow,"Financial Services, Life Insurance, Auto Insurance, Insurance, Home & Rental Insurance",Scottsdale,Desert Breeze Insurance,85251,5.0,AZ
"3291 N Buffalo Dr, Ste 110",tAEObdpNAr4uYtTRkYhmuw,"Auto Insurance, Life Insurance, Home & Rental Insurance, Insurance, Financial Services",Las Vegas,ANI Cindy K Agency,89129,5.0,NV
"14300 N Northsight Blvd, Ste 211",JFN7PmFmda3g18mqSfWVJg,"Financial Services, Home & Rental Insurance, Life Insurance, Auto Insurance, Insurance",Scottsdale,Homeowners Insurance Group,85260,5.0,AZ
7206 McKnight Rd,432dZkZCHl8CxTjjZcrvAg,"Auto Insurance, Home & Rental Insurance, Financial Services, Life Insurance, Insurance",Pittsburgh,Allstate Insurance: Thomas Bianco,15237,3.5,PA
8280 W Union Hills Dr,zZPCAFK85NtitSNVP_wfYg,"Financial Services, Auto Insurance, Insurance, Life Insurance, Home & Rental Insurance",Glendale,Allstate Insurance: Fontella Van Camp,85308,3.5,AZ
124 Ingram Ave,tioMC2-mHzW32Tu9qxcepA,"Insurance, Financial Services, Life Insurance, Home & Rental Insurance, Auto Insurance",Pittsburgh,Ron Dunn Agency,15205,4.0,PA
"9069 W Olive Ave, Ste A-104",pSt2df0jL189khzj5ngW4A,"Insurance, Financial Services, Home & Rental Insurance, Auto Insurance, Life Insurance",Peoria,Allstate Insurance Agent: The Valley West Agency,85345,5.0,AZ
"14555 N Scottsdale Rd, Ste 320",9ySP50htb3PFWgmAx_yLqw,"Home & Rental Insurance, Life Insurance, Auto Insurance, Financial Services, Insurance",Scottsdale,Palomino Insurance Agency,85254,4.0,AZ
"2520 Saint Rose Pkwy, Ste 103",GofeUkCl94KSq6dqBtenxQ,"Home & Rental Insurance, Life Insurance, Financial Services, Real Estate Agents, Real Estate, Auto Insurance, Home Services, Insurance",Henderson,Sean Stewart Agency - American Family Insurance,89074,3.5,NV
"4195 S Grand Canyon Dr, Ste 106",Z10IxsMvkbt-sfrg8OJpow,"Financial Services, Auto Insurance, Home & Rental Insurance, Insurance, Life Insurance",Las Vegas,Allstate Insurance: Maria Miuccio,89147,5.0,NV
"7373 N Scottsdale Rd, Ste A240",f6Rmxt7iyD9VQPSBRtyJBQ,"Financial Services, Home & Rental Insurance, Life Insurance, Insurance, Auto Insurance",Scottsdale,Brett Gaboury - State Farm Insurance Agent,85253,5.0,AZ
"2045 S Vineyard, Ste 152",SujRQoprIz-FhzRICiHeNA,"Insurance, Auto Insurance, Financial Services, Life Insurance, Home & Rental Insurance",Mesa,Imes Insurance Associates,85210,5.0,AZ
"8155 E Indian Bend Rd, Ste 105",ICb40uV-PUL1hSJjaHEnJQ,"Life Insurance, Financial Services, Auto Insurance, Insurance, Home & Rental Insurance",Scottsdale,Don Neeley Agency,85250,5.0,AZ
1241 John Q Hammons Dr,km2PtgozRgycboykaYXgCQ,"Insurance, Life Insurance, Home & Rental Insurance, Auto Insurance, Financial Services",Madison,Rural Mutual Insurance Company,53717,2.5,WI
"3606 N Rancho Dr, Ste 140",eJ55rNlpb6aRYKBImBIOGA,"Auto Insurance, Financial Services, Life Insurance, Insurance, Home & Rental Insurance",Las Vegas,1source Insurance Group,89130,5.0,NV
"7345 S Durango Dr, Ste 108",X2npIOOjxpIRtrF3xgkk1A,"Insurance, Financial Services, Auto Insurance, Home & Rental Insurance, Life Insurance",Las Vegas,American Family Insurance - Heather Spencer Agency,89113,4.0,NV
5645 Spring Mountain Rd,4f9zyUI3loYe1z6lXLip8g,"Auto Insurance, Insurance, Financial Services, Home & Rental Insurance, Life Insurance",Las Vegas,Freeway Insurance,89146,3.5,NV
"1955 E Tropicana Ave, Ste H",KfyXFYuRTEJTisPMsrDOpQ,"Financial Services, Insurance, Auto Insurance, Life Insurance, Home & Rental Insurance",Las Vegas,Alliance Insurance Agency,89119,5.0,NV
"700 N Estrella Pkwy, Ste 200",GdlrKQaR_BHqAQ6WO5UKSA,"Life Insurance, Auto Insurance, Home & Rental Insurance, Insurance, Financial Services",Goodyear,Kurt Bojarski -  American Family Insurance,85338,3.5,AZ
"9325 Center Lake Dr, Ste 130",GE2I21ZJMlrOtJ1_dnRCEA,"Financial Services, Auto Insurance, Life Insurance, Insurance, Home & Rental Insurance",Charlotte,GEICO Insurance Agent,28216,4.5,NC
"4343 N Scottsdale Rd, Ste 300",VAtV52a5etfyCYrVHLUJJQ,"Financial Advising, Insurance, Financial Services, Life Insurance",Scottsdale,Sagicor Life Insurance Company,85251,2.5,AZ
,-oZtmu_M3Q2uc6HbzCxVFQ,"Health & Medical, Insurance, Health Insurance Offices, Financial Services, Life Insurance",Chandler,Bruno Nascimento - Health Insurance Broker,85225,4.5,AZ
,HPf2w40jVbz3vErI22rz4g,"Financial Services, Home & Rental Insurance, Auto Insurance, Insurance, Life Insurance",Huntersville,Melanie Foushee Poteat Insurance,28078,2.5,NC
"702 Bloomington Rd, Ste 205",YklSTCQsb1chav_BqvKfUg,"Auto Insurance, Life Insurance, Insurance, Professional Services, Home & Rental Insurance, Financial Services",Champaign,Rueck Insurance,61820,5.0,IL
"4041 E Thomas Rd, Ste 109",Un7kvJDRWtSQkMZddMnlSg,"Insurance, Financial Services, Auto Insurance, Home & Rental Insurance, Life Insurance",Phoenix,Freeway Insurance,85018,3.0,AZ
"6020 W Flamingo Rd, Ste 12",0M4fn7ib4zJF6CF0XPLSfg,"Financial Services, Life Insurance, Insurance, Home & Rental Insurance, Auto Insurance",Las Vegas,Allstate Insurance: Regan and Ginger Agency,89103,4.5,NV
"21620 N 19th Ave, Ste A-5",vgdTO9LqZ07k7Bz2KHBhrw,"Financial Services, Insurance, Life Insurance",Phoenix,Phoenix Health Insurance,85027,4.5,AZ
"3030 S Rural Rd, Ste 104",KF3E3GeUD2NXeXeUl91GYg,"Financial Services, Auto Insurance, Insurance, Home & Rental Insurance, Life Insurance",Tempe,Allstate Insurance: Don Stoll,85282,2.0,AZ
"2525 W Horizon Ridge Pkwy, Ste 210",72VeMkF5kS8fBs2apxmsmg,"Financial Services, Home & Rental Insurance, Life Insurance, Auto Insurance, Insurance",Henderson,Craveiro Agency - All Nevada Insurance,89052,4.0,NV
431 W Cottage Grove Rd,eJA5nK0Td5c3ogMNpvDteA,"Financial Services, Auto Insurance, Home & Rental Insurance, Life Insurance, Insurance",Cottage Grove,Allstate Insurance: Scott Feit,53527,4.0,WI
"6731 W Alexander Rd, Ste 106",84Afv7WdD0RZ4nTK2W5KXA,"Financial Services, Insurance, Life Insurance, Auto Insurance, Home & Rental Insurance",Las Vegas,Allstate Insurance: William Duran,89108,2.5,NV
"4990 W Craig Rd, Ste A-7",T7O79jOeJ00NysW6lsXpTw,"Financial Services, Life Insurance, Insurance, Home & Rental Insurance, Auto Insurance",Las Vegas,Allstate Insurance: Brittny Perry,89130,5.0,NV
"11024 N 28th Dr, Ste 240",lSzkXsRdC6Y5QWetgyshwQ,"Life Insurance, Health & Medical, Health Insurance Offices, Insurance, Financial Services",Phoenix,Ethan J Pickner- USHealth Advisors,85029,5.0,AZ
5513 S Eastern Ave,nE839kwA1bRZVYKNMx2dWw,"Financial Services, Life Insurance, Home & Rental Insurance, Insurance, Auto Insurance",Las Vegas,Brooks Whitmore - State Farm Insurance Agent,89119,4.5,NV
"3300 S Decatur Blvd, Ste 12",dYdfK-7eQEXC5vaBM9iDpg,"Life Insurance, Auto Insurance, Roadside Assistance, Tax Services, Automotive, Insurance, Home & Rental Insurance, Financial Services",Las Vegas,Toro Insurance and Taxes,89102,3.5,NV
"7435 W Azure Dr, Ste 150",yhIZGPqNp76xxeN7UC75qA,"Financial Services, Home & Rental Insurance, Life Insurance, Auto Insurance, Insurance",Las Vegas,Allstate Insurance Agent: Yvette Beck,89130,2.5,NV
"6440 N Durango Dr, Ste 144",m_Ya56gz3GYv_moJIGnCkg,"Auto Insurance, Home & Rental Insurance, Life Insurance, Insurance, Financial Services",Las Vegas,American Family Insurance - Matthew Meron Agency,89149,3.5,NV
"8010 W Sahara Ave, Ste 140",ywkqeOQJ8prz7-a6rGWumQ,"Financial Services, Insurance, Home & Rental Insurance, Auto Insurance, Life Insurance, Mortgage Lenders, Mortgage Brokers, Home Services, Real Estate",Las Vegas,Valley West Mortgage,89117,3.5,NV
"6522 N 16th St, Ste 3",YIB0G07n6ZS1ujqXkUsPcw,"Financial Services, Home & Rental Insurance, Insurance, Life Insurance, Auto Insurance",Phoenix,Insurance Savers,85016,2.5,AZ
"11024 N 28th Dr, Ste 240",9Wcbia0wKpitwUGuDQ9b7w,"Health & Medical, Life Insurance, Health Insurance Offices, Insurance, Financial Services",Phoenix,Dawn Black - US Health Advisors,85029,5.0,AZ
,X07RdsUxbNJlAdMsqj9Bpw,"Financial Services, Auto Insurance, Life Insurance, Home & Rental Insurance, Insurance",Las Vegas,Harold Loyd Insurance Agency,89145,5.0,NV
"6450 Spring Mountain Rd, Ste 10",Y2O3x0yv75IjytcoVcPuHg,"Auto Insurance, Home & Rental Insurance, Insurance, Life Insurance, Financial Services",Las Vegas,Diana Xu - State Farm Insurance Agent,89146,3.5,NV
1324 Pearl Rd,VHlzOgycjgbnyyE2CiB8aA,"Home & Rental Insurance, Auto Insurance, Financial Services, Insurance, Life Insurance",Brunswick,Homestead Insurance Agency,44212,5.0,OH
"8390 S Rainbow Blvd, Ste 104",37YSr4e6_dDgnnfv4iqjiA,"Life Insurance, Financial Services, Insurance, Auto Insurance, Home & Rental Insurance",Las Vegas,Allstate Insurance Agent: The Taylor Family Agency,89139,3.5,NV
"207 N Gilbert Rd, Ste 001",D1Nt3Dct4B-r8z4Q7BgLOg,"Life Insurance, Financial Advising, Auto Insurance, Financial Services, Insurance, Home & Rental Insurance",Gilbert,Elite Insurance Group,85234,4.5,AZ
"3740 E Southern Ave, Ste 201",xDVkVo8vrTJw2KfKKFlx-A,"Financial Services, Home & Rental Insurance, Life Insurance, Auto Insurance, Insurance",Mesa,Allstate Insurance: Roger Bentley,85206,5.0,AZ
6290 S Rainbow Blvd,Xx9zZ1eNqmJiNWo_txLzcQ,"Financial Services, Insurance, Home & Rental Insurance, Auto Insurance, Life Insurance",Las Vegas,Advance Insurance & Benefits,89118,4.0,NV
"2470 W Ray Rd, Bldg G, Ste 3",NBOYSIooGU4R1DaVdLJQLA,"Insurance, Auto Insurance, Life Insurance, Financial Advising, Investing, Home & Rental Insurance, Financial Services",Chandler,Mark Derrico - COUNTRY Financial representative,85224,3.5,AZ
"1560 W Warner Rd, Ste 201",dYpUzW3w52eFxayVmDQjdg,"Financial Services, Life Insurance, Auto Insurance, Home & Rental Insurance, Insurance",Gilbert,Allstate Insurance Agent: Joe Kennedy,85233,5.0,AZ
"8375 W Flamingo Rd, Ste 102",PeUHpCsJCIlmnRSeAmT52g,"Auto Insurance, Financial Services, Insurance, Life Insurance, Home & Rental Insurance",Las Vegas,Distinctive Insurance,89147,4.5,NV
"2948 E Russell Rd, Ste A",RGVgrEOE7virBx2aqkbPbQ,"Life Insurance, Home & Rental Insurance, Insurance, Auto Insurance, Financial Services",Las Vegas,All Nevada Insurance,89120,4.0,NV
,1nssK_8alg_UEdtZijj8wQ,"Financial Services, Home & Rental Insurance, Life Insurance, Auto Insurance, Insurance",Las Vegas,Justin Loeber Insurance,89129,2.0,NV
"8691 W Sahara Ave, Ste 200",71OhIBf4pbL6CQoLeVjqng,"Insurance, Financial Services, Life Insurance",Las Vegas,American Income Life Insurance Company,89117,4.0,NV
"5055 W Ray Rd, Ste 22",C1Mu8Sjk9ArI4c5z0DVXSQ,"Financial Services, Auto Insurance, Life Insurance, Insurance, Home & Rental Insurance",Chandler,Allstate Insurance: Kevin Lum,85226,4.0,AZ
,ZSSpHwi9Ks_1H_a-IAzCwQ,"Insurance, Financial Services, Auto Insurance, Home & Rental Insurance, Life Insurance",Phoenix,David Sanders Insurance,85044,4.0,AZ
"8100 E Indian School Rd, Ste 102",LNjTazm_E1gT7pFDBTiWjQ,"Home & Rental Insurance, Financial Services, Insurance, Auto Insurance, Life Insurance",Scottsdale,Brock T Quinn - State Farm Insurance Agent,85251,5.0,AZ
6000 American Pkwy,fsk-sPpo1yIG0-kLKsvS5A,"Insurance, Auto Insurance, Life Insurance, Home & Rental Insurance, Financial Services",Madison,American Family Insurance,53783,1.5,WI
"8900 E Pinnacle Peak Rd, Ste 220",y5J_HrtnnA2-nB6KZ4X0Xg,"Life Insurance, Insurance, Home & Rental Insurance, Financial Services, Auto Insurance",Scottsdale,Farmers Insurance - Joseph Fritz,85255,3.5,AZ
"10075 S Eastern Ave, Ste 109",o64dQ9LXZ_UfnzGDdVutbg,"Insurance, Roadside Assistance, Auto Repair, Travel Services, Hotels & Travel, Auto Insurance, Home & Rental Insurance, Life Insurance, Automotive, Towing, Financial Services, Investing",Henderson,AAA-Anthem,89052,4.0,NV
"4089 Spring Mountain Rd, Ste 2",PWYAO6wUhlJdFoIRKAotXg,"Insurance, Auto Insurance, Financial Services, Life Insurance, Home & Rental Insurance",Las Vegas,Allstate Insurance: Yuqing Zhang,89102,2.5,NV
,uPOCtXFMpkCjllwAscQBDg,"Auto Insurance, Financial Services, Insurance, Life Insurance, Home & Rental Insurance",Gilbert,Phaedra Earhart Insurance,85296,5.0,AZ
"2298 W Horizon Ridge Pkwy, Ste 100",Fvs3xMQQp2ftCxaxik3rcA,"Insurance, Auto Insurance, Life Insurance, Home & Rental Insurance, Financial Services",Henderson,Farmers Insurance - Birant Or,89052,5.0,NV
"6914 Matthews Mint Hill Rd, Ste 150",UD9bpB7Y0mpLSptCy6atlA,"Home & Rental Insurance, Life Insurance, Auto Insurance, Financial Services, Insurance",Charlotte,Superior Insurance - Travis McCray Agency,28227,3.5,NC
"4742 N 24th St, Ste 300A",iOZ8nqLgnTFRJpgQTlTyww,"Auto Insurance, Insurance, Life Insurance, Home & Rental Insurance, Financial Services",Phoenix,Coriano Insurance Agency,85016,5.0,AZ
"8147 E Evans Rd, Ste B-07",jI8YbxlBz6pJVr6KfCOuBQ,"Home & Rental Insurance, Auto Insurance, Insurance, Financial Services, Life Insurance",Scottsdale,Pinnacle Peak Insurance Group,85260,5.0,AZ
"8850 S Maryland Pkwy, Ste 115",WC4V4Pe6D1a4XOO7QyG9vQ,"Financial Services, Life Insurance, Auto Insurance, Insurance, Home & Rental Insurance",Las Vegas,Amber Arlint - State Farm Insurance Agent,89123,5.0,NV
"2510 Saint Rose Pkwy, Ste 130",_mHF-SmblRQplYnl-vEtgA,"Financial Services, Auto Insurance, Home & Rental Insurance, Life Insurance, Insurance",Henderson,Allstate Insurance: Christina Piccirillo,89074,2.5,NV
"3107 S Gilbert Rd, Ste 109",LsNN1TB116Ero-qt4JtxPQ,"Insurance, Financial Services, Home & Rental Insurance, Life Insurance, Auto Insurance",Gilbert,Allstate Insurance : Jason Thorpe,85295,4.5,AZ
"1750 S Rainbow Blvd, Ste 23",z71J8yVWQNVPG7huLZjvkg,"Home & Rental Insurance, Auto Insurance, Financial Services, Insurance, Life Insurance, Professional Services",Las Vegas,Quality Insurance,89146,4.0,NV
"7445 S Durango Dr, Ste 103",9CDVmtG0diCIXcE64_j0Aw,"Towing, Financial Services, Auto Insurance, Local Services, Notaries, Life Insurance, Home & Rental Insurance, Roadside Assistance, Insurance, Auto Repair, Hotels & Travel, Automotive, Travel Services",Las Vegas,AAA - Las Vegas,89113,4.0,NV
"8090 S Durango Dr, Ste 111",zQdVsGQf2fePGfPydj_4-g,"Financial Services, Life Insurance, Insurance, Auto Insurance, Home & Rental Insurance",Las Vegas,Allstate Insurance Agent: Linda Baumann,89113,4.0,NV
"10120 S Eastern Ave, Ste 202",5YCnRCaJYPJfYr75VtfP2A,"Financial Services, Life Insurance, Auto Insurance, Home & Rental Insurance, Insurance",Henderson,Insurance 4 Less,89052,4.0,NV
"1717 E Bell Rd, Ste 7",59fXIyyCOLSaq0dMWuJWrA,"Financial Services, Auto Insurance, Insurance, Home & Rental Insurance, Life Insurance",Phoenix,American Family Insurance - Luke Shafer Agency,85022,3.5,AZ
17470 N Pacesetter Way,r8rCPyqzG_V20UmASt6Bog,"Financial Services, Home & Rental Insurance, Auto Insurance, Life Insurance, Insurance",Scottsdale,Greene Insurance Group,85255,4.0,AZ
"1 Forsythe Rd, Ste 2",iP0v4PCqrBirMrtUpAYZ_w,"Financial Services, Home & Rental Insurance, Auto Insurance, Life Insurance, Insurance",Presto,Jay Papuga - State Farm Insurance Agent,15142,2.5,PA
"7795 W Sahara Ave, Ste 103, American Family Insurance",NJYIkLmPtv8WHRl5ObUDWg,"Financial Services, Home & Rental Insurance, Auto Insurance, Insurance, Life Insurance",Las Vegas,Raja Mourey Agency,89117,5.0,NV
"9440 W Sahara Ave, Ste 210",zUHnwQiwcEEcC-MEzRUBaQ,"Financial Services, Life Insurance, Insurance, Auto Insurance, Home & Rental Insurance",Las Vegas,All Nevada Insurance,89117,4.5,NV
"1916 W Baseline Rd, Ste 8",V-5mlbZrOGAH5Si_4grltw,"Financial Services, Health Insurance Offices, Insurance, Life Insurance, Health & Medical",Mesa,RMS Insurance Services,85202,4.5,AZ
"240 S Rainbow Blvd, Ste 4",chNmIN7GE035WIc_XQ1uzg,"Financial Services, Auto Insurance, Insurance, Home & Rental Insurance, Life Insurance",Las Vegas,Allstate Insurance: Tom Prince,89145,4.5,NV
"18325 N Allied Way, Ste 215",Kiz44CvR2dsDpOmDQ-6hQA,"Financial Services, Insurance, Life Insurance, Auto Insurance, Home & Rental Insurance",Phoenix,Allstate Insurance: Jay LaSalle,85054,4.0,AZ
"555 W Chandler Blvd, Ste 203",sRMB0sMH3Qgu7p0CF1U_Ow,"Life Insurance, Financial Services, Insurance, Auto Insurance",Chandler,Colgrove Financial,85225,3.5,AZ
"1350 East Flamingo Rd, Ste 3095",l9K2pgSZGlM4U9JphrBBkA,"Life Insurance, Health Insurance Offices, Health & Medical, Insurance, Auto Insurance, Financial Services, Home & Rental Insurance",Las Vegas,World Insurance Network,89119,5.0,NV
"3160 W Sahara Ave, Ste A25",gzssN0rX1AcbZrNfujCaJw,"Financial Services, Home & Rental Insurance, Auto Insurance, Insurance, Health Insurance Offices, Life Insurance, Health & Medical",Las Vegas,Elevate Insurance,89102,4.0,NV
"9005 South Pecos Rd, Ste 2530",XVHaeJSS8g9wxLWcIuGI4w,"Life Insurance, Auto Insurance, Financial Services, Insurance, Home & Rental Insurance",Henderson,Liberty Mutual Insurance,89074,2.0,NV
"70 E Horizon Ridge Pkwy, Ste 110",ONFGUvwL2ydwkTslp33whA,"Home & Rental Insurance, Auto Insurance, Life Insurance, Insurance, Automotive, Marketing, Registration Services, Smog Check Stations, Health & Medical, Financial Services, Professional Services, Health Insurance Offices",Henderson,Young Insurance Brokers,89002,4.0,NV
"6431 W Sahara Ave, Ste 200",jErpeAt_EMrAMpvarnqalQ,"Life Insurance, Notaries, Tax Services, Local Services, Financial Services, Fingerprinting, Printing Services, CPR Classes, Specialty Schools, Auto Insurance, Education, Insurance",Las Vegas,Xeration Services,89146,4.5,NV
"223 S Water St, Ste B",ls4hBAON7wJTDR7QS7wzLw,"Financial Services, Home & Rental Insurance, Auto Insurance, Life Insurance, Insurance",Henderson,Farmers Insurance - Bonnie Grant,89015,5.0,NV
"9640 W Tropicana Ave, Ste 112",05Gzb-XmOHibRxJOB0VOpA,"Financial Services, Auto Insurance, Life Insurance, Home & Rental Insurance, Insurance",Las Vegas,All Nevada Insurance,89147,5.0,NV
"401 E Blvd, Ste 200",l1ij8rDLOV1NCvNQDaUgwQ,"Life Insurance, Insurance, Financial Services, Home & Rental Insurance, Auto Insurance",Charlotte,Allstate Insurance: Benjamin Helbein,28203,3.5,NC
"15410 N 67th Ave, Ste 4, American Family Insurance",r2kwwrsm3GF-xI5F2RlUMA,"Insurance, Life Insurance, Auto Insurance, Financial Services, Home & Rental Insurance",Glendale,Ron Heyman Insurance Agency,85306,5.0,AZ
"8811 Blakeney Professional Dr, Ste 110",xQBiviYOBrmWS-CtrOjpng,"Auto Insurance, Home & Rental Insurance, Financial Services, Insurance, Life Insurance",Charlotte,Melanie Stone - State Farm Insurance Agent,28277,5.0,NC
4 Center Ave,we6J4GZlSrEwq4aINc4Rdw,"Professional Services, Auto Insurance, Home & Rental Insurance, Life Insurance, Investing, Insurance, Financial Services, Banks & Credit Unions",Pittsburgh,Chad Gregorini - State Farm Insurance Agent,15215,5.0,PA
181 W Bagley Rd,G1CFbktudpb62oiVvCLdMQ,"Insurance, Investing, Life Insurance, Auto Insurance, Financial Services, Financial Advising",Berea,King Insurance & Financial Services,44017,5.0,OH
"1000 Nevada Way, Ste 108",4PDn42er4pMWip6-G3r_9Q,"Insurance, Auto Insurance, Life Insurance, Financial Services, Home & Rental Insurance",Boulder City,Amerisent Insurance,89005,5.0,NV
"103 Waxhaw Professional Park Dr, Ste C",OGook49XfpOzHrn9elTv3Q,"Financial Services, Life Insurance, Home & Rental Insurance, Auto Insurance, Insurance",Waxhaw,Kevin Godfrey: Allstate Insurance,28173,3.0,NC
"9770 S Maryland Pkwy, Ste 9",m2s4m9mSroqXZMKoS_P7vA,"Financial Services, Life Insurance, Auto Insurance, Insurance, Home & Rental Insurance",Las Vegas,Allstate Insurance Agent: Gary Hodum,89183,5.0,NV
100 Kingston Dr,6rXMgnLtdEPath2PQji1NQ,"Insurance, Financial Services, Life Insurance",Pittsburgh,American Income Life Insurance,15235,2.5,PA
"815 E Baseline Rd, Ste 105",82gjsdOfdCqrgd6gxKqbrA,"Life Insurance, Financial Services, Insurance, Auto Insurance, Home & Rental Insurance",Tempe,Jack Chumadevsky - GEICO Insurance,85283,4.0,AZ
825 W Warner Rd,og3xwzBfWE-KthoLCWT7Jg,"Financial Services, Banks & Credit Unions, Insurance, Home & Rental Insurance, Life Insurance, Auto Insurance",Chandler,J William Quigley - State Farm Insurance Agent,85225,5.0,AZ
"9515 W Camelback Rd, Ste 134",-hnqU4j1uuW5uD7CnW-jrw,"Financial Services, Home & Rental Insurance, Life Insurance, Auto Insurance, Insurance",Phoenix,GEICO Insurance Agent,85037,2.5,AZ
"3651 E Baseline Rd, Ste E-203",RZCwCc3wxjJEVXMKGbggfw,"Insurance, Auto Insurance, Life Insurance, Financial Services, Home & Rental Insurance",Gilbert,American Family Insurance - Jeff Gray Agency,85234,3.5,AZ
"34406 N 27th Dr, Ste 5-136",VHP1_x-VA5XxDldwpsFjZw,"Life Insurance, Auto Insurance, Home & Rental Insurance, Financial Services, Insurance",Phoenix,American Family Insurance - Martie Troisi Agency,85085,5.0,AZ
"8060 S Rainbow Blvd, Ste 120",M35msZRXNwe6lrjWOwFmRg,"Financial Services, Home & Rental Insurance, Life Insurance, Insurance, Auto Insurance",Las Vegas,Jen Sias-Lyke - State Farm Insurance Agent,89139,3.5,NV
"7040 Laredo St, Ste H",8iIALK9BTSKRqzY4YM7RAg,"Investing, Financial Services, Insurance, Auto Insurance, Financial Advising, Home & Rental Insurance, Life Insurance",Las Vegas,Mountain Pacific Insurance And Financial Services,89117,5.0,NV
"5777 S Rural Rd, Ste 2",xncM4Pcodfy6xcI6iQeL2Q,"Life Insurance, Auto Insurance, Insurance, Financial Services, Home & Rental Insurance, Professional Services",Tempe,American Family Insurance - Dave Markus Agency,85283,5.0,AZ
"3508 N 7th St, Ste 115",3zVQTiuTnnk4k7NUAIVoFQ,"Life Insurance, Financial Services, Home & Rental Insurance, Insurance, Auto Insurance",Phoenix,Edward Vasquez - Allstate Insurance,85014,4.0,AZ
"9701 W Flamingo Rd, Ste 3",24xxPan0fvkN6wOWIwmS_g,"Financial Services, Insurance, Life Insurance, Home & Rental Insurance, Auto Insurance",Las Vegas,Jen Sias-Lyke - State Farm Insurance Agent,89147,4.5,NV
"9850 S Maryland Pkwy, Ste 7",CguCUzbMSsEUukwrtJV8ig,"Financial Services, Home & Rental Insurance, Insurance, Life Insurance, Auto Insurance",Las Vegas,Perry Olson - State Farm Insurance Agent,89183,4.0,NV
"3215 Saint Rose Pkwy, Ste 120",9GiBGaR3uQpQzZGlWf90VQ,"Automotive, Auto Insurance, Home & Rental Insurance, Insurance, Financial Services, Life Insurance",Henderson,Allstate Insurance Agent: Jeremy Peltz,89052,5.0,NV
"3303 E Baseline Rd, Ste 106",jNcQGu4rNcwo0BMMJUiCxA,"Financial Services, Financial Advising, Life Insurance, Insurance, Auto Insurance",Gilbert,Krell Financial Group,85234,5.0,AZ
"9844 W Yearling Rd, Ste D-1160",uJmztx2Y9JuR0f43C1X2mQ,"Insurance, Financial Services, Auto Insurance, Home & Rental Insurance, Life Insurance",Peoria,Arrowhead Insurance,85383,5.0,AZ
"14955 W Bell Rd, Ste 8031",TrG5nNYVJ_BEu_8VVSxR3Q,"Health & Medical, Financial Services, Insurance, Health Insurance Offices, Life Insurance",Surprise,Andy Orlikoff - American Insurance Benefits,85374,4.0,AZ
"1955 E Tropicana Ave, Ste I",2ux8STqB09dO3DgjxO4KSA,"Financial Services, Insurance, Home & Rental Insurance, Auto Insurance, Life Insurance",Las Vegas,Allstate Insurance: Moe Elousta,89119,2.0,NV
"4729 E Ray Rd, Ste B-3",b29_s_HVCp1osZiy27Feog,"Financial Services, Insurance, Banks & Credit Unions, Home & Rental Insurance, Life Insurance, Auto Insurance",Phoenix,Jeff Jirele - State Farm Insurance Agent,85044,4.0,AZ
,VsenRYkMsUMNMHykvkeZog,"Financial Services, Insurance, Life Insurance, Home & Rental Insurance, Auto Insurance",Las Vegas,George Morse IV Insurance,89148,2.5,NV
2008 Murray Ave,pN-qHhdu5ll3e6Wn1yaMkQ,"Insurance, Auto Insurance, Financial Services, Life Insurance, Home & Rental Insurance",Pittsburgh,Preston & Grafton Insurance Agency,15217,5.0,PA
"4440 S Durango Dr, Ste F",t9Onm3CulaEB9uXX7wkbaA,"Financial Services, Life Insurance, Auto Insurance, Home & Rental Insurance, Insurance",Las Vegas,Allstate Insurance : Nicholas Sakha,89147,4.5,NV
"4447 E Broadway Rd, Ste 104",VYgdieG0wfNzEpXgtZH4oQ,"Auto Insurance, Financial Services, Insurance, Life Insurance",Mesa,Farmers Insurance - Chad J. Connelly,85206,3.5,AZ
"8880 S Maryland Pkwy, Ste 120",Q4wi1vs35hEiMtT2P1WKpQ,"Financial Services, Auto Insurance, Life Insurance, Home & Rental Insurance, Insurance",Las Vegas,Kathy Kline: Allstate Insurance,89123,3.5,NV
"205 N Stephanie St, Ste E",kthxbk1itRZjMYbNi0_lKQ,"Home & Rental Insurance, Financial Services, Auto Insurance, Insurance, Life Insurance",Henderson,Allstate Insurance: Michael Westra,89074,4.0,NV
"3595 S Towncenter Dr, Ste 105",Le47vXWPnsxig78qeEz6ZQ,"Real Estate Services, Life Insurance, Home & Rental Insurance, Insurance, Auto Insurance, Real Estate, Financial Services, Home Services",Las Vegas,Legacy Insurance Group,89135,3.5,NV
"2403 N Pebble Creek Pkwy, Ste 110",XwMIqHJzE1ePnno5MC1Zcw,"Financial Services, Home & Rental Insurance, Life Insurance, Insurance, Auto Insurance",Goodyear,Allstate Insurance: Peter Zipp,85395,5.0,AZ
"985 W Chandler Heights Rd, Ste 3",wM5hXxZHSB4a6UhJxIwtJg,"Financial Services, Life Insurance, Auto Insurance, Home & Rental Insurance, Insurance",Chandler,Allstate Insurance: Jason Tuttle,85248,5.0,AZ
"5505 W Chandler Blvd, Ste 19",OiabkzRAQGVgSG3Mx-Fp5Q,"Home & Rental Insurance, Financial Services, Life Insurance, Auto Insurance, Insurance",Chandler,Michael Pinta Agency - American Family Insurance,85226,3.5,AZ
"1000 N Green Valley Pkwy, Ste 620",-cMZseG83WjioeJytzrM3g,"Roadside Assistance, Auto Repair, Automotive, Towing, Local Services, Home & Rental Insurance, Insurance, Financial Services, Travel Agents, Notaries, Life Insurance, Auto Insurance, Travel Services, Hotels & Travel",Henderson,AAA Green Valley,89074,3.0,NV
"4670 South Fort Apache Rd, Ste 275",l5oY2R-j6UTXqY-gdIJU2Q,"Insurance, Real Estate, Life Insurance, Real Estate Services, Home & Rental Insurance, Financial Services, Auto Insurance, Home Services",Las Vegas,Stewart Title,89147,2.0,NV
"3455 W Craig Rd, Ste D",MlVWchLD01pDxVHMfgX_Ng,"Tax Services, Home & Rental Insurance, Financial Advising, Notaries, Investing, Life Insurance, Insurance, Auto Insurance, Financial Services, Local Services",North Las Vegas,Farmers Insurance - Eliam Marcos Marrero Bernal,89032,4.0,NV
9931 Knockando Ln,Fk3Zav0PPGUTD1Fs6pUYgw,"Roadside Assistance, Travel Services, Automotive, Auto Insurance, Insurance, Tours, Financial Services, Hotels & Travel, Life Insurance, Auto Repair",Huntersville,AAA - Huntersville,28078,3.0,NC
"633 E Ray Rd, Ste 114",-GFPQagbSjgywMZTKoZdTA,"Insurance, Auto Insurance, Financial Services, Life Insurance, Home & Rental Insurance",Gilbert,David Klatt - American Family Insurance,85296,5.0,AZ
"6655 W Sahara Ave, Ste C116",mpnS5lxkP4heH_BdzXX2wg,"Financial Services, Insurance, Auto Insurance, Life Insurance, Home & Rental Insurance",Las Vegas,Allstate Insurance: Fred Ledford,89146,4.5,NV
"5150 N 16th St, Ste C162",SIk6Qh0Ldb9Bw4TBHDkERQ,"Financial Services, Home & Rental Insurance, Auto Insurance, Insurance, Life Insurance",Phoenix,Brian Moore - American Family Insurance,85016,5.0,AZ
"6348 S Rainbow Blvd, Ste 100A",mi83z2NkFXNknx-fN75kzw,"Insurance, Auto Insurance, Home & Rental Insurance, Life Insurance, Financial Services",Las Vegas,Kendal Haynie Jr - American Family Insurance,89118,4.5,NV
"1291 Galleria Dr, Ste 125",Sq4SXCKo57WogWKjJGPF5Q,"Financial Services, Life Insurance, Insurance, Auto Insurance, Home & Rental Insurance",Henderson,Allstate Insurance: Alex Kleytman,89014,4.0,NV
"4820 S Mill Ave, Ste 202",cEMpozeBNFw3kJKw0mz0bg,"Auto Insurance, Insurance, Financial Services, Life Insurance, Home & Rental Insurance",Tempe,Executives Insurance Agency,85282,1.5,AZ
1529 W Thomas Rd,DaQka_7vgUSP7HjDpdJX-A,"Financial Services, Auto Insurance, Life Insurance, Home & Rental Insurance, Insurance",Phoenix,Citywide Insurance,85015,1.0,AZ
"301 E Woodlawn Rd, Ste 2",M9TjYmTgHayJ22cNkyvW_g,"Financial Services, Insurance, Life Insurance, Home & Rental Insurance, Auto Insurance",Charlotte,GEICO Insurance Agent,28217,3.0,NC
"15414 N 7th St, Ste 9",ezFFBKMriR085N7PTU1Gtw,"Financial Services, Auto Insurance, Life Insurance, Insurance, Home & Rental Insurance",Phoenix,Allstate Insurance Agent: Heather Everette,85022,4.0,AZ
"270 E Horizon Dr, Ste 107",KGHBfJKVpD8cNhb-_wWj9w,"Financial Services, Life Insurance, Insurance, Home & Rental Insurance, Auto Insurance",Henderson,Melissa Hudson - Allstate Insurance,89015,4.0,NV
"7633 E Acoma Dr, Ste 207a",sY8XRM7BWjdTFkDhYlWg4w,"Insurance, Auto Insurance, Financial Services, Life Insurance, Home & Rental Insurance",Scottsdale,Chris Roden - American Family Insurance,85260,5.0,AZ
"800 N Rainbow Blvd, Ste 208",sAhIUjf_0SpoPz1f8Z3Tdg,"Auto Insurance, Financial Services, Insurance, Life Insurance, Home & Rental Insurance",Las Vegas,T & T Insurance Group,89107,5.0,NV
"7045 W Ann Rd, Ste 140",HvZ_fSa236y2Y6--k8klIw,"Financial Services, Home & Rental Insurance, Auto Insurance, Life Insurance, Insurance",Las Vegas,Curtis Clark - Allstate Insurance,89130,5.0,NV
"14071 W Bell Rd, Ste 105",HdjF5e7cSgLlW80T3dSxBw,"Auto Insurance, Banks & Credit Unions, Financial Services, Life Insurance, Insurance, Home & Rental Insurance",Surprise,Lisa RO Ross State Farm Insurance Agency,85374,3.5,AZ
,X8gL4rK65lsFmh-vFK1MGw,"Insurance, Financial Services, Auto Insurance, Home & Rental Insurance, Life Insurance",Glendale,Shelley Grandidge Insurance,85306,3.5,AZ
"706 E Bell Rd, Ste 211",st-qEHMnbX9o8n2qoNFwuA,"Financial Services, Insurance, Auto Insurance, Home & Rental Insurance, Life Insurance",Phoenix,CDS Insurance Agency,85022,3.0,AZ
"7965 S Rainbow Blvd, Ste 100",m2rxwxGOJRtmM-MUIZR3JQ,"Insurance, Financial Services, Investing, Life Insurance, Auto Insurance",Las Vegas,Farmers Insurance - Jeffrey Venuto,89139,4.5,NV
"29834 N Cave Creek Rd, Ste 132",QX_NhIW15o9jtoiLvwlZmA,"Auto Insurance, Financial Services, Insurance, Life Insurance, Home & Rental Insurance",Cave Creek,Allstate Insurance: Rebecca Niessink,85331,4.0,AZ
"4801 E Independence Blvd, Ste 300",u_DxFjZmwdZsaL9qR0Yh7A,"Professional Services, Accountants, Financial Services, Life Insurance, Health Insurance Offices, Auto Insurance, Health & Medical, Home & Rental Insurance, Insurance",Charlotte,Latorre Insurance,28212,5.0,NC
"5852 E McKellips Rd, Ste 109",byTX6cD0rMskM3SidJ4SkQ,"Insurance, Financial Services, Auto Insurance, Life Insurance, Home & Rental Insurance",Mesa,Allstate Insurance Agent: Sheri Shull,85215,4.0,AZ
"9299 W Olive Ave, Ste 304",aCBv9qeXGi7PvBn0W6X73A,"Life Insurance, Auto Insurance, Insurance, Financial Services, Home & Rental Insurance",Peoria,Bovaird Insurance Agency,85345,4.0,AZ
2130 S Rural Rd,YfPHmToBq2IPJPhfDwqeeg,"Insurance, Financial Services, Home & Rental Insurance, Auto Insurance, Life Insurance",Tempe,Arredondo & Arredondo Insurance,85282,3.5,AZ
"4343 E Camelback Rd, Ste 400",MHdY00QVbvcfIlZk7DVVSw,"Life Insurance, Financial Services, Insurance",Phoenix,Lincoln Heritage Life Insurance Company,85018,3.5,AZ
7766 W Sahara Ave,ASC0wW7TYI_en2iWkgEfVA,"Financial Advising, Home & Rental Insurance, Life Insurance, Financial Services, Auto Insurance, Insurance",Las Vegas,Allstate Insurance: Thomas Finch,89117,5.0,NV
"9960 W Cheyenne Ave, Ste 240",H-32N5Y442_vZbOo5CQ90A,"Life Insurance, Insurance, Home & Rental Insurance, Auto Insurance, Financial Services",Las Vegas,AMS Insurance,89129,4.5,NV
"1958 Village Center Cir, Ste 5",HE35Ycd4gQizsEEvzfl1lA,"Financial Services, Insurance, Auto Insurance, Home & Rental Insurance, Life Insurance",Las Vegas,Red Rock Insurance,89134,3.5,NV
"4937 Charlotte Hwy, Ste 104",b_OD1zURhcRaFZxH-96LYg,"Financial Services, Auto Insurance, Home & Rental Insurance, Insurance, Life Insurance",Lake Wylie,Allstate Insurance Agent: David Vickers,29710,5.0,SC
"565 Marks St, Ste 100",Rmq4EPT3K7I2t5vXqtqRuA,"Financial Services, Home & Rental Insurance, Auto Insurance, Insurance, Life Insurance",Henderson,Perry Olson - State Farm Insurance Agent,89014,5.0,NV
"7702 E Doubletree Ranch Rd, Ste 100",Un_8Bz2I5UDGMophel3AKg,"Professional Services, Financial Services, Financial Advising, Accountants, Insurance, Life Insurance, Investing, Tax Services",Scottsdale,Trajan Wealth,85258,4.0,AZ
"10608 S Eastern Ave, Ste G",KbPgywB4Wffmjq7jdez_tg,"Financial Services, Auto Insurance, Life Insurance, Insurance, Home & Rental Insurance",Henderson,Allstate Insurance: Mark Taylor,89052,5.0,NV
"2240 N Scottsdale Rd, Ste 101",NcbTo7Op4wC0ZLmSA70FQQ,"Financial Services, Insurance, Auto Insurance, Home & Rental Insurance, Life Insurance",Tempe,Allstate Insurance: Shawn Schaffer,85281,5.0,AZ
"5060 S Fort Apache Rd, Ste 110",Sjx-QWWH0683ep3dTgqg5A,"Investing, Auto Insurance, Financial Services, Insurance, Life Insurance, Financial Advising",Las Vegas,Farmers Insurance - Carmella Larkins,89148,5.0,NV
"16605 E Palisades Blvd, Ste 118",D91rgeK8Tjqde_UwrjpkHw,"Home & Rental Insurance, Insurance, Life Insurance, Auto Insurance, Financial Services",Fountain Hills,American Family Insurance - Dee Harrison Agency,85268,4.0,AZ
1143 S Braddock Ave,aJIr_v07obSTxqJVwcq1rw,"Auto Insurance, Life Insurance, Insurance, Financial Services",Pittsburgh,Corey Griffith - State Farm Insurance Agent,15218,2.5,PA
,z81aki8YTG1QTFonFsLADw,"Insurance, Life Insurance, Financial Services, Health & Medical",Phoenix,SilverScript Medicare,85072,1.0,AZ
"6061 E Cave Creek Rd, Ste 2",3W18FpEP9FFfRgUI6dFeIQ,"Financial Services, Auto Insurance, Insurance, Life Insurance, Home & Rental Insurance",Cave Creek,Farmers Insurance - Glenn Grossman,85331,5.0,AZ
"20860 N Tatum Blvd, Ste 280",8BXPF6KBZPWl1EfGDfJVYg,"Financial Advising, Banks & Credit Unions, Financial Services, Home & Rental Insurance, Auto Insurance, Life Insurance, Insurance",Phoenix,Sean Overlock - State Farm Insurance Agent,85050,5.0,AZ
6804 N 51st Ave,RfTcnKzUDIrrwx_vOViDQg,"Insurance, Financial Services, Home & Rental Insurance, Auto Insurance, Life Insurance",Glendale,Freeway Insurance,85301,1.0,AZ
2125 Civic Center Dr,UZAIJ4MEB4dhl_DXH9ufrw,"Home & Rental Insurance, Auto Insurance, Financial Services, Life Insurance, Insurance",North Las Vegas,Allstate Insurance : Weston Prince,89030,2.5,NV
"4930 E Main St, Ste 9",dkWfTWbWudgMRmK85vJbrQ,"Home & Rental Insurance, Auto Insurance, Life Insurance, Financial Services, Insurance",Mesa,Fox Reliable Insurance,85205,5.0,AZ
"4539 N 22nd St, Ste 100",vNrtn0yjhUuzar4hrQNHAg,"Insurance, Auto Insurance, Financial Services, Life Insurance, Home & Rental Insurance",Phoenix,Magelan Group,85016,5.0,AZ
"1834 E Baseline Rd, Ste 103",RIbcYeC8tZ-yNWRisFOVYQ,"Insurance, Home & Rental Insurance, Financial Services, Life Insurance, Auto Insurance",Tempe,Robert Smith - State Farm Insurance,85283,3.5,AZ
"8919 W Sahara Ave, Ste 150",bc-uLHzTIfhbw4B5lD35tg,"Financial Services, Auto Insurance, Insurance, Life Insurance, Home & Rental Insurance",Las Vegas,Samuel Peters: Allstate Insurance,89117,2.5,NV
"8040 E Morgan Trl, Ste 5A",xs8f-TmxzXE1eND6UC-cKg,"Auto Insurance, Real Estate Services, Real Estate, Home Services, Home & Rental Insurance, Automotive, Insurance, Financial Services, Auto Loan Providers, Life Insurance",Scottsdale,Vanyo Insurance Group,85258,5.0,AZ
"4910 E Elliot Rd, Ste 100",AulySnEHeA0m0GT4hcPbpQ,"Insurance, Auto Insurance, Financial Services, Home & Rental Insurance, Life Insurance",Phoenix,American Family Insurance - Kevin Gillan Agency,85044,5.0,AZ
"1615 W Camelback Rd, Ste 102",SDZf1Q7ez4FOdydWhGkciQ,"Insurance, Life Insurance, Financial Services, Auto Insurance",Phoenix,Ventura Alejandro Hernandez - State Farm Insurance Agent,85015,5.0,AZ
"400 S Jones Blvd, Ste 104",n9gUOeA_8bhW71knegEDhw,"Home & Rental Insurance, Auto Insurance, Financial Services, Life Insurance, Insurance",Las Vegas,Nevada Insurance Solutions,89107,5.0,NV
"4175 S Riley St, Ste 102",5g3YtscFtp_wwxpE4sBG8A,"Life Insurance, Auto Insurance, Insurance, Financial Services",Las Vegas,Nevada West Business Insurance,89147,5.0,NV
"1200 W University Dr, Ste 105",Omxop97H-lxhxl_a6VghtA,"Financial Services, Insurance, Home & Rental Insurance, Life Insurance, Auto Insurance",Tempe,Allstate Insurance: William Hazlett,85281,3.0,AZ
927 Main St,GFK35HKSCPFlDeHei27VoQ,"Financial Services, Insurance, Auto Insurance, Home & Rental Insurance, Life Insurance",Grafton,Allstate Insurance : Smith & Schmidt Agency,44044,2.5,OH
"8700 E Vista Bonita Dr, Ste 174",4Rn8XCodo_tqNPUhgeBmWg,"Marketing, Home Health Care, Financial Services, Health & Medical, Professional Services, Life Insurance, Health Insurance Offices, Insurance",Scottsdale,General Agent Center,85255,3.5,AZ
17207 N Perimeter Dr,JT7RFSsdwXmDVGTLbHiKHA,"Financial Services, Home & Rental Insurance, Life Insurance, Insurance, Auto Insurance",Scottsdale,Darren Mullins - All Needs Covered Insurance Solutions,85037,5.0,AZ
"9505 Hillwood Dr, Ste 100",03CPJNrFQsVPjSjoKEM-yQ,"Investing, Health & Medical, Health Insurance Offices, Insurance, Financial Advising, Financial Services, Life Insurance",Las Vegas,Nevada Benefits,89134,4.0,NV
"14050 N 83rd Ave, Ste 100",PdMJaqLknKa3UfyVofLgYg,"Life Insurance, Financial Services, Auto Insurance, Home & Rental Insurance, Insurance",Peoria,Ryan Goggins - Liberty Mutual Insurance,85381,5.0,AZ
"13402 N Scottsdale Rd, Ste A-105",-6pjRBsLbkHyGcohvu_Jkw,"Life Insurance, Insurance, Financial Services, Home & Rental Insurance, Auto Insurance",Scottsdale,Josh Epstein - Farmers Insurance,85254,5.0,AZ
"2620 Regatta Dr, Ste 122",xX4EYYO534nfQKiGWB6JZA,"Home & Rental Insurance, Auto Insurance, Life Insurance, Financial Services, Insurance",Las Vegas,Allstate Insurance: Misty Chadwick,89128,5.0,NV
"6881 W Charleston Blvd, Ste A",6EDpBi8FbIc4o8-cZ34kPg,"Health & Medical, Insurance, Life Insurance, Financial Services, Health Insurance Offices",Las Vegas,Cornerstone Benefits & Insurance,89117,5.0,NV
6040 E Main St 101,9y2keyAiQ1Lq5pR5JXJsFA,"Life Insurance, Health & Medical, Medical Centers, Health Insurance Offices, Insurance, Financial Services",Mesa,Medicare Guidance Center,85205,5.0,AZ
"10860 W Charleston Blvd, Ste 130",8GBC8o-i-gWyhqN29URoyQ,"Auto Repair, Hotels & Travel, Towing, Roadside Assistance, Automotive, Financial Services, Travel Services, Life Insurance, Auto Insurance, Insurance, Home & Rental Insurance, Local Services, Registration Services, Notaries",Las Vegas,AAA - Las Vegas,89135,4.0,NV
1017 S Cimarron Rd,AYJ_B6IuO2Ecm9qbfyIBvA,"Financial Services, Auto Insurance, Insurance, Home & Rental Insurance, Life Insurance",Las Vegas,Allstate Insurance: Debbie Gault,89145,5.0,NV
4650 E Thomas Rd,QzhecPbW_L90GtyScXCLyQ,"Home & Rental Insurance, Auto Insurance, Life Insurance, Financial Services, Insurance",Phoenix,Allstate Insurance: Julie Jakubek,85018,4.5,AZ
"4135 S Power Rd, Ste 131",OQZWzJQhdBAeEtD67ZnVAQ,"Financial Services, Home & Rental Insurance, Auto Insurance, Insurance, Life Insurance",Mesa,Premier Choice Insurance,85212,5.0,AZ
"20851 N 83rd Ave, Ste 3",T_7PLE9DBLkYkP5e1E1ehw,"Life Insurance, Home & Rental Insurance, Auto Insurance, Insurance, Financial Services",Peoria,Allstate Insurance: Bob Coudret,85382,4.0,AZ
"10630 N 59th Ave, Ste 102",zYXM8ezCH5O0FBRpOhP-bQ,"Banks & Credit Unions, Financial Services, Auto Insurance, Insurance, Life Insurance, Home & Rental Insurance",Glendale,David Dorman - State Farm Insurance,85304,5.0,AZ
"9059 W Mcdowell Rd, Ste 100",lQ11t972dtlBTN2LbxRDqQ,"Tax Services, Financial Services, Auto Insurance, Life Insurance, Insurance",Tolleson,Kenny Ong Financial Services,85353,5.0,AZ
6052 Royalton Rd,IlQ1E-4xiRuytW21iFPJDQ,"Financial Services, Insurance, Life Insurance, Auto Insurance, Home & Rental Insurance",North Royalton,Allstate Insurance Agent: Ron Less,44133,3.0,OH
7050 W Mercer Ln,OqdFxFbpuQ4UfTGLpBSvng,"Life Insurance, Financial Services, Tax Services, Insurance",Peoria,Symmetry Financial Group,85345,2.0,AZ
"312 N Alma School Rd, Ste 15",7jh4YiREekBDfcSMIyKSGQ,"Real Estate Services, Auto Insurance, Life Insurance, Financial Services, Home Services, Real Estate, Insurance, Home & Rental Insurance",Chandler,Blue Lion Insurance Brokers,85224,5.0,AZ
12 W Vernon Ave,9r8GanN8S6ypKH3wTS1d5Q,"Home & Rental Insurance, Financial Services, Insurance, Notaries, Life Insurance, Auto Insurance, Local Services",Phoenix,Knight Insurance Group,85003,5.0,AZ
"8399 E Indian School Rd, Ste 103",HUovCOl65tY6G02QpI2lhg,"Financial Services, Life Insurance, Home & Rental Insurance, Auto Insurance, Insurance",Scottsdale,Allstate Insurance: Misty Everette,85251,4.5,AZ
"375 E Warm Springs Rd, Ste 201",w9ZJmje41Igdy8lt9jUSIg,"Auto Insurance, Health Insurance Offices, Insurance, Home & Rental Insurance, Life Insurance, Financial Services, Health & Medical",Las Vegas,AssuredPartners Safeguard Insurance,89119,5.0,NV
"6628 Sky Pointe Dr, Ste 119",Klg7aKcXOGEdeLi2oI2cOg,"Life Insurance, Home & Rental Insurance, Auto Insurance, Insurance, Financial Services",Las Vegas,360 Insurance,89131,4.5,NV
"871 Coronado Center Dr, Ste 200",5LhDZcJfSbnVzRBk_3WEog,"Financial Services, Insurance, Auto Insurance, Life Insurance, Home & Rental Insurance, Pet Services, Pets, Pet Insurance",Henderson,Everett Insurance Group,89052,5.0,NV
"9455 W Russel Rd, Ste 130",E8temrx-fE3q1iudrv5oZA,"Financial Services, Home & Rental Insurance, Auto Insurance, Life Insurance, Insurance",Las Vegas,Valley Insurance Group,89148,4.5,NV
"5615 Losee Rd, Ste 100",N0S7UvEKIhiVJ5BdYgWW1Q,"Auto Insurance, Financial Services, Insurance, Life Insurance, Home & Rental Insurance",North Las Vegas,Allstate Insurance: Ajit Kundanani,89081,3.5,NV
"1111 N Gilbert Rd, Ste 210A",chqWEEDKnByAZ6g5kHibZw,"Home & Rental Insurance, Life Insurance, Auto Insurance, Insurance, Financial Services",Gilbert,The Insurance Store,85234,3.5,AZ
,lxV8KqLvg1UfK9PNdo7IkQ,"Auto Insurance, Life Insurance, Home & Rental Insurance, Financial Services, Insurance",Phoenix,Bob Vollmann - State Farm Insurance Agent,85032,4.0,AZ
"11851 N 51st Ave, E140",lDpbfIdMEfbU4FD2BW4A-g,"Financial Services, Auto Insurance, Home & Rental Insurance, Life Insurance, Insurance",Glendale,Monica Valencia - American Family Insurance,85304,3.5,AZ
"20343 N Hayden Rd, Ste 105",g5xZqKIHAiaMZrnwZPouLg,"Health & Medical, Financial Advising, Financial Services, Health Insurance Offices, Life Insurance, Insurance",Scottsdale,H.F. Hanes & Associates,85255,5.0,AZ
"5229 N 7th Ave, Ste 105",JN66aDwKZ1Gf91Yi98Lmng,"Auto Insurance, Home & Rental Insurance, Financial Services, Life Insurance, Insurance",Phoenix,Hassett Insurance,85013,4.5,AZ
"8360 W Sahara Ave, Ste 110",FvdVXfMeCxxiIS1CTb-mLQ,"Life Insurance, Home & Rental Insurance, Financial Services, Auto Insurance, Insurance",Las Vegas,Orgill Singer Insurance,89117,2.5,NV
"6670 S Tenaya Way, Ste 105",gva_fx8xN_kHeDUagn_Xiw,"Financial Services, Home & Rental Insurance, Insurance, Life Insurance, Auto Insurance",Las Vegas,Farmers Insurance - Natalie DeNardo,89113,4.5,NV
"13880 N Northsight Blvd, C Ste 109",zrLlt5GnGHeF_0ElvQ0_5Q,"Professional Services, Financial Services, Pets, Horse Boarding, Insurance, Auto Insurance, Life Insurance, Home & Rental Insurance",Scottsdale,Allen Financial Insurance Group,85260,3.0,AZ
"3085 S Jones Blvd, Ste A",7IfUx7d8RNXVIOskTrY-ow,"Financial Services, Home & Rental Insurance, Insurance, Auto Insurance, Life Insurance",Las Vegas,Bleecher Insurance Advisors,89146,5.0,NV
"2 N Central Ave, Fl 18",p4GYuSVy4Jjo-fq-3_543g,"Health Insurance Offices, Life Insurance, Health & Medical, Financial Services, Insurance",Phoenix,iHealthBrokers,85004,5.0,AZ
"3627 E Indian School Rd, Ste 207",lRRAS3HTqVq7HLvDIeem5g,"Life Insurance, Auto Insurance, Financial Services, Insurance",Phoenix,Farmers Insurance - Gerardo Chirino,85018,5.0,AZ
"4850 E Baseline Rd, Ste 103",T_KGxMC9BKYv6qyATdTvgQ,"Insurance, Home & Rental Insurance, Life Insurance, Auto Insurance, Financial Services",Mesa,American Family Insurance - Paul Gebhard Agency,85206,3.5,AZ
"1930 S Alma School Rd, Ste A101",05BICd7379lUFCAZsL8Q4w,"Auto Insurance, Investing, Life Insurance, Financial Advising, Financial Services, Insurance",Mesa,Farmers Insurance - Jayson Hoffer,85210,4.5,AZ
"1820 W Northern Ave, Ste 100",8_8NG2M3-CrpjXtEv3H95g,"Banks & Credit Unions, Local Services, Financial Services, Insurance, Life Insurance, Home & Rental Insurance, Auto Insurance",Phoenix,Wes Stahler - State Farm Insurance Agent,85021,5.0,AZ
"690 E Warner Rd, Ste 108",n6sG_NVGr_I1wObT73W4Lg,"Home & Rental Insurance, Insurance, Financial Services, Auto Insurance, Pets, Pet Services, Pet Insurance, Life Insurance",Gilbert,Insurance Brokers of Arizona,85296,5.0,AZ
"7600 E Redfield Rd, Ste B-145",qqrZzrMr9FTkUqDfm0DZiw,"Auto Insurance, Financial Services, Life Insurance, Home & Rental Insurance, Insurance",Scottsdale,The Garzella Group,85260,5.0,AZ
"3660 E University Dr, Ste 3, American Family Insurance",3nWI2A-ccjuW5hYmmBiL_Q,"Life Insurance, Home & Rental Insurance, Insurance, Financial Services, Auto Insurance",Mesa,Brian Johnson Agency,85205,5.0,AZ
"7885 W Sahara Ave, Ste 102",aQOYZARifMo_tfQipVsRrA,"Life Insurance, Insurance, Home & Rental Insurance, Auto Insurance, Financial Services",Las Vegas,Tony Repinski - Farmers Insurance,89117,3.5,NV
"5435 W Sahara Ave, Ste E",NkjkIP8Q5sdOgL-_Tu-2XA,"Life Insurance, Auto Insurance, Insurance, Home & Rental Insurance, Financial Services",Las Vegas,Allstate Insurance Agent: Mehrooz Misaghian,89146,3.5,NV
"10226 Couloak Dr, Ste 200",2h2Gmir4rbY9xoLRq6zBEg,"Financial Services, Auto Insurance, Life Insurance, Home & Rental Insurance, Insurance",Charlotte,Tony Hefner - State Farm Insurance Agent,28216,3.5,NC
120 W Aurora Rd,CkYmB8OoPvlu3mmYRmHI2w,"Auto Insurance, Insurance, Home & Rental Insurance, Life Insurance, Financial Services",Northfield,Epic Insurance Center,44067,2.5,OH
"10429 S 51st St, Ste 220",I1MnZyi1dvNkysktcxiQ0g,"Home & Rental Insurance, Life Insurance, Auto Insurance, Insurance, Financial Services",Phoenix,Touchdown Insurance,85044,4.5,AZ
330 N Highway 16,3EicGRKPDsQPS0Dk-XzAAQ,"Auto Insurance, Life Insurance, Home & Rental Insurance, Financial Services, Insurance",Denver,Allstate Insurance: Renee Brooks,28037,2.5,NC
"2655 S Rainbow Blvd, Ste 310",g7GOhK55M9QpQ1GtqyNRpw,"Home & Rental Insurance, Insurance, Auto Insurance, Financial Services, Life Insurance, Automotive",Las Vegas,Insuremart,89146,4.5,NV
"9205 W Russell Rd, Ste 370",-eEJkNuGlDRUlDSqpJVgtw,"Life Insurance, Home & Rental Insurance, Auto Insurance, Financial Services, Insurance",Las Vegas,Liberty Mutual Insurance,89148,3.5,NV
"10120 S Eastern Ave, Ste 200",zME8Cujcpg-IYdB2ONSM6Q,"Insurance, Auto Insurance, Financial Services, Life Insurance, Home & Rental Insurance",Henderson,Jon Spalding Insurance,89052,5.0,NV
